{
  "type": "FeatureCollection",
  "properties": {
    "address": "9 Belgrave Cres, Edinburgh EH4 3AH, UK",
    "spatial_mode": "3D_TILES",
    "schema_version": "7-Strata-v2.0"
  },
  "features": [
    {
      "type": "Feature",
      "id": "stratum_1_observer_frame",
      "geometry": {
        "type": "Point",
        "coordinates": [
          -3.216766472155142,
          55.953682622313394
        ]
      },
      "properties": {
        "stratum": "observer_frame",
        "spatial_mode": "3D_TILES",
        "camera": {
          "altitude_m_agl": 1.4,
          "pitch_deg": 4.5,
          "heading_deg": 95.8,
          "fov_deg": 60.0
        }
      }
    },
    {
      "type": "Feature",
      "id": "stratum_2_subterranean_geology",
      "geometry": {
        "type": "Point",
        "coordinates": [
          -3.216766472155142,
          55.953682622313394
        ]
      },
      "properties": {
        "stratum": "subterranean_geology",
        "foundation_analysis": "* **Bedrock:** Midlothian Carboniferous sedimentary strata; calciferous sandstone measures and shale beds of the Inverclyde Group.\n* **Lithics:** Craigleith buff-grey quartzose sandstone ashlar for main ashlar facades; secondary Hailes laminated sandstone rubble for boundary walls; Scottish metamorphic roofing slate.\n* **Mortar & Drainage:** Non-hydraulic slaked lime and coarse river sand mortar; alluvial clay-silt subsoil grading into Water of Leith drainage basin."
      }
    },
    {
      "type": "Feature",
      "id": "stratum_3_ground_surface",
      "geometry": {
        "type": "Point",
        "coordinates": [
          -3.216766472155142,
          55.953682622313394
        ]
      },
      "properties": {
        "stratum": "ground_surface",
        "primary_surfacing": "Engineered roadway and paved pedestrian curbs",
        "wear_characteristics": "Authentic environmental patina and drainage grading"
      }
    },
    {
      "type": "Feature",
      "id": "stratum_4_landscape_ecology",
      "geometry": {
        "type": "Point",
        "coordinates": [
          -3.216766472155142,
          55.953682622313394
        ]
      },
      "properties": {
        "stratum": "landscape_ecology",
        "botanical_analysis": "* **Species:** *Acer pseudoplatanus* (Sycamore), *Ulmus glabra* (Wych Elm), and *Tilia \u00d7 europaea* (Common Lime).\n* **Phenology (December 24):** Complete winter dormancy; 100% defoliated canopies, bare ramified branch architecture, exposed twig networks, and dormant terminal buds.",
        "foliage_rectification": "Disambiguated from masonry mesh"
      }
    },
    {
      "type": "Feature",
      "id": "stratum_5_built_environment",
      "geometry": {
        "type": "Point",
        "coordinates": [
          -3.216766472155142,
          55.953682622313394
        ]
      },
      "properties": {
        "stratum": "built_environment",
        "architectural_summary": "* **Residential Facades (Left):** Victorian Classical terrace, three storeys over sunken basement. Stugged ashlar basement courses, polished ashlar upper levels, projecting canted bay windows, molded architraves, projecting cornices, and timber-framed sash-and-case fenestration.\n* **Ecclesiastical Structure (Center):** Gothic Revival parish church with multi-stage square ashlar tower, corner pinnacles, blind tracery parapets, lancet windows, and planar nave buttresses.\n* **Boundary & Infrastructure:** Low coursed-rubble retaining walls with weathered coping stones; rolled asphalt lane surface flanked by dressed whinstone and granite kerbstones.",
        "structures": [
          {
            "name": "Primary Facade",
            "storeys": 2,
            "height_m": 7.5,
            "roof_geometry": "pitched / parapet",
            "facade_material": "authentic regional masonry",
            "planar_rectification": "ENFORCED"
          }
        ]
      }
    },
    {
      "type": "Feature",
      "id": "stratum_6_dynamic_elements",
      "geometry": {
        "type": "Point",
        "coordinates": [
          -3.216766472155142,
          55.953682622313394
        ]
      },
      "properties": {
        "stratum": "dynamic_elements",
        "transient_decluttering": "ENFORCED",
        "vehicles": "NONE",
        "pedestrians": "NONE",
        "transient_clutter": "STRIPPED",
        "permanent_civil_fabric": "PRESERVED"
      }
    },
    {
      "type": "Feature",
      "id": "stratum_7_atmospheric_state",
      "geometry": null,
      "properties": {
        "stratum": "atmospheric_state",
        "lighting_rig": "SOLAR_EPHEMERIS",
        "timestamp_utc": "2026-12-24T15:03:00+00:00",
        "weather_state": "SUNNY",
        "solar_azimuth_deg": 218.55,
        "solar_elevation_deg": 2.77,
        "shadow_azimuth_deg": 38.6,
        "color_temperature_k": 3000,
        "ambient_illuminance_lux": 12000
      }
    }
  ]
}