{
  "type": "FeatureCollection",
  "properties": {
    "address": "12 Charlotte Square, Edinburgh EH2 4DJ, UK",
    "spatial_mode": "3D_TILES",
    "schema_version": "7-Strata-v2.0"
  },
  "features": [
    {
      "type": "Feature",
      "id": "stratum_1_observer_frame",
      "geometry": {
        "type": "Point",
        "coordinates": [
          -3.209248241301926,
          55.952232438765314
        ]
      },
      "properties": {
        "stratum": "observer_frame",
        "spatial_mode": "3D_TILES",
        "camera": {
          "altitude_m_agl": 151.6,
          "pitch_deg": -7.7,
          "heading_deg": 167.9,
          "fov_deg": 60.0
        }
      }
    },
    {
      "type": "Feature",
      "id": "stratum_2_subterranean_geology",
      "geometry": {
        "type": "Point",
        "coordinates": [
          -3.209248241301926,
          55.952232438765314
        ]
      },
      "properties": {
        "stratum": "subterranean_geology",
        "foundation_analysis": "The terrain sits within the Edinburgh Midland Valley basin, underlain by Early Carboniferous sedimentary formations (Gullane Formation) comprising interbedded sandstones, siltstones, and mudstones with proximate dolerite volcanic intrusions (Whin Sill suite). The structural masonry is predominantly pale cream-to-buff quartzose Craigleith and Hailes sandstone, known for its fine-grained siliceous matrix, high compressive strength, and durability. Mortar systems throughout the historic fabric consist of traditional hot-mixed non-hydraulic slaked lime and coarse river sand aggregates, facilitating vapor permeability across the massive ashlar retaining walls and structural load-bearing envelopes. Subterranean drainage routes naturally slope southward and westward toward the Water of Leith catchment basin."
      }
    },
    {
      "type": "Feature",
      "id": "stratum_3_ground_surface",
      "geometry": {
        "type": "Point",
        "coordinates": [
          -3.209248241301926,
          55.952232438765314
        ]
      },
      "properties": {
        "stratum": "ground_surface",
        "primary_surfacing": "Engineered roadway and paved pedestrian curbs",
        "wear_characteristics": "Authentic environmental patina and drainage grading"
      }
    },
    {
      "type": "Feature",
      "id": "stratum_4_landscape_ecology",
      "geometry": {
        "type": "Point",
        "coordinates": [
          -3.209248241301926,
          55.952232438765314
        ]
      },
      "properties": {
        "stratum": "landscape_ecology",
        "botanical_analysis": "Bordering the corner of the Charlotte Square central garden enclosure to the left foreground:\n- Mature broadleaf specimens including European Sycamore (*Acer pseudoplatanus*), Wych Elm (*Ulmus glabra*), and English Oak (*Quercus robur*).\n- Foliage presents dense, dark green leafy canopies with complex branch architecture, fissured bark textures, and lush, manicured turf lawn groundcover beneath the perimeter tree line.",
        "foliage_rectification": "Disambiguated from masonry mesh"
      }
    },
    {
      "type": "Feature",
      "id": "stratum_5_built_environment",
      "geometry": {
        "type": "Point",
        "coordinates": [
          -3.209248241301926,
          55.952232438765314
        ]
      },
      "properties": {
        "stratum": "built_environment",
        "architectural_summary": "A neoclassical municipal and civic ensemble centered on West Register House (originally St George's Church, designed by Robert Reid, 1811\u20131814, after Robert Adam's 1791 conceptual scheme) and the surrounding Georgian terraces of Charlotte Square and Hope Street. \n- **West Register House**: A monumental central church/record office terminating the western axis. Features a prominent square-plan central mass with flanking corner pavilions, stepped ashlar plinths, and a commanding high cylindrical peristyle drum supporting a ribbed copper dome topped with a tempietto lantern cupola and cross.\n- **Terraced Townhouses**: 3- to 4-storey residential Georgian townhouses over raised rusticated basements with cantilevered ashlar drop areas and parapeted rooflines. Planar facades are strictly vertical, featuring disciplined rectilinear rhythms of timber 6-over-6 and 12-pane sash-and-case fenestration, molded entablatures, rusticated ground floors, projecting ashlar cornices, and pitched roofs clad in Scottish and Welsh slates with regular stone chimney stacks and clay pots.",
        "structures": [
          {
            "name": "Primary Facade",
            "storeys": 2,
            "height_m": 7.5,
            "roof_geometry": "pitched / parapet",
            "facade_material": "authentic regional masonry",
            "planar_rectification": "ENFORCED"
          }
        ]
      }
    },
    {
      "type": "Feature",
      "id": "stratum_6_dynamic_elements",
      "geometry": {
        "type": "Point",
        "coordinates": [
          -3.209248241301926,
          55.952232438765314
        ]
      },
      "properties": {
        "stratum": "dynamic_elements",
        "transient_decluttering": "ENFORCED",
        "vehicles": "NONE",
        "pedestrians": "NONE",
        "transient_clutter": "STRIPPED",
        "permanent_civil_fabric": "PRESERVED"
      }
    },
    {
      "type": "Feature",
      "id": "stratum_7_atmospheric_state",
      "geometry": null,
      "properties": {
        "stratum": "atmospheric_state",
        "lighting_rig": "SOLAR_EPHEMERIS",
        "timestamp_utc": "2026-08-27T18:15:50.219578+00:00",
        "weather_state": "SUNNY",
        "temperature_c": 15.0,
        "solar_azimuth_deg": 263.98,
        "solar_elevation_deg": 8.32,
        "shadow_azimuth_deg": 84.0,
        "color_temperature_k": 3000,
        "ambient_illuminance_lux": 12000
      }
    }
  ]
}