{
  "type": "FeatureCollection",
  "properties": {
    "address": "17 Charlotte Square, Edinburgh EH2 4DJ, UK",
    "spatial_mode": "3D_TILES",
    "schema_version": "7-Strata-v2.0"
  },
  "features": [
    {
      "type": "Feature",
      "id": "stratum_1_observer_frame",
      "geometry": {
        "type": "Point",
        "coordinates": [
          -3.206784589026718,
          55.95176812129627
        ]
      },
      "properties": {
        "stratum": "observer_frame",
        "spatial_mode": "3D_TILES",
        "camera": {
          "altitude_m_agl": 1.2,
          "pitch_deg": 6.1,
          "heading_deg": 265.3,
          "fov_deg": 60.0
        }
      }
    },
    {
      "type": "Feature",
      "id": "stratum_2_subterranean_geology",
      "geometry": {
        "type": "Point",
        "coordinates": [
          -3.206784589026718,
          55.95176812129627
        ]
      },
      "properties": {
        "stratum": "subterranean_geology",
        "foundation_analysis": "Subterranean foundation: Carboniferous sedimentary bedrock of the Midland Valley basin. Structural masonry: Craigleith and Hailes pale buff-to-grey quartzose sandstone. Bedding mortar: Traditional non-hydraulic to weakly hydraulic slaked lime with coarse local aggregate."
      }
    },
    {
      "type": "Feature",
      "id": "stratum_3_ground_surface",
      "geometry": {
        "type": "Point",
        "coordinates": [
          -3.206784589026718,
          55.95176812129627
        ]
      },
      "properties": {
        "stratum": "ground_surface",
        "primary_surfacing": "Engineered roadway and paved pedestrian curbs",
        "wear_characteristics": "Authentic environmental patina and drainage grading"
      }
    },
    {
      "type": "Feature",
      "id": "stratum_4_landscape_ecology",
      "geometry": {
        "type": "Point",
        "coordinates": [
          -3.206784589026718,
          55.95176812129627
        ]
      },
      "properties": {
        "stratum": "landscape_ecology",
        "botanical_analysis": "Parkland garden enclosure comprising dormant perennial turf (*Lolium perenne*, *Festuca rubra*). Urban canopy: Mature *Platanus \u00d7 acerifolia* (London plane) and *Tilia cordata* (small-leaved lime). Phenological state for late December: Complete winter defoliation, exposed branching networks, dormant terminal buds, zero foliage.",
        "foliage_rectification": "Disambiguated from masonry mesh"
      }
    },
    {
      "type": "Feature",
      "id": "stratum_5_built_environment",
      "geometry": {
        "type": "Point",
        "coordinates": [
          -3.206784589026718,
          55.95176812129627
        ]
      },
      "properties": {
        "stratum": "built_environment",
        "architectural_summary": "Symmetrical Neo-Classical civic square (designed Robert Adam, executed Robert Reid). Central focal structure (West Register House, formerly St George's Church): Tetristyle Ionic/Corinthian colossal portico with dentilled triangular pediment, rusticated ashlar basement, stepped drum, and ribbed copper dome crowned by an octagonal stone lantern. Flanking terraces: 3-storey plus basement and attic Georgian residential palace-front facades, rusticated ground floors, multi-pane timber sash-and-case fenestration (6-over-6 and 12-over-12), continuous string courses, balustraded parapets, and pitched Ballachulish slate roofs with masonry chimneystacks. Foreground: Central equestrian monument on stepped ashlar pedestal.",
        "structures": [
          {
            "name": "Primary Facade",
            "storeys": 2,
            "height_m": 7.5,
            "roof_geometry": "pitched / parapet",
            "facade_material": "authentic regional masonry",
            "planar_rectification": "ENFORCED"
          }
        ]
      }
    },
    {
      "type": "Feature",
      "id": "stratum_6_dynamic_elements",
      "geometry": {
        "type": "Point",
        "coordinates": [
          -3.206784589026718,
          55.95176812129627
        ]
      },
      "properties": {
        "stratum": "dynamic_elements",
        "transient_decluttering": "ENFORCED",
        "vehicles": "NONE",
        "pedestrians": "NONE",
        "transient_clutter": "STRIPPED",
        "permanent_civil_fabric": "PRESERVED"
      }
    },
    {
      "type": "Feature",
      "id": "stratum_7_atmospheric_state",
      "geometry": null,
      "properties": {
        "stratum": "atmospheric_state",
        "lighting_rig": "SOLAR_EPHEMERIS",
        "timestamp_utc": "2026-12-23T15:35:59+00:00",
        "weather_state": "SNOW",
        "solar_azimuth_deg": 225.56,
        "solar_elevation_deg": -0.38,
        "shadow_azimuth_deg": null,
        "color_temperature_k": 2200,
        "ambient_illuminance_lux": 800
      }
    }
  ]
}