{
  "type": "FeatureCollection",
  "properties": {
    "address": "6 Atholl Cres Ln, Edinburgh EH3 8ET, UK",
    "spatial_mode": "3D_TILES",
    "schema_version": "7-Strata-v2.0"
  },
  "features": [
    {
      "type": "Feature",
      "id": "stratum_1_observer_frame",
      "geometry": {
        "type": "Point",
        "coordinates": [
          -3.2106935131010848,
          55.948122595343726
        ]
      },
      "properties": {
        "stratum": "observer_frame",
        "spatial_mode": "3D_TILES",
        "camera": {
          "altitude_m_agl": 143.5,
          "pitch_deg": 1.6,
          "heading_deg": 287.0,
          "fov_deg": 60.0
        }
      }
    },
    {
      "type": "Feature",
      "id": "stratum_2_subterranean_geology",
      "geometry": {
        "type": "Point",
        "coordinates": [
          -3.2106935131010848,
          55.948122595343726
        ]
      },
      "properties": {
        "stratum": "subterranean_geology",
        "foundation_analysis": "Subterranean geology comprises Lower Carboniferous (Dinantian) sedimentary strata of the Gullane and West Lothian Oil-Shale Formations, underlain by basaltic and doleritic volcanic sills. Lithic envelope is dominated by Carboniferous quartz-arenite freestones, predominantly fine-to-medium-grained quartzose Craigleith Sandstone and Hailes Sandstone, interlaid with Binny and Cullalo sandstone units. High silica content (up to 98% quartz in Craigleith) provides exceptional load-bearing durability and compression resistance. Decorative cathedral columns incorporate pink Shap Granite with orthoclase phenocrysts. Mortar matrices are non-hydraulic to feebly hydraulic slaked lime (calcium hydroxide) mixed with sharp river sand and crushed sandstone aggregates, allowing vapour permeability across ashlar joints."
      }
    },
    {
      "type": "Feature",
      "id": "stratum_3_ground_surface",
      "geometry": {
        "type": "Point",
        "coordinates": [
          -3.2106935131010848,
          55.948122595343726
        ]
      },
      "properties": {
        "stratum": "ground_surface",
        "primary_surfacing": "Engineered roadway and paved pedestrian curbs",
        "wear_characteristics": "Authentic environmental patina and drainage grading"
      }
    },
    {
      "type": "Feature",
      "id": "stratum_4_landscape_ecology",
      "geometry": {
        "type": "Point",
        "coordinates": [
          -3.2106935131010848,
          55.948122595343726
        ]
      },
      "properties": {
        "stratum": "landscape_ecology",
        "botanical_analysis": "Atholl and Coates Crescent communal gardens contain mature broadleaf deciduous canopies:\n- Genus & Species: *Platanus \u00d7 acerifolia* (London plane), *Acer pseudoplatanus* (Sycamore maple), *Tilia cordata* (Small-leaved lime), and *Ulmus glabra* (Wych elm).\n- Phenology: Mid-to-late summer canopy state characterized by dense, saturated dark-green foliar volume, fully expanded broad lamina with negligible leaf senescence or early chlorosis, and mature branch-frame structure occluding ground-level carriage paths.",
        "foliage_rectification": "Disambiguated from masonry mesh"
      }
    },
    {
      "type": "Feature",
      "id": "stratum_5_built_environment",
      "geometry": {
        "type": "Point",
        "coordinates": [
          -3.2106935131010848,
          55.948122595343726
        ]
      },
      "properties": {
        "stratum": "built_environment",
        "architectural_summary": "The urban fabric exhibits a stark juxtaposition between Georgian Neoclassical massing and High Victorian Gothic ecclesiastical monumentality:\n- Foreground/Midground: Atholl Crescent and Coates Crescent designed by Thomas Bonnar (1824\u20131825); regularized 3-storey plus basement and attic/mansard profiles; V-jointed rusticated ground-floor masonry, smooth ashlar upper storeys, continuous stone plat bands, projecting modillioned eaves cornices, blocking courses, and timber 6-over-6 and 12-over-12 double-hung sash-and-case fenestration grids.\n- Dominant Midground/Background: St Mary's Episcopal Cathedral designed by Sir George Gilbert Scott (1874\u20131879; western towers completed 1913\u20131917); tripartite spire composition dominated by the 90m central crossing spire with lucarnes and octagonal broaches flanked by twin western spires (\"Barbara\" and \"Mary\"); Early English / Decorated Gothic vocabulary with stepped buttresses, lancet window groupings, traceried rose windows, and high-pitched timber-trussed roof gables.",
        "structures": [
          {
            "name": "Primary Facade",
            "storeys": 2,
            "height_m": 7.5,
            "roof_geometry": "pitched / parapet",
            "facade_material": "authentic regional masonry",
            "planar_rectification": "ENFORCED"
          }
        ]
      }
    },
    {
      "type": "Feature",
      "id": "stratum_6_dynamic_elements",
      "geometry": {
        "type": "Point",
        "coordinates": [
          -3.2106935131010848,
          55.948122595343726
        ]
      },
      "properties": {
        "stratum": "dynamic_elements",
        "transient_decluttering": "ENFORCED",
        "vehicles": "NONE",
        "pedestrians": "NONE",
        "transient_clutter": "STRIPPED",
        "permanent_civil_fabric": "PRESERVED"
      }
    },
    {
      "type": "Feature",
      "id": "stratum_7_atmospheric_state",
      "geometry": null,
      "properties": {
        "stratum": "atmospheric_state",
        "lighting_rig": "SOLAR_EPHEMERIS",
        "timestamp_utc": "2026-08-28T11:54:49.566443+00:00",
        "weather_state": "OVERCAST",
        "temperature_c": 19.7,
        "solar_azimuth_deg": 6.72,
        "solar_elevation_deg": 43.89,
        "shadow_azimuth_deg": 186.7,
        "color_temperature_k": 5400,
        "ambient_illuminance_lux": 60000
      }
    }
  ]
}