{
  "type": "FeatureCollection",
  "properties": {
    "address": "7 Ainslie Pl, Edinburgh EH3 6AS, UK",
    "spatial_mode": "3D_TILES",
    "schema_version": "7-Strata-v2.0"
  },
  "features": [
    {
      "type": "Feature",
      "id": "stratum_1_observer_frame",
      "geometry": {
        "type": "Point",
        "coordinates": [
          -3.2106998692080797,
          55.95361395987533
        ]
      },
      "properties": {
        "stratum": "observer_frame",
        "spatial_mode": "3D_TILES",
        "camera": {
          "altitude_m_agl": 1.4,
          "pitch_deg": -8.8,
          "heading_deg": 139.9,
          "fov_deg": 60.0
        }
      }
    },
    {
      "type": "Feature",
      "id": "stratum_2_subterranean_geology",
      "geometry": {
        "type": "Point",
        "coordinates": [
          -3.2106998692080797,
          55.95361395987533
        ]
      },
      "properties": {
        "stratum": "subterranean_geology",
        "foundation_analysis": "Subterranean Carboniferous sedimentary bedrock sequence of the Inverleith Member (sandstone and siltstone). Superstructural masonry composed of regional Carboniferous Craigleith and Hailes pale buff-to-grey quartzose sandstone. Lime-putty and local sand mortar beds. Well-drained glacial till subsoil over basaltic volcanic bedrock."
      }
    },
    {
      "type": "Feature",
      "id": "stratum_3_ground_surface",
      "geometry": {
        "type": "Point",
        "coordinates": [
          -3.2106998692080797,
          55.95361395987533
        ]
      },
      "properties": {
        "stratum": "ground_surface",
        "primary_surfacing": "Engineered roadway and paved pedestrian curbs",
        "wear_characteristics": "Authentic environmental patina and drainage grading"
      }
    },
    {
      "type": "Feature",
      "id": "stratum_4_landscape_ecology",
      "geometry": {
        "type": "Point",
        "coordinates": [
          -3.2106998692080797,
          55.95361395987533
        ]
      },
      "properties": {
        "stratum": "landscape_ecology",
        "botanical_analysis": "Circus park interior anchored by mature *Acer pseudoplatanus* (sycamore), *Tilia \u00d7 europaea* (common lime), and *Ulmus glabra* (wych elm). Late September phenological state: dense mature crowns beginning early autumnal chlorosis, displaying green foliage intermixed with dull yellowing margins, light leaf loss, and exposed interior limb architecture. Ground cover consists of managed *Poa pratensis* and *Festuca rubra* turf.",
        "foliage_rectification": "Disambiguated from masonry mesh"
      }
    },
    {
      "type": "Feature",
      "id": "stratum_5_built_environment",
      "geometry": {
        "type": "Point",
        "coordinates": [
          -3.2106998692080797,
          55.95361395987533
        ]
      },
      "properties": {
        "stratum": "built_environment",
        "architectural_summary": "1820s Georgian neoclassical residential crescent circus (Moray Estate plan by James Gillespie Graham). Rectilinear three-storey plus attic and basement massing arranged in curving circus terraces. Ground floors feature channelled ashlar rustication with radiating voussoirs over segmental-arched openings; upper levels display smooth-dressed droved ashlar. Continuous moulded string courses, deep eaves cornices, and plain blocking courses. Pitched roofs clad in Scotch slate punctuated by regular ashlar dormers and substantial chimney stacks with terracotta pots. Rectangular timber sash-and-case fenestration aligned in uniform vertical bays. Distant copper-clad dome visible beyond roofline.",
        "structures": [
          {
            "name": "Primary Facade",
            "storeys": 2,
            "height_m": 7.5,
            "roof_geometry": "pitched / parapet",
            "facade_material": "authentic regional masonry",
            "planar_rectification": "ENFORCED"
          }
        ]
      }
    },
    {
      "type": "Feature",
      "id": "stratum_6_dynamic_elements",
      "geometry": {
        "type": "Point",
        "coordinates": [
          -3.2106998692080797,
          55.95361395987533
        ]
      },
      "properties": {
        "stratum": "dynamic_elements",
        "transient_decluttering": "ENFORCED",
        "vehicles": "NONE",
        "pedestrians": "NONE",
        "transient_clutter": "STRIPPED",
        "permanent_civil_fabric": "PRESERVED"
      }
    },
    {
      "type": "Feature",
      "id": "stratum_7_atmospheric_state",
      "geometry": null,
      "properties": {
        "stratum": "atmospheric_state",
        "lighting_rig": "SOLAR_EPHEMERIS",
        "timestamp_utc": "2026-09-24T13:03:00+00:00",
        "weather_state": "SNOW",
        "solar_azimuth_deg": 197.36,
        "solar_elevation_deg": 32.66,
        "shadow_azimuth_deg": null,
        "color_temperature_k": 5400,
        "ambient_illuminance_lux": 60000
      }
    }
  ]
}