{
  "type": "FeatureCollection",
  "properties": {
    "address": "8 Ainslie Pl, Edinburgh EH3 6AS, UK",
    "spatial_mode": "3D_TILES",
    "schema_version": "7-Strata-v2.0"
  },
  "features": [
    {
      "type": "Feature",
      "id": "stratum_1_observer_frame",
      "geometry": {
        "type": "Point",
        "coordinates": [
          -3.2101492786067856,
          55.953365569624125
        ]
      },
      "properties": {
        "stratum": "observer_frame",
        "spatial_mode": "3D_TILES",
        "camera": {
          "altitude_m_agl": 2.1,
          "pitch_deg": 5.5,
          "heading_deg": 290.5,
          "fov_deg": 60.0
        }
      }
    },
    {
      "type": "Feature",
      "id": "stratum_2_subterranean_geology",
      "geometry": {
        "type": "Point",
        "coordinates": [
          -3.2101492786067856,
          55.953365569624125
        ]
      },
      "properties": {
        "stratum": "subterranean_geology",
        "foundation_analysis": "Bedrock: Mississippian/Carboniferous sedimentary strata of the Strathclyde Group (Gullane Formation), comprising interbedded sandstone, siltstone, and mudstone.\nLithics: Primary structural masonry of fine-to-medium grained pale buff/blonde quartzose Craigleith Sandstone (silica-cemented arenite) for ashlar facades, with dark Hailes sandstone rubble core backing.\nMortar: Historic hot-mixed non-hydraulic to feebly hydraulic lime mortar incorporating sharp crushed quartz sand aggregates.\nHydrology: Gently sloping terrain toward the Water of Leith basin over stiff glaciofluvial boulder clay (till), with engineered subterranean drain channels beneath front lightwells."
      }
    },
    {
      "type": "Feature",
      "id": "stratum_3_ground_surface",
      "geometry": {
        "type": "Point",
        "coordinates": [
          -3.2101492786067856,
          55.953365569624125
        ]
      },
      "properties": {
        "stratum": "ground_surface",
        "primary_surfacing": "Engineered roadway and paved pedestrian curbs",
        "wear_characteristics": "Authentic environmental patina and drainage grading"
      }
    },
    {
      "type": "Feature",
      "id": "stratum_4_landscape_ecology",
      "geometry": {
        "type": "Point",
        "coordinates": [
          -3.2101492786067856,
          55.953365569624125
        ]
      },
      "properties": {
        "stratum": "landscape_ecology",
        "botanical_analysis": "Species: Central garden enclosure planted with mature *Acer pseudoplatanus* (Sycamore) and *Tilia \u00d7 europaea* (Common Lime).\nMorphology: Large-stature broadleaf trees with stout, heavily fissured single trunks (0.8\u20131.2 m DBH) dividing into extensive ascending primary framework boughs and wide, dome-shaped radiating branch canopies.",
        "foliage_rectification": "Disambiguated from masonry mesh"
      }
    },
    {
      "type": "Feature",
      "id": "stratum_5_built_environment",
      "geometry": {
        "type": "Point",
        "coordinates": [
          -3.2101492786067856,
          55.953365569624125
        ]
      },
      "properties": {
        "stratum": "built_environment",
        "architectural_summary": "Typology: Regency/Late Georgian neoclassical circus crescent (designed by James Gillespie Graham, Moray Estate, c. 1822\u20131825).\nMassing: Four storeys over continuous sunken basement lightwell, arranged in a shallow concave arc.\nOrder: Colossal attached Greek Ionic pilasters articulating the upper bays of pavilion blocks; continuous molded entablature, projecting dentil cornice, and stone blocking course forming the parapet.\nGround Floor: Channelled ashlar rustication with segmentally arched and round-headed door openings, radial glazed fanlights, and deeply recessed timber entrance doors.\nUpper Storeys: Smooth-dressed ashlar piano nobile with projecting continuous sill bands, second storey with molded architraves, and a third attic storey beneath the parapet.\nRoof: Pitched slate roofs (West Highland/Ballachulish slate) behind parapets, penetrated by rectangular coursed-ashlar party-wall chimneystacks with terracotta chimney cans.\nFenestration: Planar rectangular openings containing double-hung timber sash-and-case windows in 6-over-6 and 12-pane configurations.",
        "structures": [
          {
            "name": "Primary Facade",
            "storeys": 2,
            "height_m": 7.5,
            "roof_geometry": "pitched / parapet",
            "facade_material": "authentic regional masonry",
            "planar_rectification": "ENFORCED"
          }
        ]
      }
    },
    {
      "type": "Feature",
      "id": "stratum_6_dynamic_elements",
      "geometry": {
        "type": "Point",
        "coordinates": [
          -3.2101492786067856,
          55.953365569624125
        ]
      },
      "properties": {
        "stratum": "dynamic_elements",
        "transient_decluttering": "ENFORCED",
        "vehicles": "NONE",
        "pedestrians": "NONE",
        "transient_clutter": "STRIPPED",
        "permanent_civil_fabric": "PRESERVED"
      }
    },
    {
      "type": "Feature",
      "id": "stratum_7_atmospheric_state",
      "geometry": null,
      "properties": {
        "stratum": "atmospheric_state",
        "lighting_rig": "SOLAR_EPHEMERIS",
        "timestamp_utc": "2026-12-25T14:45:00+00:00",
        "weather_state": "SUNNY",
        "solar_azimuth_deg": 214.61,
        "solar_elevation_deg": 4.32,
        "shadow_azimuth_deg": 34.6,
        "color_temperature_k": 3000,
        "ambient_illuminance_lux": 12000
      }
    }
  ]
}