{
  "type": "FeatureCollection",
  "properties": {
    "address": "9 Ainslie Pl, Edinburgh EH3 6AT, UK",
    "spatial_mode": "3D_TILES",
    "schema_version": "7-Strata-v2.0"
  },
  "features": [
    {
      "type": "Feature",
      "id": "stratum_1_observer_frame",
      "geometry": {
        "type": "Point",
        "coordinates": [
          -3.2103431123941983,
          55.95334282274637
        ]
      },
      "properties": {
        "stratum": "observer_frame",
        "spatial_mode": "3D_TILES",
        "camera": {
          "altitude_m_agl": 3.9,
          "pitch_deg": 4.0,
          "heading_deg": 16.8,
          "fov_deg": 60.0
        }
      }
    },
    {
      "type": "Feature",
      "id": "stratum_2_subterranean_geology",
      "geometry": {
        "type": "Point",
        "coordinates": [
          -3.2103431123941983,
          55.95334282274637
        ]
      },
      "properties": {
        "stratum": "subterranean_geology",
        "foundation_analysis": "Subterranean foundation situated on the Lower Carboniferous Gullane Formation (Strathclyde Group), characterized by interbedded sandstones, siltstones, and mudstones underlain by glacial till deposits. Superstructure masonry comprises fine-grained, silica-cemented pale buff-grey Craigleith and Hailes sandstone ashlar. Mortar chemistry consists of traditional non-hydraulic to weakly hydraulic slaked lime (*calcium hydroxide*) blended with graded quartz river sand and crushed sandstone aggregates, facilitating vapor permeability. Sub-grade moisture is managed via excavated dry area lightwells lined with coursed rubble retaining walls."
      }
    },
    {
      "type": "Feature",
      "id": "stratum_3_ground_surface",
      "geometry": {
        "type": "Point",
        "coordinates": [
          -3.2103431123941983,
          55.95334282274637
        ]
      },
      "properties": {
        "stratum": "ground_surface",
        "primary_surfacing": "Engineered roadway and paved pedestrian curbs",
        "wear_characteristics": "Authentic environmental patina and drainage grading"
      }
    },
    {
      "type": "Feature",
      "id": "stratum_4_landscape_ecology",
      "geometry": {
        "type": "Point",
        "coordinates": [
          -3.2103431123941983,
          55.95334282274637
        ]
      },
      "properties": {
        "stratum": "landscape_ecology",
        "botanical_analysis": "Ainslie Place central pleasure gardens feature mature deciduous urban parkland canopy anchored by *Acer pseudoplatanus* (Sycamore), *Tilia \u00d7 europaea* (Common Lime), and *Fagus sylvatica* (European Beech). Early September phenology manifests as full, dense, dark green crown foliage exhibiting nascent edge chlorosis and minor wind-frayed leaf margins, without significant leaf drop. Low-profile manicured turf and perimeter hedging (*Taxus baccata*) line the inner boundary behind the perimeter iron railing.",
        "foliage_rectification": "Disambiguated from masonry mesh"
      }
    },
    {
      "type": "Feature",
      "id": "stratum_5_built_environment",
      "geometry": {
        "type": "Point",
        "coordinates": [
          -3.2103431123941983,
          55.95334282274637
        ]
      },
      "properties": {
        "stratum": "built_environment",
        "architectural_summary": "Category A listed Regency neoclassical concave circus terrace designed by James Gillespie Graham (1822) forming the Moray Estate crescent. Massing follows a 3-storey plus attic and submerged basement configuration, flanked by advanced 4-storey terminal pavilions. Planar alignment rectifies bowed photogrammetry into plumb vertical load-bearing facades:\n- Ground floor (principal floor): Deep V-jointed rusticated sandstone ashlar with round-arched/lintelled door openings and recessed rectangular window apertures.\n- Piano nobile and upper storeys: Polished smooth ashlar punctuated by molded continuous stringcourses, cill courses, projecting window architraves with decorative cornices at the first floor, and an eaves entablature crowned by a solid ashlar blocking course parapet.\n- Fenestration: Regular grid of timber-framed sash-and-case windows (predominantly 6-over-6 and 2-over-2 configurations) painted off-white.\n- Entrances: Six-panel timber doors set within ashlar surrounds, surmounted by geometric fanlights, accessed across sandstone bridging platts oversailing the basement area lightwells.\n- Roof: Mansard and pitched rafters clad in traditional Scottish/Welsh slate tiles with dressed ashlar chimney stacks and cylindrical terracotta pots.",
        "structures": [
          {
            "name": "Primary Facade",
            "storeys": 2,
            "height_m": 7.5,
            "roof_geometry": "pitched / parapet",
            "facade_material": "authentic regional masonry",
            "planar_rectification": "ENFORCED"
          }
        ]
      }
    },
    {
      "type": "Feature",
      "id": "stratum_6_dynamic_elements",
      "geometry": {
        "type": "Point",
        "coordinates": [
          -3.2103431123941983,
          55.95334282274637
        ]
      },
      "properties": {
        "stratum": "dynamic_elements",
        "transient_decluttering": "ENFORCED",
        "vehicles": "NONE",
        "pedestrians": "NONE",
        "transient_clutter": "STRIPPED",
        "permanent_civil_fabric": "PRESERVED"
      }
    },
    {
      "type": "Feature",
      "id": "stratum_7_atmospheric_state",
      "geometry": null,
      "properties": {
        "stratum": "atmospheric_state",
        "lighting_rig": "SOLAR_EPHEMERIS",
        "timestamp_utc": "2026-09-03T16:23:59+00:00",
        "weather_state": "SUNNY",
        "solar_azimuth_deg": 251.3,
        "solar_elevation_deg": 21.41,
        "shadow_azimuth_deg": 71.3,
        "color_temperature_k": 4500,
        "ambient_illuminance_lux": 35000
      }
    }
  ]
}