{
  "type": "FeatureCollection",
  "properties": {
    "address": "38 Queen St, Edinburgh EH2 1JX, UK",
    "spatial_mode": "3D_TILES",
    "schema_version": "7-Strata-v2.0"
  },
  "features": [
    {
      "type": "Feature",
      "id": "stratum_1_observer_frame",
      "geometry": {
        "type": "Point",
        "coordinates": [
          -3.2010201503269684,
          55.95482166106713
        ]
      },
      "properties": {
        "stratum": "observer_frame",
        "spatial_mode": "3D_TILES",
        "camera": {
          "altitude_m_agl": 40.4,
          "pitch_deg": -24.3,
          "heading_deg": 204.0,
          "fov_deg": 60.0
        }
      }
    },
    {
      "type": "Feature",
      "id": "stratum_2_subterranean_geology",
      "geometry": {
        "type": "Point",
        "coordinates": [
          -3.2010201503269684,
          55.95482166106713
        ]
      },
      "properties": {
        "stratum": "subterranean_geology",
        "foundation_analysis": "Subterranean foundation composed of Carboniferous sedimentary stratigraphy (sandstones, siltstones, and oil-shales of the Strathclyde Group) overlying volcanic basaltic intrusions. Structural lithics predominantly Craigleith sandstone\u2014a dense, pale-buff to cream quartz arenite characterized by high silica content and carbonaceous laminations\u2014utilized for polished ashlar street elevations. Secondary and rear elevations utilize coursed Hailes and Craigmillar sandstone rubble. Mortar systems comprise traditional hot-mixed feebly hydraulic lime slaked with coarse, sharp quartz river aggregate. Free-draining northern slope topography descending toward the Firth of Forth basin."
      }
    },
    {
      "type": "Feature",
      "id": "stratum_3_ground_surface",
      "geometry": {
        "type": "Point",
        "coordinates": [
          -3.2010201503269684,
          55.95482166106713
        ]
      },
      "properties": {
        "stratum": "ground_surface",
        "primary_surfacing": "Engineered roadway and paved pedestrian curbs",
        "wear_characteristics": "Authentic environmental patina and drainage grading"
      }
    },
    {
      "type": "Feature",
      "id": "stratum_4_landscape_ecology",
      "geometry": {
        "type": "Point",
        "coordinates": [
          -3.2010201503269684,
          55.95482166106713
        ]
      },
      "properties": {
        "stratum": "landscape_ecology",
        "botanical_analysis": "Bordering urban woodland canopy (*Queen Street Gardens*): mature *Acer pseudoplatanus* (Sycamore) and *Tilia \u00d7 europaea* (Common Lime). Canopy state reflects late-June phenology: fully expanded, dense deep-green leaf volume with complete crown closure and heavy foliar density; zero chlorosis or defoliation.",
        "foliage_rectification": "Disambiguated from masonry mesh"
      }
    },
    {
      "type": "Feature",
      "id": "stratum_5_built_environment",
      "geometry": {
        "type": "Point",
        "coordinates": [
          -3.2010201503269684,
          55.95482166106713
        ]
      },
      "properties": {
        "stratum": "built_environment",
        "architectural_summary": "Classic Georgian New Town residential tenement and terraced townhouse blocks (c. 1790\u20131820). Massing comprises 3- to 4-storey elevations over sunken lightwell basements, topped by pitched attic storeys. Fenestration adheres to strict classical Georgian proportion: regular grids of 12-pane (6-over-6) and 4-pane timber sash-and-case windows set within plain raised ashlar architraves, stone lintels, and projecting cills. Roofscape features dual-pitch roofs punctuated by timber-framed, slate-hung pedimented and canted dormer windows. Gable and party walls terminate in heavy squared sandstone chimney stacks with moulded coping stones supporting arrays of cylindrical terracotta chimney cans. Basement wells accessed via stone platt bridges spanning to timber panelled doors under geometric fanlights. Structural verticals rectified to true perpendicular load-bearing axes.",
        "structures": [
          {
            "name": "Primary Facade",
            "storeys": 2,
            "height_m": 7.5,
            "roof_geometry": "pitched / parapet",
            "facade_material": "authentic regional masonry",
            "planar_rectification": "ENFORCED"
          }
        ]
      }
    },
    {
      "type": "Feature",
      "id": "stratum_6_dynamic_elements",
      "geometry": {
        "type": "Point",
        "coordinates": [
          -3.2010201503269684,
          55.95482166106713
        ]
      },
      "properties": {
        "stratum": "dynamic_elements",
        "transient_decluttering": "ENFORCED",
        "vehicles": "NONE",
        "pedestrians": "NONE",
        "transient_clutter": "STRIPPED",
        "permanent_civil_fabric": "PRESERVED"
      }
    },
    {
      "type": "Feature",
      "id": "stratum_7_atmospheric_state",
      "geometry": null,
      "properties": {
        "stratum": "atmospheric_state",
        "lighting_rig": "SOLAR_EPHEMERIS",
        "timestamp_utc": "2026-06-22T17:06:00+00:00",
        "weather_state": "SUNNY",
        "solar_azimuth_deg": 269.96,
        "solar_elevation_deg": 28.74,
        "shadow_azimuth_deg": 90.0,
        "color_temperature_k": 5400,
        "ambient_illuminance_lux": 60000
      }
    }
  ]
}