{
  "type": "FeatureCollection",
  "properties": {
    "address": "West End, Atholl Cres, Edinburgh EH3 8HA, UK",
    "spatial_mode": "3D_TILES",
    "schema_version": "7-Strata-v2.0"
  },
  "features": [
    {
      "type": "Feature",
      "id": "stratum_1_observer_frame",
      "geometry": {
        "type": "Point",
        "coordinates": [
          -3.211708035780551,
          55.948293085529905
        ]
      },
      "properties": {
        "stratum": "observer_frame",
        "spatial_mode": "3D_TILES",
        "camera": {
          "altitude_m_agl": 154.8,
          "pitch_deg": -8.9,
          "heading_deg": 37.1,
          "fov_deg": 60.0
        }
      }
    },
    {
      "type": "Feature",
      "id": "stratum_2_subterranean_geology",
      "geometry": {
        "type": "Point",
        "coordinates": [
          -3.211708035780551,
          55.948293085529905
        ]
      },
      "properties": {
        "stratum": "subterranean_geology",
        "foundation_analysis": "- Bedrock Lithology: Devonian and Lower Carboniferous sandstone and siltstone (Inverclyde Group), underlain by volcanic bedrock of the Midland Valley basin.\n- Indigenous Masonry Lithics: Built primarily of Carboniferous Craigleith and Hailes sandstones\u2014dense, quartzose, pale honey-to-greyish buff building stones typical of Edinburgh's New Town and West End developments.\n- Mortar Chemistry: Traditional hot-mixed hydraulic lime (calcium oxide) and sharp pit-sand mortar with crushed aggregate, allowing breathability across thick stone load-bearing skins.\n- Hydrogeology & Drainage: Glacially sculpted terrain with boulder clay (till) overburden; natural subterranean surface water runoff gradients sloping north towards the Water of Leith and east along Shandwick Place."
      }
    },
    {
      "type": "Feature",
      "id": "stratum_3_ground_surface",
      "geometry": {
        "type": "Point",
        "coordinates": [
          -3.211708035780551,
          55.948293085529905
        ]
      },
      "properties": {
        "stratum": "ground_surface",
        "primary_surfacing": "Engineered roadway and paved pedestrian curbs",
        "wear_characteristics": "Authentic environmental patina and drainage grading"
      }
    },
    {
      "type": "Feature",
      "id": "stratum_4_landscape_ecology",
      "geometry": {
        "type": "Point",
        "coordinates": [
          -3.211708035780551,
          55.948293085529905
        ]
      },
      "properties": {
        "stratum": "landscape_ecology",
        "botanical_analysis": "- Urban & Park Vegetation: Dispersed mature deciduous street and garden trees in adjacent West End plots and rear gardens.\n- Botanical Species: Mature European Sycamore (*Acer pseudoplatanus*), Wych Elm (*Ulmus glabra*), London Plane (*Platanus \u00d7 acerifolia*), and common Lime (*Tilia x europaea*), rendered with distinct leafy branch architecture and organic crown volumes, fully separated from stone facades.",
        "foliage_rectification": "Disambiguated from masonry mesh"
      }
    },
    {
      "type": "Feature",
      "id": "stratum_5_built_environment",
      "geometry": {
        "type": "Point",
        "coordinates": [
          -3.211708035780551,
          55.948293085529905
        ]
      },
      "properties": {
        "stratum": "built_environment",
        "architectural_summary": "- Typological Matrix: High Victorian / Roman Baroque ecclesiastical architecture integrated into a late Georgian and Victorian civic streetscape.\n- Key Anchor Landmark (St George's West / Charlotte Chapel, 58 Shandwick Place): Designed by David Bryce (1866\u20131869) with its soaring 56-meter Venetian campanile tower completed by Sir Robert Rowand Anderson (1879\u20131881), modeled after the campanile of San Giorgio Maggiore.\n- Massing & Storey Heights:\n  * Church: 4-stage campanile tower springing from the south-west corner featuring a vermiculated ashlar base, pedimented clock stages, Corinthian pilastered orders, an open balustraded loggia, an octagonal belfry, and a verdigris copper pyramidal spire.\n  * Surrounding Tenements & Commercial Terraces: 4-to-5-storey classical Georgian and Victorian blocks with rusticated basements, piano nobile timber sash fenestration (rectified 12-pane and 2-over-2 configurations), continuous ashlar plat bands, and canted dormered mansard roofs with Welsh slate finishes.\n- Distant Backdrop: The prominent dome of West Register House (Robert Reid, Charlotte Square) terminating the vista to the northeast.\n- Planar Rectification: All vertical masonry lines, campanile pilasters, church nave elevations, chimney stacks, and tenement facade planes strictly rectified to true gravitational plumb, eliminating photogrammetric mesh skewing and warped cornice lines.",
        "structures": [
          {
            "name": "Primary Facade",
            "storeys": 2,
            "height_m": 7.5,
            "roof_geometry": "pitched / parapet",
            "facade_material": "authentic regional masonry",
            "planar_rectification": "ENFORCED"
          }
        ]
      }
    },
    {
      "type": "Feature",
      "id": "stratum_6_dynamic_elements",
      "geometry": {
        "type": "Point",
        "coordinates": [
          -3.211708035780551,
          55.948293085529905
        ]
      },
      "properties": {
        "stratum": "dynamic_elements",
        "transient_decluttering": "ENFORCED",
        "vehicles": "NONE",
        "pedestrians": "NONE",
        "transient_clutter": "STRIPPED",
        "permanent_civil_fabric": "PRESERVED"
      }
    },
    {
      "type": "Feature",
      "id": "stratum_7_atmospheric_state",
      "geometry": null,
      "properties": {
        "stratum": "atmospheric_state",
        "lighting_rig": "SOLAR_EPHEMERIS",
        "timestamp_utc": "2026-08-27T17:15:50.809929+00:00",
        "weather_state": "RAIN",
        "temperature_c": 15.0,
        "solar_azimuth_deg": 276.44,
        "solar_elevation_deg": 16.72,
        "shadow_azimuth_deg": 96.4,
        "color_temperature_k": 4500,
        "ambient_illuminance_lux": 35000
      }
    }
  ]
}