{
  "type": "FeatureCollection",
  "properties": {
    "address": "13 E Basin Dr SW, Washington, DC 20004, USA",
    "spatial_mode": "3D_TILES",
    "schema_version": "7-Strata-v2.0"
  },
  "features": [
    {
      "type": "Feature",
      "id": "stratum_1_observer_frame",
      "geometry": {
        "type": "Point",
        "coordinates": [
          -77.0364987547826,
          38.879466231995735
        ]
      },
      "properties": {
        "stratum": "observer_frame",
        "spatial_mode": "3D_TILES",
        "camera": {
          "altitude_m_agl": 37.4,
          "pitch_deg": -11.3,
          "heading_deg": 358.5,
          "fov_deg": 60.0
        }
      }
    },
    {
      "type": "Feature",
      "id": "stratum_2_subterranean_geology",
      "geometry": {
        "type": "Point",
        "coordinates": [
          -77.0364987547826,
          38.879466231995735
        ]
      },
      "properties": {
        "stratum": "subterranean_geology",
        "foundation_analysis": "The subterranean profile beneath the southern shore of the Tidal Basin consists of anthropogenic hydraulic silt and gravel infill over late Quaternary Potomac Formation alluvium. Deep crystalline metamorphic bedrock (Piedmont schist/gneiss) lies tens of meters below. The memorial foundation rests on heavy reinforced concrete caissons sunk through the mud into solid bedrock to counteract structural settlement. Above grade, the monument's exterior peristyle, stylobate, steps, and drum are constructed from fine-grained white Imperial Danby marble quarried from Dorset Mountain in Vermont (Ordovician Shelburne Formation). The shallow stepped dome is faced in Middle Mississippian Indiana oolitic limestone (Salem Formation). The circular interior colonnade features Georgia white marble, with floor and substructure elements anchored by pink granite from Salisbury, North Carolina. Non-staining Portland cement mortar with lime binder fills the stone masonry joints."
      }
    },
    {
      "type": "Feature",
      "id": "stratum_3_ground_surface",
      "geometry": {
        "type": "Point",
        "coordinates": [
          -77.0364987547826,
          38.879466231995735
        ]
      },
      "properties": {
        "stratum": "ground_surface",
        "primary_surfacing": "Engineered roadway and paved pedestrian curbs",
        "wear_characteristics": "Authentic environmental patina and drainage grading"
      }
    },
    {
      "type": "Feature",
      "id": "stratum_4_landscape_ecology",
      "geometry": {
        "type": "Point",
        "coordinates": [
          -77.0364987547826,
          38.879466231995735
        ]
      },
      "properties": {
        "stratum": "landscape_ecology",
        "botanical_analysis": "The memorial is surrounded by dense groves of mature Yoshino cherry trees (*Prunus \u00d7 yedoensis*) and Kwanzan cherries (*Prunus serrulata*) exhibiting full, textured summer canopies of deep green foliage and dark gnarled bark. Flanking the lawns and pathways are mature native hardwoods including American elm (*Ulmus americana*), willow oak (*Quercus phellos*), sweetgum (*Liquidambar styraciflua*), and red maple (*Acer rubrum*). The background shoreline across the Tidal Basin is densely populated with broadleaf deciduous tree cover.",
        "foliage_rectification": "Disambiguated from masonry mesh"
      }
    },
    {
      "type": "Feature",
      "id": "stratum_5_built_environment",
      "geometry": {
        "type": "Point",
        "coordinates": [
          -77.0364987547826,
          38.879466231995735
        ]
      },
      "properties": {
        "stratum": "built_environment",
        "architectural_summary": "Designed by John Russell Pope, Daniel P. Higgins, and Otto R. Eggers in the Neoclassical / Beaux-Arts Pantheon-inspired typology, completed in 1943. The primary structure comprises a monumental circular peristyle colonnade of 26 fluted Ionic columns supporting an unadorned frieze and a stepped circular attic topped by a shallow hemispherical dome. A pedimented portico opens north toward the National Mall, framed by a broad cascading flight of granite and marble steps leading down to the water's edge. The circular drum features rhythmic vertical openings between columns into an open-air central rotunda. Behind the water body across the axis rises the vertical obelisk of the Washington Monument (Robert Mills, 1884), perfectly plumbed to true gravity vertical against the distant planar geometry of Federal Triangle office complexes.",
        "structures": [
          {
            "name": "Primary Facade",
            "storeys": 2,
            "height_m": 7.5,
            "roof_geometry": "pitched / parapet",
            "facade_material": "authentic regional masonry",
            "planar_rectification": "ENFORCED"
          }
        ]
      }
    },
    {
      "type": "Feature",
      "id": "stratum_6_dynamic_elements",
      "geometry": {
        "type": "Point",
        "coordinates": [
          -77.0364987547826,
          38.879466231995735
        ]
      },
      "properties": {
        "stratum": "dynamic_elements",
        "transient_decluttering": "ENFORCED",
        "vehicles": "NONE",
        "pedestrians": "NONE",
        "transient_clutter": "STRIPPED",
        "permanent_civil_fabric": "PRESERVED"
      }
    },
    {
      "type": "Feature",
      "id": "stratum_7_atmospheric_state",
      "geometry": null,
      "properties": {
        "stratum": "atmospheric_state",
        "lighting_rig": "SOLAR_EPHEMERIS",
        "timestamp_utc": "2026-08-27T22:08:08.759701+00:00",
        "weather_state": "SUNNY",
        "temperature_c": 15.0,
        "solar_azimuth_deg": 271.62,
        "solar_elevation_deg": 18.38,
        "shadow_azimuth_deg": 91.6,
        "color_temperature_k": 4500,
        "ambient_illuminance_lux": 35000
      }
    }
  ]
}