{
  "type": "FeatureCollection",
  "properties": {
    "address": "12 Charlotte Square, Edinburgh EH2 4ET, UK",
    "spatial_mode": "3D_TILES",
    "schema_version": "7-Strata-v2.0"
  },
  "features": [
    {
      "type": "Feature",
      "id": "stratum_1_observer_frame",
      "geometry": {
        "type": "Point",
        "coordinates": [
          -3.207899552345438,
          55.951927757140005
        ]
      },
      "properties": {
        "stratum": "observer_frame",
        "spatial_mode": "3D_TILES",
        "camera": {
          "altitude_m_agl": 84.8,
          "pitch_deg": -37.3,
          "heading_deg": 242.9,
          "fov_deg": 60.0
        }
      }
    },
    {
      "type": "Feature",
      "id": "stratum_2_subterranean_geology",
      "geometry": {
        "type": "Point",
        "coordinates": [
          -3.207899552345438,
          55.951927757140005
        ]
      },
      "properties": {
        "stratum": "subterranean_geology",
        "foundation_analysis": "Subterranean foundation seated upon Carboniferous sedimentary strata of the Strathclyde Group (sandstone, siltstone, and mudstone formations overlain by dense glacial till). Superstructure masonry composed predominantly of Carboniferous Craigleith Sandstone\u2014a fine-to-medium-grained, quartz-cemented pale buff-to-grey arenite prized for exceptional compressive strength and weathering resistance. Secondary structural walling and rear elevations employ coursed Hailes Sandstone rubble with a higher mica and clay content. Mortar matrices consist of traditional non-hydraulic to feebly hydraulic lime blended with sharp, poorly sorted river sand aggregate. Subterranean urban drainage channels into historical culverts beneath the bedrock interface."
      }
    },
    {
      "type": "Feature",
      "id": "stratum_3_ground_surface",
      "geometry": {
        "type": "Point",
        "coordinates": [
          -3.207899552345438,
          55.951927757140005
        ]
      },
      "properties": {
        "stratum": "ground_surface",
        "primary_surfacing": "Engineered roadway and paved pedestrian curbs",
        "wear_characteristics": "Authentic environmental patina and drainage grading"
      }
    },
    {
      "type": "Feature",
      "id": "stratum_4_landscape_ecology",
      "geometry": {
        "type": "Point",
        "coordinates": [
          -3.207899552345438,
          55.951927757140005
        ]
      },
      "properties": {
        "stratum": "landscape_ecology",
        "botanical_analysis": "Peripheral urban specimens (*Acer pseudoplatanus* - Sycamore, and *Tilia \u00d7 europaea* - Common Lime). Late-June phenological state: dense, fully expanded chlorophyll-saturated foliage forming closed, heavy, convex crown volumes with deep emerald-green palmate and cordate leaf structures; vigorous summer shoot extension with zero defoliation.",
        "foliage_rectification": "Disambiguated from masonry mesh"
      }
    },
    {
      "type": "Feature",
      "id": "stratum_5_built_environment",
      "geometry": {
        "type": "Point",
        "coordinates": [
          -3.207899552345438,
          55.951927757140005
        ]
      },
      "properties": {
        "stratum": "built_environment",
        "architectural_summary": "Neoclassical civic monumental core (St George's Church / West Register House, designed by Robert Reid after Robert Adam) defined by a central colossal tetrastyle Roman Ionic portico recessed between projecting rusticated outer pavilions with arched niches. Above the attic level rises a high circular drum with a peristyle colonnade supporting a prominent ribbed spherical dome and cupola finial. Flanking the monument are unified Class-A listed Georgian residential and institutional terraces (three storeys over rusticated basements and attic tiers). Facades feature strict vertical alignment: channelled rusticated ground floors, smooth ashlar upper tiers, 6-over-6 and 12-pane timber sash-and-case windows, continuous string courses, moulded entablatures, and balustraded parapets. Roofs are hipped and pitched with lead-lined valleys, flat asphalt pavilion crowns, and coped ashlar party-wall chimney stacks bearing cylindrical terracotta cans.",
        "structures": [
          {
            "name": "Primary Facade",
            "storeys": 2,
            "height_m": 7.5,
            "roof_geometry": "pitched / parapet",
            "facade_material": "authentic regional masonry",
            "planar_rectification": "ENFORCED"
          }
        ]
      }
    },
    {
      "type": "Feature",
      "id": "stratum_6_dynamic_elements",
      "geometry": {
        "type": "Point",
        "coordinates": [
          -3.207899552345438,
          55.951927757140005
        ]
      },
      "properties": {
        "stratum": "dynamic_elements",
        "transient_decluttering": "ENFORCED",
        "vehicles": "NONE",
        "pedestrians": "NONE",
        "transient_clutter": "STRIPPED",
        "permanent_civil_fabric": "PRESERVED"
      }
    },
    {
      "type": "Feature",
      "id": "stratum_7_atmospheric_state",
      "geometry": null,
      "properties": {
        "stratum": "atmospheric_state",
        "lighting_rig": "SOLAR_EPHEMERIS",
        "timestamp_utc": "2026-06-22T14:18:00+00:00",
        "weather_state": "RAIN",
        "solar_azimuth_deg": 227.65,
        "solar_elevation_deg": 50.4,
        "shadow_azimuth_deg": 47.6,
        "color_temperature_k": 5800,
        "ambient_illuminance_lux": 85000
      }
    }
  ]
}