{
  "type": "FeatureCollection",
  "properties": {
    "address": "1540 Maine Ave SW, Washington, DC 20004, USA",
    "spatial_mode": "3D_TILES",
    "schema_version": "7-Strata-v2.0"
  },
  "features": [
    {
      "type": "Feature",
      "id": "stratum_1_observer_frame",
      "geometry": {
        "type": "Point",
        "coordinates": [
          -77.03715909558203,
          38.8858692444861
        ]
      },
      "properties": {
        "stratum": "observer_frame",
        "spatial_mode": "3D_TILES",
        "camera": {
          "altitude_m_agl": 153.3,
          "pitch_deg": -11.6,
          "heading_deg": 23.6,
          "fov_deg": 60.0
        }
      }
    },
    {
      "type": "Feature",
      "id": "stratum_2_subterranean_geology",
      "geometry": {
        "type": "Point",
        "coordinates": [
          -77.03715909558203,
          38.8858692444861
        ]
      },
      "properties": {
        "stratum": "subterranean_geology",
        "foundation_analysis": "Subterranean foundation seated on Atlantic Coastal Plain alluvial silt and gravel over dense Piedmont crystalline metamorphic bedrock (Sykesville Formation gneiss and schist). Primary monument lithics comprise Cockeysville white marble ashlar at the lower 46-meter tier, transitioning cleanly to Massachusetts and Maine white marble ashlar on upper courses, backed by coursed granite rubble and bluestone gneiss. Surrounding background architecture features Bedford Indiana oolitic limestone, coarse-grained granite plinths, and structural terracotta tile underlayment."
      }
    },
    {
      "type": "Feature",
      "id": "stratum_3_ground_surface",
      "geometry": {
        "type": "Point",
        "coordinates": [
          -77.03715909558203,
          38.8858692444861
        ]
      },
      "properties": {
        "stratum": "ground_surface",
        "primary_surfacing": "Engineered roadway and paved pedestrian curbs",
        "wear_characteristics": "Authentic environmental patina and drainage grading"
      }
    },
    {
      "type": "Feature",
      "id": "stratum_4_landscape_ecology",
      "geometry": {
        "type": "Point",
        "coordinates": [
          -77.03715909558203,
          38.8858692444861
        ]
      },
      "properties": {
        "stratum": "landscape_ecology",
        "botanical_analysis": "Surrounding parkland and boulevards populated by mature *Ulmus americana* (American elm), *Quercus phellos* (willow oak), *Quercus alba* (white oak), and *Platanus occidentalis* (American sycamore). Early September phenology exhibits full, dense crown volumes with deep emerald to mature olive-green leaf pigmentation, displaying early late-summer canopy heaviness without active autumnal abscission.",
        "foliage_rectification": "Disambiguated from masonry mesh"
      }
    },
    {
      "type": "Feature",
      "id": "stratum_5_built_environment",
      "geometry": {
        "type": "Point",
        "coordinates": [
          -77.03715909558203,
          38.8858692444861
        ]
      },
      "properties": {
        "stratum": "built_environment",
        "architectural_summary": "Central monumental obelisk standing at 169.3 meters, displaying precise 10:1 height-to-base taper terminating in a 16.8-meter pyramidal apex (pyramidion). Plumb vertical masonry courses with rectified planar geometry. Base surrounded by a concentric paved circular plaza with fifty radial flagpole stanchions and a low-profile cuboid security pavilion at the east portal. Midground features the National Museum of African American History and Culture exhibiting a three-tiered inverted trapezoidal corona (ziggurat massing). Federal Triangle urban perimeter comprises Classical Revival and Beaux-Arts federal administrative complexes with rusticated ground stories, monumental Doric/Ionic colonnades, entablatures, and pitched hipped roofs.",
        "structures": [
          {
            "name": "Primary Facade",
            "storeys": 2,
            "height_m": 7.5,
            "roof_geometry": "pitched / parapet",
            "facade_material": "authentic regional masonry",
            "planar_rectification": "ENFORCED"
          }
        ]
      }
    },
    {
      "type": "Feature",
      "id": "stratum_6_dynamic_elements",
      "geometry": {
        "type": "Point",
        "coordinates": [
          -77.03715909558203,
          38.8858692444861
        ]
      },
      "properties": {
        "stratum": "dynamic_elements",
        "transient_decluttering": "ENFORCED",
        "vehicles": "NONE",
        "pedestrians": "NONE",
        "transient_clutter": "STRIPPED",
        "permanent_civil_fabric": "PRESERVED"
      }
    },
    {
      "type": "Feature",
      "id": "stratum_7_atmospheric_state",
      "geometry": null,
      "properties": {
        "stratum": "atmospheric_state",
        "lighting_rig": "SOLAR_EPHEMERIS",
        "timestamp_utc": "2026-09-04T16:09:00+00:00",
        "weather_state": "SUNNY",
        "solar_azimuth_deg": 153.51,
        "solar_elevation_deg": 55.89,
        "shadow_azimuth_deg": 333.5,
        "color_temperature_k": 5800,
        "ambient_illuminance_lux": 85000
      }
    }
  ]
}