{
  "type": "FeatureCollection",
  "properties": {
    "address": "1500 Constitution Ave. NW, Washington, DC 20004, USA",
    "spatial_mode": "3D_TILES",
    "schema_version": "7-Strata-v2.0"
  },
  "features": [
    {
      "type": "Feature",
      "id": "stratum_1_observer_frame",
      "geometry": {
        "type": "Point",
        "coordinates": [
          -77.03378647377143,
          38.891664533597655
        ]
      },
      "properties": {
        "stratum": "observer_frame",
        "spatial_mode": "3D_TILES",
        "camera": {
          "altitude_m_agl": 62.1,
          "pitch_deg": -9.5,
          "heading_deg": 208.5,
          "fov_deg": 60.0
        }
      }
    },
    {
      "type": "Feature",
      "id": "stratum_2_subterranean_geology",
      "geometry": {
        "type": "Point",
        "coordinates": [
          -77.03378647377143,
          38.891664533597655
        ]
      },
      "properties": {
        "stratum": "subterranean_geology",
        "foundation_analysis": "- **Subterranean Bedrock & Foundation Lithology:** The monument rests upon deep artificial terrace fill over late Quaternary Potomac River alluvial silt, clay, and gravel deposits, underlain at depth by the crystalline metamorphic Piedmont basement (Potomac terrane / Sykesville Formation gneiss and schist). \n- **Substructure Stabilization:** Beneath the base lies a massive stepped concrete and blue gneiss rubble underpinning foundation (installed 1879\u20131880) extending down to solid bearing strata to prevent differential settlement.\n- **Superstructure Stone Sources:** \n  1. *Lower 152 feet (Phase 1, 1848\u20131854):* Coarse-grained dolomitic Cockeysville/Texas white marble from Texas, Baltimore County, Maryland.\n  2. *Transition Band (1879):* Four to six courses of calcitic marble from Lee/Sheffield, Berkshire County, Massachusetts.\n  3. *Upper Section & Pyramidion (1880\u20131884):* Fine-grained, magnesium-rich Cockeysville dolomitic marble from Cockeysville, Maryland.\n  4. *Interior Core:* Backing masonry of blue Potomac gneiss and Maine/Maryland granite ashlar.\n- **Mortar Chemistry:** Hydrated lime and natural cement mortar at the lower levels; high-strength Portland cement and hydraulic lime at upper tiers, with lead and elastomer compression caulking in exposed exterior joints.\n- **Hydrology:** High water table tied to the adjacent tidal estuary of the Potomac River and the Tidal Basin; surrounded by a continuous subterranean perimeter drainage system."
      }
    },
    {
      "type": "Feature",
      "id": "stratum_3_ground_surface",
      "geometry": {
        "type": "Point",
        "coordinates": [
          -77.03378647377143,
          38.891664533597655
        ]
      },
      "properties": {
        "stratum": "ground_surface",
        "primary_surfacing": "Engineered roadway and paved pedestrian curbs",
        "wear_characteristics": "Authentic environmental patina and drainage grading"
      }
    },
    {
      "type": "Feature",
      "id": "stratum_4_landscape_ecology",
      "geometry": {
        "type": "Point",
        "coordinates": [
          -77.03378647377143,
          38.891664533597655
        ]
      },
      "properties": {
        "stratum": "landscape_ecology",
        "botanical_analysis": "- **National Mall Parkland & Tidal Basin Foliage:**\n  - *Canopy Trees:* Mature American Elm (*Ulmus americana*), Pin Oak (*Quercus palustris*), Willow Oak (*Quercus phellos*), and London Planetree (*Platanus \u00d7 acerifolia*) with dense, leafy summer crowns and distinct structural branch bifurcations.\n  - *Tidal Basin Perimeter:* Historic Yoshino Cherry (*Prunus \u00d7 yedoensis*) and Kwanzan Cherry (*Prunus 'Kanzan'*) trees in rich, deep-green summer foliage.\n  - *Understory:* Formal boxwood hedges (*Buxus sempervirens*) and manicured turfgrass carpets completely disambiguated from solid geometry.",
        "foliage_rectification": "Disambiguated from masonry mesh"
      }
    },
    {
      "type": "Feature",
      "id": "stratum_5_built_environment",
      "geometry": {
        "type": "Point",
        "coordinates": [
          -77.03378647377143,
          38.891664533597655
        ]
      },
      "properties": {
        "stratum": "built_environment",
        "architectural_summary": "- **Typology & Geometric Massing:** Neoclassical Egyptian-revival monumental hollow stone obelisk terminating in an apex pyramidion (total height: 554 ft 7 in / 169.05 m; base width: 55 ft 1.5 in / 16.8 m; wall thickness tapering from 15 ft at base to 18 in at apex).\n- **Plaza & Secondary Structures:**\n  - *Base Plaza:* Circular granite-paved terrace encircled by 56 brushed stainless steel flagpoles flying the American flag.\n  - *Security Screening Facility:* Low-profile, orthogonal cuboid structure at the east base clad in blast-mitigating structural glass panels and honed gray granite rainscreen panels.\n- **Planar Rectification & Anti-Warp Protocol:**\n  - Plumb all four obelisk corner arrises to absolute mathematical verticality, tapering inwards at a strict 1:40 uniform slope.\n  - Eliminate photogrammetry facade distortion: all ashlar courses are rendered as dead-straight horizontal courses.\n  - The circular perimeter plaza and concentric walking paths are flattened to true horizontal grade with subtle radial crown slopes for drainage.\n- **Background Landmarks (Axial Alignment):**\n  - Southwest/South background: Thomas Jefferson Memorial across the Tidal Basin (Neoclassical circular peristyle rotunda with shallow domed roof, Ionic colonnade, and white Imperial Danby marble).\n  - Distant highway crossings: Mason Memorial Bridge / 14th Street Bridge spans crossing the Potomac River into Virginia.",
        "structures": [
          {
            "name": "Primary Facade",
            "storeys": 2,
            "height_m": 7.5,
            "roof_geometry": "pitched / parapet",
            "facade_material": "authentic regional masonry",
            "planar_rectification": "ENFORCED"
          }
        ]
      }
    },
    {
      "type": "Feature",
      "id": "stratum_6_dynamic_elements",
      "geometry": {
        "type": "Point",
        "coordinates": [
          -77.03378647377143,
          38.891664533597655
        ]
      },
      "properties": {
        "stratum": "dynamic_elements",
        "transient_decluttering": "ENFORCED",
        "vehicles": "NONE",
        "pedestrians": "NONE",
        "transient_clutter": "STRIPPED",
        "permanent_civil_fabric": "PRESERVED"
      }
    },
    {
      "type": "Feature",
      "id": "stratum_7_atmospheric_state",
      "geometry": null,
      "properties": {
        "stratum": "atmospheric_state",
        "lighting_rig": "SOLAR_EPHEMERIS",
        "timestamp_utc": "2026-08-25T18:21:00+00:00",
        "weather_state": "FOG",
        "temperature_c": 15.0,
        "solar_azimuth_deg": 325.97,
        "solar_elevation_deg": 57.95,
        "shadow_azimuth_deg": 146.0,
        "color_temperature_k": 5800,
        "ambient_illuminance_lux": 85000
      }
    }
  ]
}