{
  "type": "FeatureCollection",
  "properties": {
    "address": "9 Grosvenor St, Edinburgh EH12 5EF, UK",
    "spatial_mode": "3D_TILES",
    "schema_version": "7-Strata-v2.0"
  },
  "features": [
    {
      "type": "Feature",
      "id": "stratum_1_observer_frame",
      "geometry": {
        "type": "Point",
        "coordinates": [
          -3.2167493502300397,
          55.94680566405801
        ]
      },
      "properties": {
        "stratum": "observer_frame",
        "spatial_mode": "3D_TILES",
        "camera": {
          "altitude_m_agl": 187.1,
          "pitch_deg": -20.6,
          "heading_deg": 9.0,
          "fov_deg": 60.0
        }
      }
    },
    {
      "type": "Feature",
      "id": "stratum_2_subterranean_geology",
      "geometry": {
        "type": "Point",
        "coordinates": [
          -3.2167493502300397,
          55.94680566405801
        ]
      },
      "properties": {
        "stratum": "subterranean_geology",
        "foundation_analysis": "The subterranean terrain rests upon the Lower Carboniferous sedimentary formations of the Strathclyde Group (primarily Gullane Formation sandstones and silty mudstones), overlaid with firm glacial till. The primary structural fabric of the central monument\u2014St Mary\u2019s Episcopal Cathedral\u2014is constructed from hard, fine-to-medium-grained Carboniferous sandstone quarried locally and regionally from Dunmore, Craigleith, and Hailes sandstone beds, with colonnettes and decorative load-bearing shafts utilizing pink Shap granite from Cumbria and polished dark igneous stones. The surrounding Georgian and Victorian West End residential terraces are built from buff-blonde to honey-toned Craigleith and Binny sandstone ashlar. Mortar systems consist of historic non-hydraulic and feebly hydraulic lime-sand mixes, promoting natural moisture breathability across high-density ashlar coursing. Subterranean moisture drains naturally toward the Water of Leith basin to the north."
      }
    },
    {
      "type": "Feature",
      "id": "stratum_3_ground_surface",
      "geometry": {
        "type": "Point",
        "coordinates": [
          -3.2167493502300397,
          55.94680566405801
        ]
      },
      "properties": {
        "stratum": "ground_surface",
        "primary_surfacing": "Engineered roadway and paved pedestrian curbs",
        "wear_characteristics": "Authentic environmental patina and drainage grading"
      }
    },
    {
      "type": "Feature",
      "id": "stratum_4_landscape_ecology",
      "geometry": {
        "type": "Point",
        "coordinates": [
          -3.2167493502300397,
          55.94680566405801
        ]
      },
      "properties": {
        "stratum": "landscape_ecology",
        "botanical_analysis": "The cathedral grounds and perimeter residential gardens feature mature deciduous urban trees. Identified species include mature London plane trees (*Platanus x acerifolia*), European sycamores (*Acer pseudoplatanus*), English oaks (*Quercus robur*), and copper beeches (*Fagus sylvatica* f. *purpurea*), rendered with full, organic, branching leafy canopies and fine seasonal foliage, disambiguated entirely from adjacent stone walls. The cathedral lawns consist of dense, deep-green perennial ryegrass (*Lolium perenne*) and fescue turf bordered by low manicured shrubbery.",
        "foliage_rectification": "Disambiguated from masonry mesh"
      }
    },
    {
      "type": "Feature",
      "id": "stratum_5_built_environment",
      "geometry": {
        "type": "Point",
        "coordinates": [
          -3.2167493502300397,
          55.94680566405801
        ]
      },
      "properties": {
        "stratum": "built_environment",
        "architectural_summary": "- **Centerpiece (St Mary's Episcopal Cathedral):** High Victorian Gothic Revival (Early Pointed style) designed by Sir George Gilbert Scott (consecrated 1879; western spires completed 1917). Cruciform plan with a nave, lean-to side aisles, clerestory, transepts, and an apsidal choir. Features three massive stone spires\u2014a soaring central crossing spire (90 meters tall) and twin western towers topped with octagonal broach spires (\"Barbara\" and \"Mary\"). Planar rectification enforces rigid vertical plumb lines on all buttresses, crocketed pinnacles, lancet fenestration, rose windows, and spire apexes.\n- **Flanking and Foreground Fabric:** Unified Late Georgian to Early Victorian 3- to 4-storey residential tenement and townhouse terraces (along Palmerston Place, Manor Place, and Grosvenor Street). Symmetrical repetitive bays with rusticated ground-floor basements with sunken areas (lightwells), ashlar piano nobile storeys, molded continuous string courses, cornices, slate mansard/hipped roof planes, ashlar chimneystacks with ceramic chimney pots, and timber sash-and-case windows rectified to true horizontal and vertical planes. In the foreground right, the domed neoclassical lantern pavilions of adjacent institutional/residential corners stand geometrically plumb.",
        "structures": [
          {
            "name": "Primary Facade",
            "storeys": 2,
            "height_m": 7.5,
            "roof_geometry": "pitched / parapet",
            "facade_material": "authentic regional masonry",
            "planar_rectification": "ENFORCED"
          }
        ]
      }
    },
    {
      "type": "Feature",
      "id": "stratum_6_dynamic_elements",
      "geometry": {
        "type": "Point",
        "coordinates": [
          -3.2167493502300397,
          55.94680566405801
        ]
      },
      "properties": {
        "stratum": "dynamic_elements",
        "transient_decluttering": "ENFORCED",
        "vehicles": "NONE",
        "pedestrians": "NONE",
        "transient_clutter": "STRIPPED",
        "permanent_civil_fabric": "PRESERVED"
      }
    },
    {
      "type": "Feature",
      "id": "stratum_7_atmospheric_state",
      "geometry": null,
      "properties": {
        "stratum": "atmospheric_state",
        "lighting_rig": "SOLAR_EPHEMERIS",
        "timestamp_utc": "2026-11-11T17:15:52.019844+00:00",
        "weather_state": "SUNNY",
        "temperature_c": 15.0,
        "solar_azimuth_deg": 288.15,
        "solar_elevation_deg": -8.65,
        "shadow_azimuth_deg": 108.1,
        "color_temperature_k": 2000,
        "ambient_illuminance_lux": 5
      }
    }
  ]
}