{
  "type": "FeatureCollection",
  "properties": {
    "address": "15 Queen St, Edinburgh EH2 1JE, UK",
    "spatial_mode": "3D_TILES",
    "schema_version": "7-Strata-v2.0"
  },
  "features": [
    {
      "type": "Feature",
      "id": "stratum_1_observer_frame",
      "geometry": {
        "type": "Point",
        "coordinates": [
          -3.197555419885586,
          55.955218689217205
        ]
      },
      "properties": {
        "stratum": "observer_frame",
        "spatial_mode": "3D_TILES",
        "camera": {
          "altitude_m_agl": 22.8,
          "pitch_deg": -10.1,
          "heading_deg": 227.4,
          "fov_deg": 60.0
        }
      }
    },
    {
      "type": "Feature",
      "id": "stratum_2_subterranean_geology",
      "geometry": {
        "type": "Point",
        "coordinates": [
          -3.197555419885586,
          55.955218689217205
        ]
      },
      "properties": {
        "stratum": "subterranean_geology",
        "foundation_analysis": "Subterranean strata comprise Carboniferous sedimentary bedrock of the Inverclyde and Strathclyde Groups, overlain by glacial till. Primary lithic building material is pale-grey to buff Carboniferous Craigleith and Hailes sandstone, bonded with traditional hydraulic lime mortar."
      }
    },
    {
      "type": "Feature",
      "id": "stratum_3_ground_surface",
      "geometry": {
        "type": "Point",
        "coordinates": [
          -3.197555419885586,
          55.955218689217205
        ]
      },
      "properties": {
        "stratum": "ground_surface",
        "primary_surfacing": "Engineered roadway and paved pedestrian curbs",
        "wear_characteristics": "Authentic environmental patina and drainage grading"
      }
    },
    {
      "type": "Feature",
      "id": "stratum_4_landscape_ecology",
      "geometry": {
        "type": "Point",
        "coordinates": [
          -3.197555419885586,
          55.955218689217205
        ]
      },
      "properties": {
        "stratum": "landscape_ecology",
        "botanical_analysis": "Mature urban tree boundary along Queen Street Gardens: *Acer pseudoplatanus* (Sycamore), *Tilia \u00d7 europaea* (Common Lime), and *Ulmus procera* (English Elm). Canopy state reflects late September phenology, exhibiting dense crown volumes with early autumnal chlorosis and localized yellow-green foliage transitions.",
        "foliage_rectification": "Disambiguated from masonry mesh"
      }
    },
    {
      "type": "Feature",
      "id": "stratum_5_built_environment",
      "geometry": {
        "type": "Point",
        "coordinates": [
          -3.197555419885586,
          55.955218689217205
        ]
      },
      "properties": {
        "stratum": "built_environment",
        "architectural_summary": "Continuous Georgian neoclassical terraced tenements and townhouses (circa 1780\u20131820). Linear facade planes feature 3 to 4 storeys over sunken basement lightwells bridged by stone plinths. Vertical load-bearing walls rectified to plumb axes. Pitched roofs clad in Scottish slate with regular gabled and canted dormer projections, flanked by shared masonry chimney stacks with terracotta pots. Regular fenestration grid of timber-framed sash-and-case windows (primarily 6-over-6 and 2-over-2 patterns).",
        "structures": [
          {
            "name": "Primary Facade",
            "storeys": 2,
            "height_m": 7.5,
            "roof_geometry": "pitched / parapet",
            "facade_material": "authentic regional masonry",
            "planar_rectification": "ENFORCED"
          }
        ]
      }
    },
    {
      "type": "Feature",
      "id": "stratum_6_dynamic_elements",
      "geometry": {
        "type": "Point",
        "coordinates": [
          -3.197555419885586,
          55.955218689217205
        ]
      },
      "properties": {
        "stratum": "dynamic_elements",
        "transient_decluttering": "ENFORCED",
        "vehicles": "NONE",
        "pedestrians": "NONE",
        "transient_clutter": "STRIPPED",
        "permanent_civil_fabric": "PRESERVED"
      }
    },
    {
      "type": "Feature",
      "id": "stratum_7_atmospheric_state",
      "geometry": null,
      "properties": {
        "stratum": "atmospheric_state",
        "lighting_rig": "SOLAR_EPHEMERIS",
        "timestamp_utc": "2026-09-22T16:48:00+00:00",
        "weather_state": "SUNNY",
        "solar_azimuth_deg": 254.07,
        "solar_elevation_deg": 11.17,
        "shadow_azimuth_deg": 74.1,
        "color_temperature_k": 4500,
        "ambient_illuminance_lux": 35000
      }
    }
  ]
}