{
  "type": "FeatureCollection",
  "properties": {
    "address": "West End, Atholl Cres, Edinburgh EH3 8HA, UK",
    "spatial_mode": "3D_TILES",
    "schema_version": "7-Strata-v2.0"
  },
  "features": [
    {
      "type": "Feature",
      "id": "stratum_1_observer_frame",
      "geometry": {
        "type": "Point",
        "coordinates": [
          -3.211873428690367,
          55.94820396092943
        ]
      },
      "properties": {
        "stratum": "observer_frame",
        "spatial_mode": "3D_TILES",
        "camera": {
          "altitude_m_agl": 160.5,
          "pitch_deg": -8.4,
          "heading_deg": 40.2,
          "fov_deg": 60.0
        }
      }
    },
    {
      "type": "Feature",
      "id": "stratum_2_subterranean_geology",
      "geometry": {
        "type": "Point",
        "coordinates": [
          -3.211873428690367,
          55.94820396092943
        ]
      },
      "properties": {
        "stratum": "subterranean_geology",
        "foundation_analysis": "The subterranean geology of Edinburgh's West End comprises Carboniferous sedimentary bedrock of the Strathclyde Group (sandstones, siltstones, and oil-shales), overlain by glacial till deposits. The primary regional structural masonry consists of blonde Craigleith and Hailes sandstone, characterized by dense quartz-arenite matrices bound with historical non-hydraulic and semi-hydraulic hot-lime mortars. Pavements and carriageways incorporate Scottish whinstone (quartz-dolerite) curbs and setts beneath contemporary asphalt overlays. Subterranean moisture is managed through engineered 19th-century cellar vaults beneath wide stone flag pavements, draining toward the Firth of Forth catchment."
      }
    },
    {
      "type": "Feature",
      "id": "stratum_3_ground_surface",
      "geometry": {
        "type": "Point",
        "coordinates": [
          -3.211873428690367,
          55.94820396092943
        ]
      },
      "properties": {
        "stratum": "ground_surface",
        "primary_surfacing": "Engineered roadway and paved pedestrian curbs",
        "wear_characteristics": "Authentic environmental patina and drainage grading"
      }
    },
    {
      "type": "Feature",
      "id": "stratum_4_landscape_ecology",
      "geometry": {
        "type": "Point",
        "coordinates": [
          -3.211873428690367,
          55.94820396092943
        ]
      },
      "properties": {
        "stratum": "landscape_ecology",
        "botanical_analysis": "Urban dendrological specimens situated in private gardens and rear courtyards include mature broadleaf deciduous trees\u2014predominantly *Acer pseudoplatanus* (Sycamore), *Ulmus glabra* (Wych Elm), and *Betula pendula* (Silver Birch)\u2014exhibiting dense, organic leafy canopies with natural branching structures, distinct from adjacent stonework.",
        "foliage_rectification": "Disambiguated from masonry mesh"
      }
    },
    {
      "type": "Feature",
      "id": "stratum_5_built_environment",
      "geometry": {
        "type": "Point",
        "coordinates": [
          -3.211873428690367,
          55.94820396092943
        ]
      },
      "properties": {
        "stratum": "built_environment",
        "architectural_summary": "The urban corridor along Shandwick Place and Atholl Crescent exhibits Scottish Georgian, Neo-Classical, and Victorian Roman Baroque architecture:\n- **St George's West Church (Charlotte Chapel)**: Designed by David Bryce (1866\u201369) with a prominent 56-meter Italianate campanile added by Sir Robert Rowand Anderson (1879\u201381) inspired by San Giorgio Maggiore in Venice. Features a four-stage tower with vermiculated bands at the base, an octagonal belfry, copper-clad pyramidal spire, and giant-order Corinthian corner pilasters.\n- **Atholl Crescent / Shandwick Place Terraces**: 3 to 4-storey plus attic and basement Georgian tenements with rhythmic sash-and-case fenestration (rectified plumb vertical lines), ashlar ground floors, smooth stringcourses, dentilled eaves, rusticated basements with cast-iron drop drop-wells, and pitched slate roofs with dormers and masonry chimney stacks.\n- **Distant Landmark**: The Neoclassical copper dome of West Register House (formerly St George's Church, Charlotte Square, by Robert Reid, 1811\u20131814) is visible in the northeast background.",
        "structures": [
          {
            "name": "Primary Facade",
            "storeys": 2,
            "height_m": 7.5,
            "roof_geometry": "pitched / parapet",
            "facade_material": "authentic regional masonry",
            "planar_rectification": "ENFORCED"
          }
        ]
      }
    },
    {
      "type": "Feature",
      "id": "stratum_6_dynamic_elements",
      "geometry": {
        "type": "Point",
        "coordinates": [
          -3.211873428690367,
          55.94820396092943
        ]
      },
      "properties": {
        "stratum": "dynamic_elements",
        "transient_decluttering": "ENFORCED",
        "vehicles": "NONE",
        "pedestrians": "NONE",
        "transient_clutter": "STRIPPED",
        "permanent_civil_fabric": "PRESERVED"
      }
    },
    {
      "type": "Feature",
      "id": "stratum_7_atmospheric_state",
      "geometry": null,
      "properties": {
        "stratum": "atmospheric_state",
        "lighting_rig": "SOLAR_EPHEMERIS",
        "timestamp_utc": "2026-11-11T13:57:50.849623+00:00",
        "weather_state": "SUNNY",
        "temperature_c": 15.0,
        "solar_azimuth_deg": 330.54,
        "solar_elevation_deg": 12.51,
        "shadow_azimuth_deg": 150.5,
        "color_temperature_k": 4500,
        "ambient_illuminance_lux": 35000
      }
    }
  ]
}