{
  "type": "FeatureCollection",
  "properties": {
    "address": "92 Comely Bank Ave, Edinburgh EH4 1HE, UK",
    "spatial_mode": "3D_TILES",
    "schema_version": "7-Strata-v2.0"
  },
  "features": [
    {
      "type": "Feature",
      "id": "stratum_1_observer_frame",
      "geometry": {
        "type": "Point",
        "coordinates": [
          -3.217803863628813,
          55.95726261509662
        ]
      },
      "properties": {
        "stratum": "observer_frame",
        "spatial_mode": "3D_TILES",
        "camera": {
          "altitude_m_agl": 121.0,
          "pitch_deg": -25.0,
          "heading_deg": 315.0,
          "fov_deg": 60.0
        }
      }
    },
    {
      "type": "Feature",
      "id": "stratum_2_subterranean_geology",
      "geometry": {
        "type": "Point",
        "coordinates": [
          -3.217803863628813,
          55.95726261509662
        ]
      },
      "properties": {
        "stratum": "subterranean_geology",
        "foundation_analysis": "The subterranean foundation rests upon the Carboniferous sedimentary sequence of the Midland Valley of Scotland, dominated by the Gullane Formation (calciferous sandstone measures) interspersed with Lower Carboniferous volcanic dolerite intrusions. The built masonry fabric consists predominantly of fine-to-medium-grained quartzose blonde and honey-colored Scottish Carboniferous sandstones, historically quarried from local Edinburgh beds including Craigleith, Hailes, and Cullalo. Wall structures employ ashlar facing backed by coursed sandstone rubble bound with traditional non-hydraulic to feebly hydraulic lime and sharp river sand mortars. Subterranean moisture is governed by glacial till drift over gently undulating topography sloping towards the Water of Leith basin, driving localized capillary rising damp along ground-level plinths."
      }
    },
    {
      "type": "Feature",
      "id": "stratum_3_ground_surface",
      "geometry": {
        "type": "Point",
        "coordinates": [
          -3.217803863628813,
          55.95726261509662
        ]
      },
      "properties": {
        "stratum": "ground_surface",
        "primary_surfacing": "Engineered roadway and paved pedestrian curbs",
        "wear_characteristics": "Authentic environmental patina and drainage grading"
      }
    },
    {
      "type": "Feature",
      "id": "stratum_4_landscape_ecology",
      "geometry": {
        "type": "Point",
        "coordinates": [
          -3.217803863628813,
          55.95726261509662
        ]
      },
      "properties": {
        "stratum": "landscape_ecology",
        "botanical_analysis": "Urban landscape ecology of the Stockbridge/Inverleith microclimate. Mature European broadleaf specimens interspersed in private tenement backgreens and roadside verges:\n- *Acer pseudoplatanus* (Sycamore / Scottish Plane) and *Ulmus glabra* (Wych Elm) with dense, organic green foliage canopies and articulated, rough-barked trunk branching.\n- Fine-textured manicured perennial ryegrass (*Lolium perenne*) turf across the central bowling green and private lawn enclosures.\n- *Hedera helix* (English Ivy) and climbing hydrangea lightly adhering to shaded rear stone boundary walls.",
        "foliage_rectification": "Disambiguated from masonry mesh"
      }
    },
    {
      "type": "Feature",
      "id": "stratum_5_built_environment",
      "geometry": {
        "type": "Point",
        "coordinates": [
          -3.217803863628813,
          55.95726261509662
        ]
      },
      "properties": {
        "stratum": "built_environment",
        "architectural_summary": "Late Victorian and Edwardian 4-storey residential tenements (constructed circa 1894\u20131910 under Sir James Steel's expansion) arranged in rectilinear perimeter blocks. \n- **Planar Rectification & Geometric Orthogonality**: All building masses rectified to precise structural verticals. Facades feature rhythmic vertical stacks of three-light canted bay windows, projecting polished ashlar cornices, continuous stringcourses, and decorative gablets.\n- **Roofscapes**: Steeply pitched double-pitch roofs clad in Scottish and Welsh slates, punctuated by masonry dormers, straight-coped skews with stone kneeler blocks, and monolithic rectangular sandstone chimney stacks complete with cylindrical terracotta clay chimney pots.\n- **Fenestration**: Rectilinear vertical timber sash-and-case windows (predominantly 2-over-2 and 1-over-1 configurations) set into rebated stone reveals with clean, planar astragals.\n- **Open Space / Grounds**: Rectilinear bowling green and residential shared plots bounded by dwarf ashlar boundary walls, cast-iron railings, and dressed stone copings.",
        "structures": [
          {
            "name": "Primary Facade",
            "storeys": 2,
            "height_m": 7.5,
            "roof_geometry": "pitched / parapet",
            "facade_material": "authentic regional masonry",
            "planar_rectification": "ENFORCED"
          }
        ]
      }
    },
    {
      "type": "Feature",
      "id": "stratum_6_dynamic_elements",
      "geometry": {
        "type": "Point",
        "coordinates": [
          -3.217803863628813,
          55.95726261509662
        ]
      },
      "properties": {
        "stratum": "dynamic_elements",
        "transient_decluttering": "ENFORCED",
        "vehicles": "NONE",
        "pedestrians": "NONE",
        "transient_clutter": "STRIPPED",
        "permanent_civil_fabric": "PRESERVED"
      }
    },
    {
      "type": "Feature",
      "id": "stratum_7_atmospheric_state",
      "geometry": null,
      "properties": {
        "stratum": "atmospheric_state",
        "lighting_rig": "SOLAR_EPHEMERIS",
        "timestamp_utc": "2026-10-11T19:33:52.272927+00:00",
        "weather_state": "SUNNY",
        "temperature_c": 15.0,
        "solar_azimuth_deg": 253.86,
        "solar_elevation_deg": -18.75,
        "shadow_azimuth_deg": 73.9,
        "color_temperature_k": 2000,
        "ambient_illuminance_lux": 5
      }
    }
  ]
}