{
  "type": "FeatureCollection",
  "properties": {
    "address": "4 Ainslie Pl, Edinburgh EH3 6AR, UK",
    "spatial_mode": "3D_TILES",
    "schema_version": "7-Strata-v2.0"
  },
  "features": [
    {
      "type": "Feature",
      "id": "stratum_1_observer_frame",
      "geometry": {
        "type": "Point",
        "coordinates": [
          -3.210247861717613,
          55.953631927923325
        ]
      },
      "properties": {
        "stratum": "observer_frame",
        "spatial_mode": "3D_TILES",
        "camera": {
          "altitude_m_agl": 177.8,
          "pitch_deg": -56.2,
          "heading_deg": 264.9,
          "fov_deg": 60.0
        }
      }
    },
    {
      "type": "Feature",
      "id": "stratum_2_subterranean_geology",
      "geometry": {
        "type": "Point",
        "coordinates": [
          -3.210247861717613,
          55.953631927923325
        ]
      },
      "properties": {
        "stratum": "subterranean_geology",
        "foundation_analysis": "The subterranean geology consists of the Lower Carboniferous Gullane and Wardie Shales of the Strathclyde Group, overlain by dense, poorly drained glacial lodgement till perched above the deep gorge of the Water of Leith. The primary structural masonry is premium pale grey-to-buff Craigleith sandstone (quartz-arenite with siliceous and calcareous matrix), celebrated for its low porosity and structural compressive strength. Lime mortar joints consist of hot-mixed calcitic non-hydraulic lime and river sand aggregate. Bedrock gradient and natural groundwater drain northwestward toward the Water of Leith via sub-pavement subterranean cellar drainage systems."
      }
    },
    {
      "type": "Feature",
      "id": "stratum_3_ground_surface",
      "geometry": {
        "type": "Point",
        "coordinates": [
          -3.210247861717613,
          55.953631927923325
        ]
      },
      "properties": {
        "stratum": "ground_surface",
        "primary_surfacing": "Engineered roadway and paved pedestrian curbs",
        "wear_characteristics": "Authentic environmental patina and drainage grading"
      }
    },
    {
      "type": "Feature",
      "id": "stratum_4_landscape_ecology",
      "geometry": {
        "type": "Point",
        "coordinates": [
          -3.210247861717613,
          55.953631927923325
        ]
      },
      "properties": {
        "stratum": "landscape_ecology",
        "botanical_analysis": "To the rear and along the central crescent garden, mature deciduous canopy trees characteristic of the Edinburgh urban landscape: mature Common Beech (*Fagus sylvatica*), Sycamore (*Acer pseudoplatanus*), Wych Elm (*Ulmus glabra*), and Lime trees (*Tilia cordata*). Tree canopies are fully disambiguated from built structures, exhibiting organic, branching leaf mass with textured bark, dappled foliage, and underlying turf borders.",
        "foliage_rectification": "Disambiguated from masonry mesh"
      }
    },
    {
      "type": "Feature",
      "id": "stratum_5_built_environment",
      "geometry": {
        "type": "Point",
        "coordinates": [
          -3.210247861717613,
          55.953631927923325
        ]
      },
      "properties": {
        "stratum": "built_environment",
        "architectural_summary": "Designed by James Gillespie Graham (Moray Feu scheme, 1822\u20131830), the structure is a Grade A listed neoclassical curved terrace/oval crescent. \n- **Typology & Storeys:** 3-storey, attic, and raised basement residential palace block with advanced multi-bay terminal and central pavilions. \n- **Planar Rectification & Load Bearing:** Facades follow a geometrically true concave arc with plumb vertical ashlar lines. Rusticated ground floors feature V-jointed channel courses. Floor plates, continuous cill courses, entablatures, and coped blocking courses are rigorously level.\n- **Roof Geometry:** Sharp, dual-pitched Scottish M-roof profiles and hipped pavilion projections clad in authentic Welsh and West Highland (Easdale/Ballachulish) grey-black slates, punctured by lead-flashed skylights, conical cupolas, and rectilinear ashlar chimney stacks with terracotta cylindrical flues.\n- **Fenestration:** Timber sliding sash and case windows (principally 12-pane configurations) set into deep rectangular reveals with continuous stone architraves and classical pedimented/corniced headers at the piano nobile.",
        "structures": [
          {
            "name": "Primary Facade",
            "storeys": 2,
            "height_m": 7.5,
            "roof_geometry": "pitched / parapet",
            "facade_material": "authentic regional masonry",
            "planar_rectification": "ENFORCED"
          }
        ]
      }
    },
    {
      "type": "Feature",
      "id": "stratum_6_dynamic_elements",
      "geometry": {
        "type": "Point",
        "coordinates": [
          -3.210247861717613,
          55.953631927923325
        ]
      },
      "properties": {
        "stratum": "dynamic_elements",
        "transient_decluttering": "ENFORCED",
        "vehicles": "NONE",
        "pedestrians": "NONE",
        "transient_clutter": "STRIPPED",
        "permanent_civil_fabric": "PRESERVED"
      }
    },
    {
      "type": "Feature",
      "id": "stratum_7_atmospheric_state",
      "geometry": null,
      "properties": {
        "stratum": "atmospheric_state",
        "lighting_rig": "SOLAR_EPHEMERIS",
        "timestamp_utc": "2026-08-24T12:00:00+00:00",
        "weather_state": "OVERCAST",
        "temperature_c": 15.0,
        "solar_azimuth_deg": 5.45,
        "solar_elevation_deg": 45.32,
        "shadow_azimuth_deg": 185.4,
        "color_temperature_k": 5400,
        "ambient_illuminance_lux": 60000
      }
    }
  ]
}