{
  "type": "FeatureCollection",
  "properties": {
    "address": "12 Charlotte Square, Edinburgh EH2 4ET, UK",
    "spatial_mode": "3D_TILES",
    "schema_version": "7-Strata-v2.0"
  },
  "features": [
    {
      "type": "Feature",
      "id": "stratum_1_observer_frame",
      "geometry": {
        "type": "Point",
        "coordinates": [
          -3.2071626013510146,
          55.95193940179104
        ]
      },
      "properties": {
        "stratum": "observer_frame",
        "spatial_mode": "3D_TILES",
        "camera": {
          "altitude_m_agl": 1.4,
          "pitch_deg": 4.8,
          "heading_deg": 245.5,
          "fov_deg": 60.0
        }
      }
    },
    {
      "type": "Feature",
      "id": "stratum_2_subterranean_geology",
      "geometry": {
        "type": "Point",
        "coordinates": [
          -3.2071626013510146,
          55.95193940179104
        ]
      },
      "properties": {
        "stratum": "subterranean_geology",
        "foundation_analysis": "- Subterranean Bedrock: Carboniferous sedimentary strata of the Strathclyde Group (Gullane Formation sandstones, siltstones, and mudstones), overlying localized glacial till and basaltic volcanic intrusive sills of the Edinburgh volcanic complex.\n- Lithic Sourcing: Primary structural fabric executed in fine-to-medium grained quartzose Craigleith Sandstone (pale buff-grey Carboniferous sandstone from the nearby Craigleith Quarry); secondary rubble masonry and backing in Hailes sandstone. Central monument pedestal composed of polished pink Peterhead granite blocks mounted on grey granite steps.\n- Mortar Chemistry: Historic hot-mixed non-hydraulic to feebly hydraulic lime mortar formulated with slaked quicklime (*calcium hydroxide*) and coarse sharp quartzose river sand, with lime-putty pointed ashlar joints.\n- Drainage & Substrata: Sloping urban glacial drift over sedimentary bedrock, providing moderate natural sub-surface drainage into the Water of Leith catchment basin."
      }
    },
    {
      "type": "Feature",
      "id": "stratum_3_ground_surface",
      "geometry": {
        "type": "Point",
        "coordinates": [
          -3.2071626013510146,
          55.95193940179104
        ]
      },
      "properties": {
        "stratum": "ground_surface",
        "primary_surfacing": "Engineered roadway and paved pedestrian curbs",
        "wear_characteristics": "Authentic environmental patina and drainage grading"
      }
    },
    {
      "type": "Feature",
      "id": "stratum_4_landscape_ecology",
      "geometry": {
        "type": "Point",
        "coordinates": [
          -3.2071626013510146,
          55.95193940179104
        ]
      },
      "properties": {
        "stratum": "landscape_ecology",
        "botanical_analysis": "- Turf Layer: Mown urban park lawn dominated by perennial ryegrass (*Lolium perenne*) and red fescue (*Festuca rubra*), dense and uniformly green with minimal wear.\n- Urban Tree Canopy: Mixed mature parkland specimens comprising Sycamore (*Acer pseudoplatanus*), Common Lime (*Tilia \u00d7 europaea*), and Wych Elm (*Ulmus glabra*).\n- Phenological State (Late September): Canopies remain full to moderately thinned; foliar color transitioning into early autumn senescent chlorosis, characterized by mixed olive-greens, dull lime, and localized margins of ochre-yellow and brown leaf-crisping.",
        "foliage_rectification": "Disambiguated from masonry mesh"
      }
    },
    {
      "type": "Feature",
      "id": "stratum_5_built_environment",
      "geometry": {
        "type": "Point",
        "coordinates": [
          -3.2071626013510146,
          55.95193940179104
        ]
      },
      "properties": {
        "stratum": "built_environment",
        "architectural_summary": "- Typological Composition: Neoclassical Georgian urban square designed by Robert Adam, anchored axially by West Register House (formerly St George's Church, designed by Robert Reid, 1811\u20131814), flanked by symmetrical 3-storey, attic, and rusticated basement terraced townhouses.\n- Church/Monumental Core: Massive neoclassical dome composition; hexastyle/tetrastyle Roman Ionic entrance portico supporting a heavy triangular pediment; stepping back to a two-tier circular drum flanked by corner piers, supporting a ribbed copper dome topped by a stone lantern with a gilded cross.\n- Terrace Grid & Fenestration: Uniform planar ashlar facades; channel-rusticated ground floors with round-arched openings and radiating voussoirs; upper floors divided by giant-order pilasters and continuous stringcourses; fenestration composed of recessed 6-over-6 and 12-pane timber sash-and-case windows set in crisp rectangular dressed surrounds; attic storey featuring lead-flashed slate dormers.\n- Central Monument: Scottish National Memorial to Prince Albert (Sir John Steell, 1876); life-size patinated bronze equestrian statue mounted on a multi-tiered polished granite pedestal with inset bronze relief plaques, bronze subsidiary corner figure groups, and a low stone-coped plinth.\n- Planar Rectification: All vertical portico columns, pilasters, townhouse party walls, and drum axes rectified to vertical alignment; roof parapets, cornices, and stringcourses flattened into continuous horizontal planes.",
        "structures": [
          {
            "name": "Primary Facade",
            "storeys": 2,
            "height_m": 7.5,
            "roof_geometry": "pitched / parapet",
            "facade_material": "authentic regional masonry",
            "planar_rectification": "ENFORCED"
          }
        ]
      }
    },
    {
      "type": "Feature",
      "id": "stratum_6_dynamic_elements",
      "geometry": {
        "type": "Point",
        "coordinates": [
          -3.2071626013510146,
          55.95193940179104
        ]
      },
      "properties": {
        "stratum": "dynamic_elements",
        "transient_decluttering": "ENFORCED",
        "vehicles": "NONE",
        "pedestrians": "NONE",
        "transient_clutter": "STRIPPED",
        "permanent_civil_fabric": "PRESERVED"
      }
    },
    {
      "type": "Feature",
      "id": "stratum_7_atmospheric_state",
      "geometry": null,
      "properties": {
        "stratum": "atmospheric_state",
        "lighting_rig": "SOLAR_EPHEMERIS",
        "timestamp_utc": "2026-09-22T15:15:00+00:00",
        "weather_state": "SUNNY",
        "solar_azimuth_deg": 232.95,
        "solar_elevation_deg": 22.81,
        "shadow_azimuth_deg": 52.9,
        "color_temperature_k": 4500,
        "ambient_illuminance_lux": 35000
      }
    }
  ]
}