{
  "type": "FeatureCollection",
  "properties": {
    "address": "3f Charlotte Square, Edinburgh EH2 4HQ, UK",
    "spatial_mode": "3D_TILES",
    "schema_version": "7-Strata-v2.0"
  },
  "features": [
    {
      "type": "Feature",
      "id": "stratum_1_observer_frame",
      "geometry": {
        "type": "Point",
        "coordinates": [
          -3.2084338330659703,
          55.95284377093837
        ]
      },
      "properties": {
        "stratum": "observer_frame",
        "spatial_mode": "3D_TILES",
        "camera": {
          "altitude_m_agl": 150.0,
          "pitch_deg": -21.7,
          "heading_deg": 301.1,
          "fov_deg": 60.0
        }
      }
    },
    {
      "type": "Feature",
      "id": "stratum_2_subterranean_geology",
      "geometry": {
        "type": "Point",
        "coordinates": [
          -3.2084338330659703,
          55.95284377093837
        ]
      },
      "properties": {
        "stratum": "subterranean_geology",
        "foundation_analysis": "- Bedrock: Carboniferous sedimentary strata of the Strathclyde Group / Gullane Formation, characterized by interbedded sandstones, siltstones, and mudstones underlying the Edinburgh basin.\n- Primary Lithics: Pale cream-to-buff, fine-to-medium grained Carboniferous quartz arenite sandstone quarried locally from the Craigleith Quarry (high silica content, extremely durable, carbonaceous flecking) with secondary rubble stone from Hailes and Ravelston quarries for interior structural backing.\n- Mortar & Foundations: Traditional non-hydraulic to weakly hydraulic hot-mixed lime mortars with sharp river sand aggregates; continuous ashlar strip footings resting upon stiff glacial till over consolidated sandstone bedrock.\n- Hydrogeology: Sloping subterranean terrain shedding groundwater northwest towards the Water of Leith gorge, managed via Georgian subterranean stone vaults, area wells, and gravitational perimeter drainage channels."
      }
    },
    {
      "type": "Feature",
      "id": "stratum_3_ground_surface",
      "geometry": {
        "type": "Point",
        "coordinates": [
          -3.2084338330659703,
          55.95284377093837
        ]
      },
      "properties": {
        "stratum": "ground_surface",
        "primary_surfacing": "Engineered roadway and paved pedestrian curbs",
        "wear_characteristics": "Authentic environmental patina and drainage grading"
      }
    },
    {
      "type": "Feature",
      "id": "stratum_4_landscape_ecology",
      "geometry": {
        "type": "Point",
        "coordinates": [
          -3.2084338330659703,
          55.95284377093837
        ]
      },
      "properties": {
        "stratum": "landscape_ecology",
        "botanical_analysis": "- Botanical Composition: Urban canopy of mature broadleaf specimens within the central private pleasure garden (Moray Place Gardens), including *Acer pseudoplatanus* (Sycamore), *Ulmus glabra* (Wych Elm), *Tilia \u00d7 europaea* (Common Lime), and *Fraxinus excelsior* (European Ash), bordered by *Ilex aquifolium* (Holly) perimeter hedgerows.\n- Seasonal Phenology (November): Late-autumn dormancy; broadleaf canopies mostly defoliated revealing intricate, bare dark-timber branch architectures, with sparse clusters of desiccated yellow-brown and bronze senescent foliage remaining on sheltered inner limbs and a blanket of fallen leaf litter over maintained turf.",
        "foliage_rectification": "Disambiguated from masonry mesh"
      }
    },
    {
      "type": "Feature",
      "id": "stratum_5_built_environment",
      "geometry": {
        "type": "Point",
        "coordinates": [
          -3.2084338330659703,
          55.95284377093837
        ]
      },
      "properties": {
        "stratum": "built_environment",
        "architectural_summary": "- Typology: Georgian Neo-Classical monumental duodecagonal circus (Moray Place, master planned 1822 by James Gillespie Graham for the 10th Earl of Moray).\n- Massing & Storey Heights: Symmetrical palace-fronted blocks comprising sunken basements within railed dry areas, rusticated ground floors, piano nobile first floors, second floors, and attic storeys beneath pitched mansard and hipped roofs punctuated by stone dormers and substantial transverse chimney stacks.\n- Rectification & Geometry: Orthogonal vertical line plumbed to absolute gravity; duodecagonal curved plan segmented into planar, ashlar-faced pavilions with engaged Greek Doric / Tuscan pilastrades and central pedimented porticos. Fenestration arranged in rigorous vertical grids: 6-over-6 and 8-over-8 timber double-hung sash-and-case windows with fine astragals.",
        "structures": [
          {
            "name": "Primary Facade",
            "storeys": 2,
            "height_m": 7.5,
            "roof_geometry": "pitched / parapet",
            "facade_material": "authentic regional masonry",
            "planar_rectification": "ENFORCED"
          }
        ]
      }
    },
    {
      "type": "Feature",
      "id": "stratum_6_dynamic_elements",
      "geometry": {
        "type": "Point",
        "coordinates": [
          -3.2084338330659703,
          55.95284377093837
        ]
      },
      "properties": {
        "stratum": "dynamic_elements",
        "transient_decluttering": "ENFORCED",
        "vehicles": "NONE",
        "pedestrians": "NONE",
        "transient_clutter": "STRIPPED",
        "permanent_civil_fabric": "PRESERVED"
      }
    },
    {
      "type": "Feature",
      "id": "stratum_7_atmospheric_state",
      "geometry": null,
      "properties": {
        "stratum": "atmospheric_state",
        "lighting_rig": "SOLAR_EPHEMERIS",
        "timestamp_utc": "2026-11-11T13:30:00+00:00",
        "weather_state": "RAIN",
        "solar_azimuth_deg": 202.87,
        "solar_elevation_deg": 14.23,
        "shadow_azimuth_deg": 22.9,
        "color_temperature_k": 4500,
        "ambient_illuminance_lux": 35000
      }
    }
  ]
}