{
  "type": "FeatureCollection",
  "properties": {
    "address": "15 Coates Cres, Edinburgh EH3 7AF, UK",
    "spatial_mode": "3D_TILES",
    "schema_version": "7-Strata-v2.0"
  },
  "features": [
    {
      "type": "Feature",
      "id": "stratum_1_observer_frame",
      "geometry": {
        "type": "Point",
        "coordinates": [
          -3.2132938190667826,
          55.948390965668224
        ]
      },
      "properties": {
        "stratum": "observer_frame",
        "spatial_mode": "3D_TILES",
        "camera": {
          "altitude_m_agl": 141.3,
          "pitch_deg": -1.1,
          "heading_deg": 285.8,
          "fov_deg": 60.0
        }
      }
    },
    {
      "type": "Feature",
      "id": "stratum_2_subterranean_geology",
      "geometry": {
        "type": "Point",
        "coordinates": [
          -3.2132938190667826,
          55.948390965668224
        ]
      },
      "properties": {
        "stratum": "subterranean_geology",
        "foundation_analysis": "The underlying subterranean bedrock of this Edinburgh West End sector comprises Carboniferous sedimentary strata of the Gullane Formation (Strathclyde Group), composed of alternating sandstones, siltstones, and mudstones overlain by glacial till deposits. The monumental masonry of St Mary's Episcopal Cathedral and the surrounding Georgian/Victorian residential tenements is built primarily of indigenous Carboniferous quartz arenite sandstone sourced from local Edinburgh quarries, notably the fine-grained, siliceous, hard-wearing Craigleith Quarry \"liver rock\", alongside secondary stones from Hailes and Ravelston quarries. Mortar chemistry consists of traditional historic non-hydraulic and semi-hydraulic hot-mixed slaked lime mortars blended with local sharp siliceous aggregate, facilitating vapor permeability across the sandstone fabric. Natural subterranean drainage flows northwards down structural gradients toward the Water of Leith basin."
      }
    },
    {
      "type": "Feature",
      "id": "stratum_3_ground_surface",
      "geometry": {
        "type": "Point",
        "coordinates": [
          -3.2132938190667826,
          55.948390965668224
        ]
      },
      "properties": {
        "stratum": "ground_surface",
        "primary_surfacing": "Engineered roadway and paved pedestrian curbs",
        "wear_characteristics": "Authentic environmental patina and drainage grading"
      }
    },
    {
      "type": "Feature",
      "id": "stratum_4_landscape_ecology",
      "geometry": {
        "type": "Point",
        "coordinates": [
          -3.2132938190667826,
          55.948390965668224
        ]
      },
      "properties": {
        "stratum": "landscape_ecology",
        "botanical_analysis": "The urban canopy dispersed within the private residential gardens and cathedral precinct consists of mature temperate deciduous species typical of Edinburgh's historic parks and streetscapes:\n- European Ash (*Fraxinus excelsior*)\n- Sycamore Maple (*Acer pseudoplatanus*)\n- Wych Elm (*Ulmus glabra*)\n- London Plane (*Platanus \u00d7 acerifolia*)\n- European Lime (*Tilia \u00d7 europaea*)\nCanopies feature dense, organic leafy branch structures with varied foliage tones ranging from deep forest green to lighter lime green, distinctly differentiated from surrounding stone masonry.",
        "foliage_rectification": "Disambiguated from masonry mesh"
      }
    },
    {
      "type": "Feature",
      "id": "stratum_5_built_environment",
      "geometry": {
        "type": "Point",
        "coordinates": [
          -3.2132938190667826,
          55.948390965668224
        ]
      },
      "properties": {
        "stratum": "built_environment",
        "architectural_summary": "- **Centerpiece Structure (Midground):** St Mary\u2019s Episcopal Cathedral (Category A listed; designed by Sir George Gilbert Scott, 1874\u20131879). High Victorian Gothic Revival style featuring a dominant 90-meter central crossing spire and twin western spires (completed 1913\u20131917). Planar elements include steep pitched nave and transept roofs clad in Westmorland/Ballachulish slate, clerestory lancets, deeply recessed portal jambs, flying buttresses, intricate stone crockets, gable copings, and a prominent decorative rose window in the south transept.\n- **Foreground & Midground Residential Blocks:** 4- to 5-storey Georgian and Victorian West End tenements (Coates Crescent / Palmerston Place / Melville Street area). Planar facades are strictly vertical, featuring classic regular fenestration grids with double-hung vertical timber sash-and-case windows (typically 6-over-6 and 2-over-2 patterns), heavy rusticated sandstone basements, dressed ashlar stringcourses, dentiled eaves cornices, pitched double-mansard slate roofs, and pronounced rectilinear sandstone chimney stacks topped with cylindrical clay chimney pots.\n- **Planar Rectification & Anti-Warp Protocol:** All photogrammetry melting, wobbly vertical faces, and distorted roof planes are rectified into true gravity verticals, sharp roof ridges, rectilinear dormers, and plumb ashlar joint lines.",
        "structures": [
          {
            "name": "Primary Facade",
            "storeys": 2,
            "height_m": 7.5,
            "roof_geometry": "pitched / parapet",
            "facade_material": "authentic regional masonry",
            "planar_rectification": "ENFORCED"
          }
        ]
      }
    },
    {
      "type": "Feature",
      "id": "stratum_6_dynamic_elements",
      "geometry": {
        "type": "Point",
        "coordinates": [
          -3.2132938190667826,
          55.948390965668224
        ]
      },
      "properties": {
        "stratum": "dynamic_elements",
        "transient_decluttering": "ENFORCED",
        "vehicles": "NONE",
        "pedestrians": "NONE",
        "transient_clutter": "STRIPPED",
        "permanent_civil_fabric": "PRESERVED"
      }
    },
    {
      "type": "Feature",
      "id": "stratum_7_atmospheric_state",
      "geometry": null,
      "properties": {
        "stratum": "atmospheric_state",
        "lighting_rig": "SOLAR_EPHEMERIS",
        "timestamp_utc": "2026-11-11T17:12:51.190517+00:00",
        "weather_state": "SUNNY",
        "temperature_c": 15.0,
        "solar_azimuth_deg": 288.76,
        "solar_elevation_deg": -8.25,
        "shadow_azimuth_deg": 108.8,
        "color_temperature_k": 2000,
        "ambient_illuminance_lux": 5
      }
    }
  ]
}