{
  "type": "FeatureCollection",
  "properties": {
    "address": "Hobart House, Edinburgh, UK",
    "spatial_mode": "3D_TILES",
    "schema_version": "7-Strata-v2.0"
  },
  "features": [
    {
      "type": "Feature",
      "id": "stratum_1_observer_frame",
      "geometry": {
        "type": "Point",
        "coordinates": [
          -3.1976472825012556,
          55.95411623115617
        ]
      },
      "properties": {
        "stratum": "observer_frame",
        "spatial_mode": "3D_TILES",
        "camera": {
          "altitude_m_agl": 159.9,
          "pitch_deg": -32.9,
          "heading_deg": 283.3,
          "fov_deg": 60.0
        }
      }
    },
    {
      "type": "Feature",
      "id": "stratum_2_subterranean_geology",
      "geometry": {
        "type": "Point",
        "coordinates": [
          -3.1976472825012556,
          55.95411623115617
        ]
      },
      "properties": {
        "stratum": "subterranean_geology",
        "foundation_analysis": "Subterranean formation comprises Lower Carboniferous sedimentary bedrock of the Strathclyde Group (sandstone, siltstone, and mudstone sequences with intrusive quartz-dolerite sills). Superficial deposits consist of dense Quaternary glacial till (boulder clay) overlying well-drained sloping topography between George Street ridge and the North Loch basin. Primary lithic building fabric consists of fine-to-medium grained Carboniferous quartz-arenite sandstone quarried locally from Craigleith and Hailes, complemented by Victorian blonde and Locharbriggs/Dumfriesshire red Permian sandstone variants. Bedding mortar utilizes non-hydraulic lime and sharp pit sand mixes with historic pointing exhibiting porous carbonation. Subterranean drainage routes through engineered stone culverts integrated into Georgian vaulted cellar infrastructure below the street pavements."
      }
    },
    {
      "type": "Feature",
      "id": "stratum_3_ground_surface",
      "geometry": {
        "type": "Point",
        "coordinates": [
          -3.1976472825012556,
          55.95411623115617
        ]
      },
      "properties": {
        "stratum": "ground_surface",
        "primary_surfacing": "Engineered roadway and paved pedestrian curbs",
        "wear_characteristics": "Authentic environmental patina and drainage grading"
      }
    },
    {
      "type": "Feature",
      "id": "stratum_4_landscape_ecology",
      "geometry": {
        "type": "Point",
        "coordinates": [
          -3.1976472825012556,
          55.95411623115617
        ]
      },
      "properties": {
        "stratum": "landscape_ecology",
        "botanical_analysis": "Urban core canyon environment with minimal canopy intrusion; isolated courtyard and rear lane specimens include *Acer pseudoplatanus* (Sycamore) and *Betula pendula* (Silver Birch). Late-summer phenological state: dense mature foliage displaying deep green chlorophyll saturation, terminal shoot elongation completed, and early micro-stress chlorosis on margins of upper canopy leaves.",
        "foliage_rectification": "Disambiguated from masonry mesh"
      }
    },
    {
      "type": "Feature",
      "id": "stratum_5_built_environment",
      "geometry": {
        "type": "Point",
        "coordinates": [
          -3.1976472825012556,
          55.95411623115617
        ]
      },
      "properties": {
        "stratum": "built_environment",
        "architectural_summary": "Gridiron urban plan conforming to James Craig\u2019s 1767 Edinburgh New Town layout. Prominent corner block exhibits late 19th-century Scots Baronial / Victorian commercial revival adaptations, featuring a polygonal corner turret (tourelle) capped with a conical slate roof, corbelled upper levels, and multi-bay mansard attic storeys punctuated by zinc/lead-clad pitched dormers. Flanking Hanover Street and Rose Street frontages comprise 3-to-4-storey over raised basement Georgian classical tenements and commercial premises. Vertical planes rectified to true gravity vertical, eliminating photogrammetry mesh warping. Rooflines regularized with crisp slate pitches, lead valley gutters, rectilinear stone chimney stacks with terracotta pots, and aligned multi-light fenestration (predominantly 6-over-6 and 2-over-2 timber sash-and-case frames).",
        "structures": [
          {
            "name": "Primary Facade",
            "storeys": 2,
            "height_m": 7.5,
            "roof_geometry": "pitched / parapet",
            "facade_material": "authentic regional masonry",
            "planar_rectification": "ENFORCED"
          }
        ]
      }
    },
    {
      "type": "Feature",
      "id": "stratum_6_dynamic_elements",
      "geometry": {
        "type": "Point",
        "coordinates": [
          -3.1976472825012556,
          55.95411623115617
        ]
      },
      "properties": {
        "stratum": "dynamic_elements",
        "transient_decluttering": "ENFORCED",
        "vehicles": "NONE",
        "pedestrians": "NONE",
        "transient_clutter": "STRIPPED",
        "permanent_civil_fabric": "PRESERVED"
      }
    },
    {
      "type": "Feature",
      "id": "stratum_7_atmospheric_state",
      "geometry": null,
      "properties": {
        "stratum": "atmospheric_state",
        "lighting_rig": "SOLAR_EPHEMERIS",
        "timestamp_utc": "2026-08-28T09:12:47.435348+00:00",
        "weather_state": "FOG",
        "temperature_c": 15.0,
        "solar_azimuth_deg": 55.88,
        "solar_elevation_deg": 32.1,
        "shadow_azimuth_deg": 235.9,
        "color_temperature_k": 5400,
        "ambient_illuminance_lux": 60000
      }
    }
  ]
}