{
  "type": "FeatureCollection",
  "properties": {
    "address": "9 Belgrave Cres, Edinburgh EH4 3AH, UK",
    "spatial_mode": "3D_TILES",
    "schema_version": "7-Strata-v2.0"
  },
  "features": [
    {
      "type": "Feature",
      "id": "stratum_1_observer_frame",
      "geometry": {
        "type": "Point",
        "coordinates": [
          -3.216766472155142,
          55.953682622313394
        ]
      },
      "properties": {
        "stratum": "observer_frame",
        "spatial_mode": "3D_TILES",
        "camera": {
          "altitude_m_agl": 1.4,
          "pitch_deg": 4.5,
          "heading_deg": 95.8,
          "fov_deg": 60.0
        }
      }
    },
    {
      "type": "Feature",
      "id": "stratum_2_subterranean_geology",
      "geometry": {
        "type": "Point",
        "coordinates": [
          -3.216766472155142,
          55.953682622313394
        ]
      },
      "properties": {
        "stratum": "subterranean_geology",
        "foundation_analysis": "Bedrock comprises Carboniferous Lower Oil-Shale sedimentary strata (sandstones, shales) overlain by glacial till. Structural masonry utilizes local pale-ochre to cream-grey Craigleith and Hailes quartz-arenite carboniferous sandstones, bonded with historical non-hydraulic to weakly hydraulic lime mortar (slaked quicklime and local sharp river sand aggregate). Subterranean drainage flows down towards the nearby Water of Leith valley."
      }
    },
    {
      "type": "Feature",
      "id": "stratum_3_ground_surface",
      "geometry": {
        "type": "Point",
        "coordinates": [
          -3.216766472155142,
          55.953682622313394
        ]
      },
      "properties": {
        "stratum": "ground_surface",
        "primary_surfacing": "Engineered roadway and paved pedestrian curbs",
        "wear_characteristics": "Authentic environmental patina and drainage grading"
      }
    },
    {
      "type": "Feature",
      "id": "stratum_4_landscape_ecology",
      "geometry": {
        "type": "Point",
        "coordinates": [
          -3.216766472155142,
          55.953682622313394
        ]
      },
      "properties": {
        "stratum": "landscape_ecology",
        "botanical_analysis": "Belgrave Crescent Gardens vegetation belt (late September phenology): Mature canopy dominated by *Acer pseudoplatanus* (Sycamore), *Ulmus glabra* (Wych Elm), and *Fraxinus excelsior* (European Ash). Foliage displays early autumn senescence with patchy chlorosis, dull ochre edge-browning, and slight crown thinning. Dense understorey shrubs with dark green fading foliage.",
        "foliage_rectification": "Disambiguated from masonry mesh"
      }
    },
    {
      "type": "Feature",
      "id": "stratum_5_built_environment",
      "geometry": {
        "type": "Point",
        "coordinates": [
          -3.216766472155142,
          55.953682622313394
        ]
      },
      "properties": {
        "stratum": "built_environment",
        "architectural_summary": "Left foreground/midground: Victorian three-to-four-storey residential tenement terrace with canted ashlar bay windows, moulded stringcourses, cornice lines, and timber double-hung sash-and-case fenestration. Center midground: Gothic Revival ecclesiastical structure featuring a tall battlemented square bell tower with corner crocketed pinnacles, lancet window apertures, buttressed nave, and pitched slate roof. Right side: Curving street alignment bounded by low ashlar coped retaining walls fronting deep garden tree lines. Planar vertical lines rectified to plumb geometry; mesh deformation flattened to true elevations.",
        "structures": [
          {
            "name": "Primary Facade",
            "storeys": 2,
            "height_m": 7.5,
            "roof_geometry": "pitched / parapet",
            "facade_material": "authentic regional masonry",
            "planar_rectification": "ENFORCED"
          }
        ]
      }
    },
    {
      "type": "Feature",
      "id": "stratum_6_dynamic_elements",
      "geometry": {
        "type": "Point",
        "coordinates": [
          -3.216766472155142,
          55.953682622313394
        ]
      },
      "properties": {
        "stratum": "dynamic_elements",
        "transient_decluttering": "ENFORCED",
        "vehicles": "NONE",
        "pedestrians": "NONE",
        "transient_clutter": "STRIPPED",
        "permanent_civil_fabric": "PRESERVED"
      }
    },
    {
      "type": "Feature",
      "id": "stratum_7_atmospheric_state",
      "geometry": null,
      "properties": {
        "stratum": "atmospheric_state",
        "lighting_rig": "SOLAR_EPHEMERIS",
        "timestamp_utc": "2026-09-24T07:20:59+00:00",
        "weather_state": "FOG",
        "solar_azimuth_deg": 105.97,
        "solar_elevation_deg": 10.45,
        "shadow_azimuth_deg": null,
        "color_temperature_k": 4500,
        "ambient_illuminance_lux": 35000
      }
    }
  ]
}