{
  "type": "FeatureCollection",
  "properties": {
    "address": "Constitution Ave at 12th St, Washington, DC 20004, USA",
    "spatial_mode": "3D_TILES",
    "schema_version": "7-Strata-v2.0"
  },
  "features": [
    {
      "type": "Feature",
      "id": "stratum_1_observer_frame",
      "geometry": {
        "type": "Point",
        "coordinates": [
          -77.02662840142094,
          38.89183930686141
        ]
      },
      "properties": {
        "stratum": "observer_frame",
        "spatial_mode": "3D_TILES",
        "camera": {
          "altitude_m_agl": 163.5,
          "pitch_deg": -12.0,
          "heading_deg": 247.9,
          "fov_deg": 60.0
        }
      }
    },
    {
      "type": "Feature",
      "id": "stratum_2_subterranean_geology",
      "geometry": {
        "type": "Point",
        "coordinates": [
          -77.02662840142094,
          38.89183930686141
        ]
      },
      "properties": {
        "stratum": "subterranean_geology",
        "foundation_analysis": "The subterranean geology of the National Mall sits along the Atlantic Coastal Plain margin over unconsolidated Holocene alluvial silts, clays, and gravels laid down by the ancestral Potomac River and the historic, culverted Tiber Creek floodplain. Bedrock beneath the deep sediments comprises crystalline metamorphic Piedmont schists and gneisses.\n- **Washington Monument:** Load-bearing core of coarse blue gneiss, faced with calcitic/dolomitic white crystalline marble: lower 150 feet (Phase 1) quarried from Texas, Maryland; transitional courses from Sheffield, Massachusetts; upper 400+ feet (Phase 2) sourced from the Beaver Dam quarry in Cockeysville, Maryland. Mortar: historic hydraulic lime, lead shims, and high-strength natural Portland cement.\n- **Smithsonian Castle (Renwick Building):** Clad in fine-grained, arkosic Seneca Red Sandstone (Poolesville Member of the Triassic Manassas Formation, Culpeper Basin), bonded with traditional lime-sand mortar.\n- **National Museum of African American History and Culture (NMAAHC):** Cast-in-place reinforced concrete subterranean bathtub basement seated on driven steel pilings through high-water-table alluvium, hardscaped with flamed and honed Minnesota Mesabi Black granite paving and curbing."
      }
    },
    {
      "type": "Feature",
      "id": "stratum_3_ground_surface",
      "geometry": {
        "type": "Point",
        "coordinates": [
          -77.02662840142094,
          38.89183930686141
        ]
      },
      "properties": {
        "stratum": "ground_surface",
        "primary_surfacing": "Engineered roadway and paved pedestrian curbs",
        "wear_characteristics": "Authentic environmental patina and drainage grading"
      }
    },
    {
      "type": "Feature",
      "id": "stratum_4_landscape_ecology",
      "geometry": {
        "type": "Point",
        "coordinates": [
          -77.02662840142094,
          38.89183930686141
        ]
      },
      "properties": {
        "stratum": "landscape_ecology",
        "botanical_analysis": "- **National Mall Canopy:** Dense, mature urban groves comprising American Elms (*Ulmus americana*), London Plane trees (*Platanus \u00d7 acerifolia*), Pin Oaks (*Quercus palustris*), Willow Oaks (*Quercus phellos*), and Red Maples (*Acer rubrum*).\n- **Turf & Understory:** Manicured cool-season turfgrass (Tall Fescue *Festuca arundinacea* and Kentucky Bluegrass *Poa pratensis*) showing faint linear mowing striping, flanked by formal manicured boxwood hedges (*Buxus sempervirens*) around building foundations and native ornamental sedge plantings.",
        "foliage_rectification": "Disambiguated from masonry mesh"
      }
    },
    {
      "type": "Feature",
      "id": "stratum_5_built_environment",
      "geometry": {
        "type": "Point",
        "coordinates": [
          -77.02662840142094,
          38.89183930686141
        ]
      },
      "properties": {
        "stratum": "built_environment",
        "architectural_summary": "- **Centerpiece / Distal Center:** The Washington Monument stands as a 555-foot, 5-inch (169.3 m) Egyptian-style unreinforced stone masonry obelisk with a distinct 17-degree pyramidal capstone (pyramidion). Beyond it across the Reflecting Pool axis sits the Neoclassical Lincoln Memorial with its Doric peristyle, the World War II Memorial plaza, and the Arlington Memorial Bridge spanning the Potomac River.\n- **Center-Right (Foreground/Midground):** The National Museum of African American History and Culture (NMAAHC)\u2014a 5-storey above-grade, inverted tiered corona inspired by traditional Yoruban caryatid column capitals. The triple-tiered cantilevered volumes flare upward at 17-degree angles, wrapped in an intricate bronze-toned lattice screen. Low-slope roof surface with integrated PV solar panels and mechanical penthouses.\n- **Left Flank:** The National Museum of American History (Modernist/Classical hybrid monumental box clad in Indiana limestone) and the Smithsonian Institution Castle (Norman/Gothic Revival with asymmetrical crenellated towers, turrets, and rose windows).\n- **Planar Rectification:** Strict plumb-line vertical alignment applied to the obelisk shaft and the NMAAHC facade envelopes. All horizontal gravel pathways, road grades (Constitution Avenue, 14th Street), and lawn terraces rectified to true gravity planes.",
        "structures": [
          {
            "name": "Primary Facade",
            "storeys": 2,
            "height_m": 7.5,
            "roof_geometry": "pitched / parapet",
            "facade_material": "authentic regional masonry",
            "planar_rectification": "ENFORCED"
          }
        ]
      }
    },
    {
      "type": "Feature",
      "id": "stratum_6_dynamic_elements",
      "geometry": {
        "type": "Point",
        "coordinates": [
          -77.02662840142094,
          38.89183930686141
        ]
      },
      "properties": {
        "stratum": "dynamic_elements",
        "transient_decluttering": "ENFORCED",
        "vehicles": "NONE",
        "pedestrians": "NONE",
        "transient_clutter": "STRIPPED",
        "permanent_civil_fabric": "PRESERVED"
      }
    },
    {
      "type": "Feature",
      "id": "stratum_7_atmospheric_state",
      "geometry": null,
      "properties": {
        "stratum": "atmospheric_state",
        "lighting_rig": "SOLAR_EPHEMERIS",
        "timestamp_utc": "2026-08-26T07:08:06.390816+00:00",
        "weather_state": "SUNNY",
        "temperature_c": 15.0,
        "solar_azimuth_deg": 144.73,
        "solar_elevation_deg": -33.28,
        "shadow_azimuth_deg": 324.7,
        "color_temperature_k": 2000,
        "ambient_illuminance_lux": 5
      }
    }
  ]
}