{
  "type": "FeatureCollection",
  "properties": {
    "address": "30 N W Circus Pl, Edinburgh EH3 6TP, UK",
    "spatial_mode": "3D_TILES",
    "schema_version": "7-Strata-v2.0"
  },
  "features": [
    {
      "type": "Feature",
      "id": "stratum_1_observer_frame",
      "geometry": {
        "type": "Point",
        "coordinates": [
          -3.205443884101457,
          55.9570606607855
        ]
      },
      "properties": {
        "stratum": "observer_frame",
        "spatial_mode": "3D_TILES",
        "camera": {
          "altitude_m_agl": 1.1,
          "pitch_deg": -1.2,
          "heading_deg": 283.6,
          "fov_deg": 60.0
        }
      }
    },
    {
      "type": "Feature",
      "id": "stratum_2_subterranean_geology",
      "geometry": {
        "type": "Point",
        "coordinates": [
          -3.205443884101457,
          55.9570606607855
        ]
      },
      "properties": {
        "stratum": "subterranean_geology",
        "foundation_analysis": "Subterranean foundation composed of Carboniferous sedimentary bedrock belonging to the Strathclyde Group, overlain by dense glacial lodgement till and boulder clay descending toward the Water of Leith basin. Masonry lithics consist primarily of pale cream-to-buff Craigleith and grey Hailes quartz-rich sandstone, characterized by high silica content, cross-bedding, and exceptional weathering resistance. Bedding joints set in traditional hydraulic lime and sharp river sand mortars. Roadway sub-base capped by olivine-dolerite (whinstone) setts and dressed Scottish granite kerbstones."
      }
    },
    {
      "type": "Feature",
      "id": "stratum_3_ground_surface",
      "geometry": {
        "type": "Point",
        "coordinates": [
          -3.205443884101457,
          55.9570606607855
        ]
      },
      "properties": {
        "stratum": "ground_surface",
        "primary_surfacing": "Engineered roadway and paved pedestrian curbs",
        "wear_characteristics": "Authentic environmental patina and drainage grading"
      }
    },
    {
      "type": "Feature",
      "id": "stratum_4_landscape_ecology",
      "geometry": {
        "type": "Point",
        "coordinates": [
          -3.205443884101457,
          55.9570606607855
        ]
      },
      "properties": {
        "stratum": "landscape_ecology",
        "botanical_analysis": "Urban dendrological specimens consisting of *Acer pseudoplatanus* (Sycamore) and *Ulmus glabra* (Wych Elm). Date-grounded December 25 winter state: complete deciduous dormancy, total defoliation, exposing complex architecture of bare structural limbs, rugged grey-brown bark, and intricate branch tracery.",
        "foliage_rectification": "Disambiguated from masonry mesh"
      }
    },
    {
      "type": "Feature",
      "id": "stratum_5_built_environment",
      "geometry": {
        "type": "Point",
        "coordinates": [
          -3.205443884101457,
          55.9570606607855
        ]
      },
      "properties": {
        "stratum": "built_environment",
        "architectural_summary": "Georgian Neoclassical multi-storey residential and commercial tenement terraces descending along a continuous gradient. Four-storey over basement ashlar facades with planarized vertical load-bearing lines. Ground floors exhibit channelled ashlar rustication and integrated 19th-century timber shopfront fascias; upper storeys display polished ashlar with crisp broached margins. Fenestration arranged in uniform vertical grids of timber-framed 12-pane and 6-over-6 sash-and-case windows with deep stone reveals. Rooflines defined by continuous moulded eaves cornices, blocking courses, pitched Scotch slate timber-framed roofs, pitched dormer projections, and substantial ashlar chimney stacks with clay chimney pots. Drop-light basement areas bounded by vertical wrought-iron spearhead railings.",
        "structures": [
          {
            "name": "Primary Facade",
            "storeys": 2,
            "height_m": 7.5,
            "roof_geometry": "pitched / parapet",
            "facade_material": "authentic regional masonry",
            "planar_rectification": "ENFORCED"
          }
        ]
      }
    },
    {
      "type": "Feature",
      "id": "stratum_6_dynamic_elements",
      "geometry": {
        "type": "Point",
        "coordinates": [
          -3.205443884101457,
          55.9570606607855
        ]
      },
      "properties": {
        "stratum": "dynamic_elements",
        "transient_decluttering": "ENFORCED",
        "vehicles": "NONE",
        "pedestrians": "NONE",
        "transient_clutter": "STRIPPED",
        "permanent_civil_fabric": "PRESERVED"
      }
    },
    {
      "type": "Feature",
      "id": "stratum_7_atmospheric_state",
      "geometry": null,
      "properties": {
        "stratum": "atmospheric_state",
        "lighting_rig": "SOLAR_EPHEMERIS",
        "timestamp_utc": "2026-12-25T10:24:00+00:00",
        "weather_state": "SNOW",
        "solar_azimuth_deg": 155.05,
        "solar_elevation_deg": 7.37,
        "shadow_azimuth_deg": null,
        "color_temperature_k": 3000,
        "ambient_illuminance_lux": 12000
      }
    }
  ]
}