{
  "type": "FeatureCollection",
  "properties": {
    "address": "145 Princes St., Edinburgh EH2 4BL, UK",
    "spatial_mode": "3D_TILES",
    "schema_version": "7-Strata-v2.0"
  },
  "features": [
    {
      "type": "Feature",
      "id": "stratum_1_observer_frame",
      "geometry": {
        "type": "Point",
        "coordinates": [
          -3.207732429089248,
          55.95012809987893
        ]
      },
      "properties": {
        "stratum": "observer_frame",
        "spatial_mode": "3D_TILES",
        "camera": {
          "altitude_m_agl": 3.8,
          "pitch_deg": 4.4,
          "heading_deg": 259.8,
          "fov_deg": 60.0
        }
      }
    },
    {
      "type": "Feature",
      "id": "stratum_2_subterranean_geology",
      "geometry": {
        "type": "Point",
        "coordinates": [
          -3.207732429089248,
          55.95012809987893
        ]
      },
      "properties": {
        "stratum": "subterranean_geology",
        "foundation_analysis": "Bedrock foundation comprises Lower Carboniferous sedimentary strata of the Inverclyde Group and Gullane Formation sandstones, siltstones, and mudstones, mantled by dense Devensian glacial till. Primary structural masonry is Carboniferous quartz-arenite Craigleith and Hailes sandstone, characterized by high silica content, fine grain, and structural durability. Secondary walling and plinth courses incorporate Pink Corrennie and grey Aberdeen granite. Historic masonry bonding employs hot-mixed calcitic and hydraulic lime mortars with sharp river sand aggregate. Ground plane underlain by compacted road base, gravel sub-base, and consolidated urban fill above subterranean storm drainage vaults."
      }
    },
    {
      "type": "Feature",
      "id": "stratum_3_ground_surface",
      "geometry": {
        "type": "Point",
        "coordinates": [
          -3.207732429089248,
          55.95012809987893
        ]
      },
      "properties": {
        "stratum": "ground_surface",
        "primary_surfacing": "Engineered roadway and paved pedestrian curbs",
        "wear_characteristics": "Authentic environmental patina and drainage grading"
      }
    },
    {
      "type": "Feature",
      "id": "stratum_4_landscape_ecology",
      "geometry": {
        "type": "Point",
        "coordinates": [
          -3.207732429089248,
          55.95012809987893
        ]
      },
      "properties": {
        "stratum": "landscape_ecology",
        "botanical_analysis": "Peripheral urban canopy consisting of mature *Acer pseudoplatanus* (sycamore) and *Tilia \u00d7 europaea* (common lime). Phenological profile for early September exhibits dense foliage volume, deep green leaf blades with early margins of yellowing chlorosis, localized tar-spotting on sycamore leaves, and seed clusters (samaras) suspended from upper canopy branches.",
        "foliage_rectification": "Disambiguated from masonry mesh"
      }
    },
    {
      "type": "Feature",
      "id": "stratum_5_built_environment",
      "geometry": {
        "type": "Point",
        "coordinates": [
          -3.207732429089248,
          55.95012809987893
        ]
      },
      "properties": {
        "stratum": "built_environment",
        "architectural_summary": "Linear urban corridor lined with 4-to-5-storey commercial terraces reflecting late Georgian origins remodelled into Victorian baronial and Edwardian classical commercial facades. Street-facing facades feature plumb ashlar elevations, rusticated ground-floor arcades, regular fenestration grids of timber 2-over-2 and 1-over-1 sash-and-case windows, projecting continuous entablatures, dentiled stringcourses, and decorative bracketed cornices. Roofscapes display steeply pitched slate roofs punctuated by pedimented ashlar dormers, stepped Dutch gables, polished sandstone chimney stacks with clay terracotta pots, and lead-lined parapet gutters. Distant western terminus is anchored by a square multi-tiered ashlar church tower capped with a verdigris copper pyramidal spire.",
        "structures": [
          {
            "name": "Primary Facade",
            "storeys": 2,
            "height_m": 7.5,
            "roof_geometry": "pitched / parapet",
            "facade_material": "authentic regional masonry",
            "planar_rectification": "ENFORCED"
          }
        ]
      }
    },
    {
      "type": "Feature",
      "id": "stratum_6_dynamic_elements",
      "geometry": {
        "type": "Point",
        "coordinates": [
          -3.207732429089248,
          55.95012809987893
        ]
      },
      "properties": {
        "stratum": "dynamic_elements",
        "transient_decluttering": "ENFORCED",
        "vehicles": "NONE",
        "pedestrians": "NONE",
        "transient_clutter": "STRIPPED",
        "permanent_civil_fabric": "PRESERVED"
      }
    },
    {
      "type": "Feature",
      "id": "stratum_7_atmospheric_state",
      "geometry": null,
      "properties": {
        "stratum": "atmospheric_state",
        "lighting_rig": "SOLAR_EPHEMERIS",
        "timestamp_utc": "2026-09-09T15:45:00+00:00",
        "weather_state": "RAIN",
        "solar_azimuth_deg": 241.55,
        "solar_elevation_deg": 24.24,
        "shadow_azimuth_deg": 61.6,
        "color_temperature_k": 4500,
        "ambient_illuminance_lux": 35000
      }
    }
  ]
}