{
  "type": "FeatureCollection",
  "properties": {
    "address": "17 Charlotte Square, Edinburgh EH2 4DJ, UK",
    "spatial_mode": "3D_TILES",
    "schema_version": "7-Strata-v2.0"
  },
  "features": [
    {
      "type": "Feature",
      "id": "stratum_1_observer_frame",
      "geometry": {
        "type": "Point",
        "coordinates": [
          -3.206784589026718,
          55.95176812129627
        ]
      },
      "properties": {
        "stratum": "observer_frame",
        "spatial_mode": "3D_TILES",
        "camera": {
          "altitude_m_agl": 1.2,
          "pitch_deg": 6.1,
          "heading_deg": 265.3,
          "fov_deg": 60.0
        }
      }
    },
    {
      "type": "Feature",
      "id": "stratum_2_subterranean_geology",
      "geometry": {
        "type": "Point",
        "coordinates": [
          -3.206784589026718,
          55.95176812129627
        ]
      },
      "properties": {
        "stratum": "subterranean_geology",
        "foundation_analysis": "Bedrock comprises Carboniferous sedimentary strata of the Strathclyde Group (sandstone, siltstone, and mudstone) overlain by dense glacial till. Primary structural masonry is Craigleith sandstone (a highly siliceous, quartzitic buff-grey pale sandstone with high compressive strength) combined with Hailes sandstone for structural backing. Mortar is traditional non-hydraulic slaked lime and coarse river sand. The central equestrian monument plinth is composed of polished pink Peterhead granite blocks set upon a hard sandstone sub-base."
      }
    },
    {
      "type": "Feature",
      "id": "stratum_3_ground_surface",
      "geometry": {
        "type": "Point",
        "coordinates": [
          -3.206784589026718,
          55.95176812129627
        ]
      },
      "properties": {
        "stratum": "ground_surface",
        "primary_surfacing": "Engineered roadway and paved pedestrian curbs",
        "wear_characteristics": "Authentic environmental patina and drainage grading"
      }
    },
    {
      "type": "Feature",
      "id": "stratum_4_landscape_ecology",
      "geometry": {
        "type": "Point",
        "coordinates": [
          -3.206784589026718,
          55.95176812129627
        ]
      },
      "properties": {
        "stratum": "landscape_ecology",
        "botanical_analysis": "Charlotte Square Garden interior dominated by mature broadleaf specimens: *Acer pseudoplatanus* (Sycamore), *Tilia \u00d7 europaea* (Common Lime), and *Ulmus glabra* (Wych Elm). Late September phenology: dense canopies exhibiting early autumn senescence, chlorotic pale-yellow to ochre leaf margins, patchy crown thinning, and initial leaf-litter dispersal across the manicured *Lolium perenne* and *Festuca rubra* turf lawn.",
        "foliage_rectification": "Disambiguated from masonry mesh"
      }
    },
    {
      "type": "Feature",
      "id": "stratum_5_built_environment",
      "geometry": {
        "type": "Point",
        "coordinates": [
          -3.206784589026718,
          55.95176812129627
        ]
      },
      "properties": {
        "stratum": "built_environment",
        "architectural_summary": "Neoclassical urban square composition dominated by the central monument of West Register House (formerly St George's Church). The central edifice presents an imposing tetrastyle Ionic portico with unfluted/fluted giant order columns, an unadorned frieze, triangular pediment, and a monumental central copper dome supported on an arcaded drum with peristyle Corinthian colonnettes and an octagonal lantern cupola. Flanking wings display symmetrical, three-storey plus attic and basement Georgian townhouse facades: rusticated ashlar ground storeys with round-arched openings, piano nobile with moulded architraves and pedimented central bays, regular 6-over-6 and 12-pane timber sash-and-case fenestration, projecting continuous stone stringcourses, cornice entablatures, balustraded parapets, dormer-punctuated Mansard roofs, and tall ashlar chimney stacks. Planar surfaces rectified to true vertical alignment.",
        "structures": [
          {
            "name": "Primary Facade",
            "storeys": 2,
            "height_m": 7.5,
            "roof_geometry": "pitched / parapet",
            "facade_material": "authentic regional masonry",
            "planar_rectification": "ENFORCED"
          }
        ]
      }
    },
    {
      "type": "Feature",
      "id": "stratum_6_dynamic_elements",
      "geometry": {
        "type": "Point",
        "coordinates": [
          -3.206784589026718,
          55.95176812129627
        ]
      },
      "properties": {
        "stratum": "dynamic_elements",
        "transient_decluttering": "ENFORCED",
        "vehicles": "NONE",
        "pedestrians": "NONE",
        "transient_clutter": "STRIPPED",
        "permanent_civil_fabric": "PRESERVED"
      }
    },
    {
      "type": "Feature",
      "id": "stratum_7_atmospheric_state",
      "geometry": null,
      "properties": {
        "stratum": "atmospheric_state",
        "lighting_rig": "SOLAR_EPHEMERIS",
        "timestamp_utc": "2026-09-23T16:03:00+00:00",
        "weather_state": "SUNNY",
        "solar_azimuth_deg": 244.05,
        "solar_elevation_deg": 16.68,
        "shadow_azimuth_deg": 64.1,
        "color_temperature_k": 4500,
        "ambient_illuminance_lux": 35000
      }
    }
  ]
}