{
  "type": "FeatureCollection",
  "properties": {
    "address": "40 Charlotte Square, Edinburgh EH2 4HQ, UK",
    "spatial_mode": "3D_TILES",
    "schema_version": "7-Strata-v2.0"
  },
  "features": [
    {
      "type": "Feature",
      "id": "stratum_1_observer_frame",
      "geometry": {
        "type": "Point",
        "coordinates": [
          -3.206928039539391,
          55.95191750686016
        ]
      },
      "properties": {
        "stratum": "observer_frame",
        "spatial_mode": "3D_TILES",
        "camera": {
          "altitude_m_agl": 6.5,
          "pitch_deg": 0.8,
          "heading_deg": 253.7,
          "fov_deg": 60.0
        }
      }
    },
    {
      "type": "Feature",
      "id": "stratum_2_subterranean_geology",
      "geometry": {
        "type": "Point",
        "coordinates": [
          -3.206928039539391,
          55.95191750686016
        ]
      },
      "properties": {
        "stratum": "subterranean_geology",
        "foundation_analysis": "- Bedrock: Carboniferous sandstones and siltstones of the Strathclyde Group, overlain by dense, stiff Devensian glacial till.\n- Lithic Fabric: Primary walling constructed of fine-to-medium-grained Carboniferous Craigleith quartzose sandstone; central monument plinth of polished red Peterhead granite.\n- Mortar Chemistry: Traditional non-hydraulic to weakly hydraulic Scottish lime mortars prepared with sharp river sand."
      }
    },
    {
      "type": "Feature",
      "id": "stratum_3_ground_surface",
      "geometry": {
        "type": "Point",
        "coordinates": [
          -3.206928039539391,
          55.95191750686016
        ]
      },
      "properties": {
        "stratum": "ground_surface",
        "primary_surfacing": "Engineered roadway and paved pedestrian curbs",
        "wear_characteristics": "Authentic environmental patina and drainage grading"
      }
    },
    {
      "type": "Feature",
      "id": "stratum_4_landscape_ecology",
      "geometry": {
        "type": "Point",
        "coordinates": [
          -3.206928039539391,
          55.95191750686016
        ]
      },
      "properties": {
        "stratum": "landscape_ecology",
        "botanical_analysis": "- Botanical Composition: Mixed urban parkland featuring *Acer pseudoplatanus* (Sycamore maple), *Tilia \u00d7 europaea* (Common lime), and *Betula pendula* (Silver birch).\n- Phenology (Late September): Early autumn chlorosis and foliage senescence; partial crown thinning, yellowing canopy margins, with intact structural branching.",
        "foliage_rectification": "Disambiguated from masonry mesh"
      }
    },
    {
      "type": "Feature",
      "id": "stratum_5_built_environment",
      "geometry": {
        "type": "Point",
        "coordinates": [
          -3.206928039539391,
          55.95191750686016
        ]
      },
      "properties": {
        "stratum": "built_environment",
        "architectural_summary": "- West Register House (Former St George's Church): Symmetrical Neoclassical civic monumentality; hexastyle portico base supporting a square attic, circular colonnaded peristyle drum, and ribbed copper-clad hemispherical dome capped with a gilded lantern and ball finial.\n- Flanking Terraces (Robert Adam design): 3-storey plus attic and basement Georgian townhouse ranges; channelled rusticated ground floor with round-headed window reveals, smooth ashlar upper storeys with giant order engaged columns and pilasters, continuous entablatures, and mansard slate roofs punctuated by dormers and shared ashlar chimney stacks.\n- Prince Albert Memorial: Central pedestal monument featuring stepped rusticated plinth, dressed granite socle, and equestrian bronze statuary with corner bronze groupings.\n- Fenestration: Vertical 6-over-6 and 8-over-8 timber-framed double-hung sash-and-case windows set in clean ashlar reveals.",
        "structures": [
          {
            "name": "Primary Facade",
            "storeys": 2,
            "height_m": 7.5,
            "roof_geometry": "pitched / parapet",
            "facade_material": "authentic regional masonry",
            "planar_rectification": "ENFORCED"
          }
        ]
      }
    },
    {
      "type": "Feature",
      "id": "stratum_6_dynamic_elements",
      "geometry": {
        "type": "Point",
        "coordinates": [
          -3.206928039539391,
          55.95191750686016
        ]
      },
      "properties": {
        "stratum": "dynamic_elements",
        "transient_decluttering": "ENFORCED",
        "vehicles": "NONE",
        "pedestrians": "NONE",
        "transient_clutter": "STRIPPED",
        "permanent_civil_fabric": "PRESERVED"
      }
    },
    {
      "type": "Feature",
      "id": "stratum_7_atmospheric_state",
      "geometry": null,
      "properties": {
        "stratum": "atmospheric_state",
        "lighting_rig": "SOLAR_EPHEMERIS",
        "timestamp_utc": "2026-09-22T16:30:00+00:00",
        "weather_state": "SUNNY",
        "solar_azimuth_deg": 250.17,
        "solar_elevation_deg": 13.58,
        "shadow_azimuth_deg": 70.2,
        "color_temperature_k": 4500,
        "ambient_illuminance_lux": 35000
      }
    }
  ]
}