{
  "type": "FeatureCollection",
  "properties": {
    "address": "16 Angell St, Providence, RI 02906, USA",
    "spatial_mode": "3D_TILES",
    "schema_version": "7-Strata-v2.0"
  },
  "features": [
    {
      "type": "Feature",
      "id": "stratum_1_observer_frame",
      "geometry": {
        "type": "Point",
        "coordinates": [
          -71.40706366594243,
          41.82765598285111
        ]
      },
      "properties": {
        "stratum": "observer_frame",
        "spatial_mode": "3D_TILES",
        "camera": {
          "altitude_m_agl": 31.2,
          "pitch_deg": -21.9,
          "heading_deg": 214.8,
          "fov_deg": 60.0
        }
      }
    },
    {
      "type": "Feature",
      "id": "stratum_2_subterranean_geology",
      "geometry": {
        "type": "Point",
        "coordinates": [
          -71.40706366594243,
          41.82765598285111
        ]
      },
      "properties": {
        "stratum": "subterranean_geology",
        "foundation_analysis": "The subterranean foundation is situated on the western terraced flank of College Hill within the Pennsylvanian-age Narragansett Basin. Bedrock comprises folded, carbonaceous meta-sedimentary lithologies of the Rhode Island Formation, characterized by dark-gray to black graphitic phyllite, interbedded quartzose sandstone, siltstone, and localized pebble conglomerate. Structural foundations bear directly on competent sedimentary strata and glacial lodgment till. Masonry across the foreground and midground incorporates regionally quarried fine-grained Westerly granite (Westerly, RI) for ashlar foundation plinths and retaining walls, coupled with dense, pressed New England red common clay brick bound in historic lime-sand and early Portland cementitious mortars. Groundwater hydrology is governed by steep westward sub-surface runoff toward the Providence River basin."
      }
    },
    {
      "type": "Feature",
      "id": "stratum_3_ground_surface",
      "geometry": {
        "type": "Point",
        "coordinates": [
          -71.40706366594243,
          41.82765598285111
        ]
      },
      "properties": {
        "stratum": "ground_surface",
        "primary_surfacing": "Engineered roadway and paved pedestrian curbs",
        "wear_characteristics": "Authentic environmental patina and drainage grading"
      }
    },
    {
      "type": "Feature",
      "id": "stratum_4_landscape_ecology",
      "geometry": {
        "type": "Point",
        "coordinates": [
          -71.40706366594243,
          41.82765598285111
        ]
      },
      "properties": {
        "stratum": "landscape_ecology",
        "botanical_analysis": "Street-level canopy anchors consist of mature urban broadleaf trees:\n- *Gleditsia triacanthos* var. *inermis* (Thornless Honeylocust): Compound pinnate foliage forming an open, spreading crown along sidewalk easements.\n- *Ulmus americana* (American Elm / Princeton cultivar): Vase-shaped branching habit with dense, fully expanded dark green foliage.\n- *Acer rubrum* (Red Maple): Full, dense late-summer crowns showing peak canopy density with mature, deep green leaf morphology and zero defoliation.",
        "foliage_rectification": "Disambiguated from masonry mesh"
      }
    },
    {
      "type": "Feature",
      "id": "stratum_5_built_environment",
      "geometry": {
        "type": "Point",
        "coordinates": [
          -71.40706366594243,
          41.82765598285111
        ]
      },
      "properties": {
        "stratum": "built_environment",
        "architectural_summary": "The spatial hierarchy is anchored in the foreground by the 1885 Dr. George W. Carr Mansion (Carr Haus, designed by Edward I. Nickerson), presenting an asymmetrical 3.5-storey Queen Anne / Chateauesque volume. Massing features a four-storey cylindrical corner turret terminating in a conical spire, steeply pitched slate cross-gables with flared eaves, projecting bay windows, half-timbered upper gables, and towering multi-flue brick chimneys with corbelled caps. Adjoining midground structures comprise late 19th- to mid-20th-century Rhode Island School of Design (RISD) academic and studio blocks (including the 1893 Romanesque/Venetian Revival Waterman Building massing and studio workshops), defined by rectilinear multi-storey red brick masonry envelopes, standing-seam copper clerestory lanterns, saw-tooth studio skylights, and a prominent freestanding cylindrical brick industrial chimney stack. Planar lines are strictly plumbed vertical, rectifying photogrammetric geometric drift into crisp masonry parapets, aligned fenestration grids, and planar roof junctions.",
        "structures": [
          {
            "name": "Primary Facade",
            "storeys": 2,
            "height_m": 7.5,
            "roof_geometry": "pitched / parapet",
            "facade_material": "authentic regional masonry",
            "planar_rectification": "ENFORCED"
          }
        ]
      }
    },
    {
      "type": "Feature",
      "id": "stratum_6_dynamic_elements",
      "geometry": {
        "type": "Point",
        "coordinates": [
          -71.40706366594243,
          41.82765598285111
        ]
      },
      "properties": {
        "stratum": "dynamic_elements",
        "transient_decluttering": "ENFORCED",
        "vehicles": "NONE",
        "pedestrians": "NONE",
        "transient_clutter": "STRIPPED",
        "permanent_civil_fabric": "PRESERVED"
      }
    },
    {
      "type": "Feature",
      "id": "stratum_7_atmospheric_state",
      "geometry": null,
      "properties": {
        "stratum": "atmospheric_state",
        "lighting_rig": "SOLAR_EPHEMERIS",
        "timestamp_utc": "2026-08-30T21:56:42.259000+00:00",
        "weather_state": "OVERCAST",
        "solar_azimuth_deg": 268.6,
        "solar_elevation_deg": 15.34,
        "shadow_azimuth_deg": null,
        "color_temperature_k": 4500,
        "ambient_illuminance_lux": 35000
      }
    }
  ]
}