{
  "type": "FeatureCollection",
  "properties": {
    "address": "43 St Andrew Sq, Edinburgh EH2 2AD, UK",
    "spatial_mode": "3D_TILES",
    "schema_version": "7-Strata-v2.0"
  },
  "features": [
    {
      "type": "Feature",
      "id": "stratum_1_observer_frame",
      "geometry": {
        "type": "Point",
        "coordinates": [
          -3.1948613332386016,
          55.954660121583075
        ]
      },
      "properties": {
        "stratum": "observer_frame",
        "spatial_mode": "3D_TILES",
        "camera": {
          "altitude_m_agl": 10.7,
          "pitch_deg": -11.6,
          "heading_deg": 120.1,
          "fov_deg": 60.0
        }
      }
    },
    {
      "type": "Feature",
      "id": "stratum_2_subterranean_geology",
      "geometry": {
        "type": "Point",
        "coordinates": [
          -3.1948613332386016,
          55.954660121583075
        ]
      },
      "properties": {
        "stratum": "subterranean_geology",
        "foundation_analysis": "Bedrock consists of Lower Carboniferous sedimentary sequences (Inverclyde and Strathclyde Group sandstones, siltstones, and mudstones) intruded by the volcanic dolerite and basalt sills forming the Arthur's Seat volcanic complex and Salisbury Crags visible in the background. Primary historic masonry lithic is fine-grained, silica-cemented Craigleith Carboniferous quartz-arenite sandstone, complemented by Binny and Hailes sandstones. Bedding mortar is traditional slaked lime and hydraulic lime with quartz aggregate. Subterranean hydrological movement drains eastward over dense glacial till toward the Firth of Forth basin."
      }
    },
    {
      "type": "Feature",
      "id": "stratum_3_ground_surface",
      "geometry": {
        "type": "Point",
        "coordinates": [
          -3.1948613332386016,
          55.954660121583075
        ]
      },
      "properties": {
        "stratum": "ground_surface",
        "primary_surfacing": "Engineered roadway and paved pedestrian curbs",
        "wear_characteristics": "Authentic environmental patina and drainage grading"
      }
    },
    {
      "type": "Feature",
      "id": "stratum_4_landscape_ecology",
      "geometry": {
        "type": "Point",
        "coordinates": [
          -3.1948613332386016,
          55.954660121583075
        ]
      },
      "properties": {
        "stratum": "landscape_ecology",
        "botanical_analysis": "Civic parkland landscape contains mature urban trees:\n- *Platanus \u00d7 acerifolia* (London Plane): Large spreading structure, thick flaking-bark trunk, wide hemispherical canopy volume.\n- *Acer pseudoplatanus* (Sycamore): Dense, multi-tiered rounded canopy form on stout, upright-branching trunks.\n- *Tilia cordata* (Small-leaved Lime): Upright oval to columnar branch architecture with basal epicormic growth.\n- Distant natural vegetation: Basaltic upland turf, gorse (*Ulex europaeus*), and low scrub communities flanking the volcanic crags.",
        "foliage_rectification": "Disambiguated from masonry mesh"
      }
    },
    {
      "type": "Feature",
      "id": "stratum_5_built_environment",
      "geometry": {
        "type": "Point",
        "coordinates": [
          -3.1948613332386016,
          55.954660121583075
        ]
      },
      "properties": {
        "stratum": "built_environment",
        "architectural_summary": "Centerpiece is the Melville Monument (1821\u20131827): a 42-metre fluted Roman Doric freestone column elevated on a high stepped square pedestal with heavy rusticated base masonry, terminated with a stone drum and colossal standing statue. The surrounding urban fabric of St Andrew Square presents 4- to 6-storey continuous perimeter frontages. Eastern and southern perimeter encompasses:\n- Georgian Neo-Classical and Victorian Renaissance Revival palazzi: channelled rusticated ground floors, piano nobile fenestration with moulded architraves and triangular pediments, giant order Corinthian and Ionic pilastrades, entablatures, balustraded parapets, and dormered slate mansards.\n- Dundas House (1774): recessed Neo-Palladian mansion with pedimented ashlar central core and Corinthian pilaster order.\n- Late-20th and 21st-century modern commercial infill: multi-tier structural glass curtain walling, planar post-and-beam grids, vertical sun-shading fins, and recessed penthouse levels.\n- Distant background skyline features the Scots Baronial clock tower of the Balmoral Hotel and the ashlar cylindrical tower of the Nelson Monument atop Calton Hill.",
        "structures": [
          {
            "name": "Primary Facade",
            "storeys": 2,
            "height_m": 7.5,
            "roof_geometry": "pitched / parapet",
            "facade_material": "authentic regional masonry",
            "planar_rectification": "ENFORCED"
          }
        ]
      }
    },
    {
      "type": "Feature",
      "id": "stratum_6_dynamic_elements",
      "geometry": {
        "type": "Point",
        "coordinates": [
          -3.1948613332386016,
          55.954660121583075
        ]
      },
      "properties": {
        "stratum": "dynamic_elements",
        "transient_decluttering": "ENFORCED",
        "vehicles": "NONE",
        "pedestrians": "NONE",
        "transient_clutter": "STRIPPED",
        "permanent_civil_fabric": "PRESERVED"
      }
    },
    {
      "type": "Feature",
      "id": "stratum_7_atmospheric_state",
      "geometry": null,
      "properties": {
        "stratum": "atmospheric_state",
        "lighting_rig": "SOLAR_EPHEMERIS",
        "timestamp_utc": "2026-09-26T16:54:22.891000+00:00",
        "weather_state": "OVERCAST",
        "solar_azimuth_deg": 254.89,
        "solar_elevation_deg": 8.8,
        "shadow_azimuth_deg": null,
        "color_temperature_k": 3000,
        "ambient_illuminance_lux": 12000
      }
    }
  ]
}