{
  "type": "FeatureCollection",
  "properties": {
    "address": "94 Hanover St, Edinburgh EH2 1DR, UK",
    "spatial_mode": "3D_TILES",
    "schema_version": "7-Strata-v2.0"
  },
  "features": [
    {
      "type": "Feature",
      "id": "stratum_1_observer_frame",
      "geometry": {
        "type": "Point",
        "coordinates": [
          -3.1976777490308392,
          55.95432287738338
        ]
      },
      "properties": {
        "stratum": "observer_frame",
        "spatial_mode": "3D_TILES",
        "camera": {
          "altitude_m_agl": 130.7,
          "pitch_deg": -14.1,
          "heading_deg": 344.3,
          "fov_deg": 60.0
        }
      }
    },
    {
      "type": "Feature",
      "id": "stratum_2_subterranean_geology",
      "geometry": {
        "type": "Point",
        "coordinates": [
          -3.1976777490308392,
          55.95432287738338
        ]
      },
      "properties": {
        "stratum": "subterranean_geology",
        "foundation_analysis": "The subterranean stratigraphy rests upon Carboniferous sedimentary strata of the Gullane Formation (calciferous sandstone measures), mantled by compact Devensian glacial lodgement till. The architectural fabric is dominated by local Carboniferous quartzose sandstones, predominantly pale buff-to-grey Craigleith Sandstone (highly indurated, silica-cemented quartz arenite) supplemented by beds of Hailes and Ravelston stone. Bedding planes are laid on natural beds with hot-mixed non-hydraulic lime mortar composed of calcined Scottish limestone and graded quartz sand. Kerbs and foundational flagstones comprise microcrystalline volcanic basalt (whinstone) and fine-grained Scottish granite. Surface hydrology slopes steeply northward from the George Street ridge toward the Water of Leith basin."
      }
    },
    {
      "type": "Feature",
      "id": "stratum_3_ground_surface",
      "geometry": {
        "type": "Point",
        "coordinates": [
          -3.1976777490308392,
          55.95432287738338
        ]
      },
      "properties": {
        "stratum": "ground_surface",
        "primary_surfacing": "Engineered roadway and paved pedestrian curbs",
        "wear_characteristics": "Authentic environmental patina and drainage grading"
      }
    },
    {
      "type": "Feature",
      "id": "stratum_4_landscape_ecology",
      "geometry": {
        "type": "Point",
        "coordinates": [
          -3.1976777490308392,
          55.95432287738338
        ]
      },
      "properties": {
        "stratum": "landscape_ecology",
        "botanical_analysis": "Middle-ground garden enclosures (Queen Street Gardens East and West) framing the corridor host a mature urban broadleaf canopy composed primarily of *Acer pseudoplatanus* (Sycamore), *Platanus \u00d7 acerifolia* (London Plane), *Tilia \u00d7 europaea* (Common Lime), and *Ulmus glabra* (Wych Elm). In late August phenology, the trees display heavy, dense mature canopy volumes in deep olive-green foliage, exhibiting minor early chlorotic tip-wear and foliar senescence without structural defoliation.",
        "foliage_rectification": "Disambiguated from masonry mesh"
      }
    },
    {
      "type": "Feature",
      "id": "stratum_5_built_environment",
      "geometry": {
        "type": "Point",
        "coordinates": [
          -3.1976777490308392,
          55.95432287738338
        ]
      },
      "properties": {
        "stratum": "built_environment",
        "architectural_summary": "Sited along James Craig's orthogonal 1767 New Town plan, Hanover Street forms a linear north-descending axial corridor crossing Queen Street and extending into Dundas Street. Flanking structures comprise Category A and B listed late 18th-century Georgian ashlar townhouses and tenements rising 3 to 4 storeys above excavated basement lightwells, capped with slated mansards and pitched roofs with ashlar chimney stacks. The street-level elevations feature channelled V-joint rustication, planar polished ashlar upper storeys, continuous moulded stringcourses, and mutule eaves cornices. Fenestration is strictly ordered in modular bays of timber sash-and-case windows (6-over-6 and 2-over-2 configurations) framed by plain reveals. Heavy photogrammetry distortions along vertical lines are plumbed to true gravity-aligned verticality, rectifying sagging cornices, skewed dormers, and distorted fenestration grids.",
        "structures": [
          {
            "name": "Primary Facade",
            "storeys": 2,
            "height_m": 7.5,
            "roof_geometry": "pitched / parapet",
            "facade_material": "authentic regional masonry",
            "planar_rectification": "ENFORCED"
          }
        ]
      }
    },
    {
      "type": "Feature",
      "id": "stratum_6_dynamic_elements",
      "geometry": {
        "type": "Point",
        "coordinates": [
          -3.1976777490308392,
          55.95432287738338
        ]
      },
      "properties": {
        "stratum": "dynamic_elements",
        "transient_decluttering": "ENFORCED",
        "vehicles": "NONE",
        "pedestrians": "NONE",
        "transient_clutter": "STRIPPED",
        "permanent_civil_fabric": "PRESERVED"
      }
    },
    {
      "type": "Feature",
      "id": "stratum_7_atmospheric_state",
      "geometry": null,
      "properties": {
        "stratum": "atmospheric_state",
        "lighting_rig": "SOLAR_EPHEMERIS",
        "timestamp_utc": "2026-08-28T20:12:47.442660+00:00",
        "weather_state": "OVERCAST",
        "temperature_c": 19.4,
        "solar_azimuth_deg": 239.75,
        "solar_elevation_deg": -7.5,
        "shadow_azimuth_deg": null,
        "color_temperature_k": 2000,
        "ambient_illuminance_lux": 5
      }
    }
  ]
}