{
  "type": "FeatureCollection",
  "properties": {
    "address": "12 Glenfinlas St, Edinburgh EH3 6AQ, UK",
    "spatial_mode": "3D_TILES",
    "schema_version": "7-Strata-v2.0"
  },
  "features": [
    {
      "type": "Feature",
      "id": "stratum_1_observer_frame",
      "geometry": {
        "type": "Point",
        "coordinates": [
          -3.209170712124427,
          55.95219829610292
        ]
      },
      "properties": {
        "stratum": "observer_frame",
        "spatial_mode": "3D_TILES",
        "camera": {
          "altitude_m_agl": 151.1,
          "pitch_deg": -2.1,
          "heading_deg": 169.1,
          "fov_deg": 60.0
        }
      }
    },
    {
      "type": "Feature",
      "id": "stratum_2_subterranean_geology",
      "geometry": {
        "type": "Point",
        "coordinates": [
          -3.209170712124427,
          55.95219829610292
        ]
      },
      "properties": {
        "stratum": "subterranean_geology",
        "foundation_analysis": "- Subterranean Bedrock: Underlain by Carboniferous sedimentary formations (Gullane Formation and Wardie Shales) intersected by glacial till deposits from the Devensian glaciation, structured atop the broader volcanic and sedimentary crag-and-tail bedrock of the Edinburgh basin.\n- Regional Lithics: Primary load-bearing masonry is extracted from the local Lower Carboniferous Craigleith Quarry (fine-grained, highly siliceous, compact 'liver rock' sandstone), with supplementary grey-blonde Carboniferous sandstones across neighboring residential terraces.\n- Mortar & Jointing: Traditional lime-based mortars composed of non-hydraulic lime and sharp local sand, forming tightly pointed ashlar joints with minimal bedding margins on formal classical facades.\n- Hydro-geology: Stable subterranean urban drainage along the gently descending slope of the New Town terrace towards the Water of Leith basin."
      }
    },
    {
      "type": "Feature",
      "id": "stratum_3_ground_surface",
      "geometry": {
        "type": "Point",
        "coordinates": [
          -3.209170712124427,
          55.95219829610292
        ]
      },
      "properties": {
        "stratum": "ground_surface",
        "primary_surfacing": "Engineered roadway and paved pedestrian curbs",
        "wear_characteristics": "Authentic environmental patina and drainage grading"
      }
    },
    {
      "type": "Feature",
      "id": "stratum_4_landscape_ecology",
      "geometry": {
        "type": "Point",
        "coordinates": [
          -3.209170712124427,
          55.95219829610292
        ]
      },
      "properties": {
        "stratum": "landscape_ecology",
        "botanical_analysis": "- Urban Vegetation: Mature broadleaf deciduous trees situated in the Charlotte Square central garden and street perimeters.\n- Species Composition: *Acer pseudoplatanus* (Sycamore), *Ulmus glabra* (Wych Elm), *Tilia x europaea* (Common Lime), and *Sorbus aucuparia* (Rowan).\n- Foliage Rendering: Dense, naturally stratified organic leafy canopies with structural woody branching and distinct leaf clusters, fully disambiguated from solid stonework.",
        "foliage_rectification": "Disambiguated from masonry mesh"
      }
    },
    {
      "type": "Feature",
      "id": "stratum_5_built_environment",
      "geometry": {
        "type": "Point",
        "coordinates": [
          -3.209170712124427,
          55.95219829610292
        ]
      },
      "properties": {
        "stratum": "built_environment",
        "architectural_summary": "- Typology: Neoclassical monumental civic architecture (former St George\u2019s Church / West Register House, designed by Robert Reid, 1811\u20131814) flanked by unified Georgian residential and commercial ashlar blocks (New Town masterplan by James Craig, facades by Robert Adam).\n- Massing & Storey Heights: The central neoclassical edifice features a square-plan base rising into an elevated peristyle drum with engaged Corinthian/Ionic colonnades, surmounted by a ribbed dome with an open tempietto lantern and finial (reaching 49 meters / 160 feet in height). Flanking New Town terraces comprise 3 to 4 storeys plus attic dormers and sunken basement lightwells.\n- Roofscapes & Fenestration: Complex multi-flued masonry chimney stacks, hipped slate mansard pitches, lead-lined parapet gutters, vertical sliding sash windows (six-over-six and twelve-over-twelve timber frames), deep rusticated voussoirs at ground levels, and crisp projecting ashlar entablatures.\n- Planar Rectification: All vertical masonry lines, colonnade shafts, drum pilasters, and tenement corner quoinings are rectified to true gravity vertical; curved 3D mesh artifacts on dome ribs, balustrades, and cornice modillions are resolved into crisp planar surfaces.",
        "structures": [
          {
            "name": "Primary Facade",
            "storeys": 2,
            "height_m": 7.5,
            "roof_geometry": "pitched / parapet",
            "facade_material": "authentic regional masonry",
            "planar_rectification": "ENFORCED"
          }
        ]
      }
    },
    {
      "type": "Feature",
      "id": "stratum_6_dynamic_elements",
      "geometry": {
        "type": "Point",
        "coordinates": [
          -3.209170712124427,
          55.95219829610292
        ]
      },
      "properties": {
        "stratum": "dynamic_elements",
        "transient_decluttering": "ENFORCED",
        "vehicles": "NONE",
        "pedestrians": "NONE",
        "transient_clutter": "STRIPPED",
        "permanent_civil_fabric": "PRESERVED"
      }
    },
    {
      "type": "Feature",
      "id": "stratum_7_atmospheric_state",
      "geometry": null,
      "properties": {
        "stratum": "atmospheric_state",
        "lighting_rig": "SOLAR_EPHEMERIS",
        "timestamp_utc": "2026-08-27T08:09:50.200971+00:00",
        "weather_state": "SUNNY",
        "temperature_c": 15.0,
        "solar_azimuth_deg": 71.35,
        "solar_elevation_deg": 24.49,
        "shadow_azimuth_deg": 251.3,
        "color_temperature_k": 4500,
        "ambient_illuminance_lux": 35000
      }
    }
  ]
}