{
  "type": "FeatureCollection",
  "properties": {
    "address": "17 Charlotte Square, Edinburgh EH2 4DJ, UK",
    "spatial_mode": "3D_TILES",
    "schema_version": "7-Strata-v2.0"
  },
  "features": [
    {
      "type": "Feature",
      "id": "stratum_1_observer_frame",
      "geometry": {
        "type": "Point",
        "coordinates": [
          -3.206784589026718,
          55.95176812129627
        ]
      },
      "properties": {
        "stratum": "observer_frame",
        "spatial_mode": "3D_TILES",
        "camera": {
          "altitude_m_agl": 1.2,
          "pitch_deg": 6.1,
          "heading_deg": 265.3,
          "fov_deg": 60.0
        }
      }
    },
    {
      "type": "Feature",
      "id": "stratum_2_subterranean_geology",
      "geometry": {
        "type": "Point",
        "coordinates": [
          -3.206784589026718,
          55.95176812129627
        ]
      },
      "properties": {
        "stratum": "subterranean_geology",
        "foundation_analysis": "Subterranean strata comprise Carboniferous sedimentary bedrock of the Strathclyde Group (sandstone, siltstone, and mudstone formations). Primary architectural masonry is pale cream-to-buff Craigleith sandstone, an exceptionally dense, quartz-rich silica-cemented calciferous freestone, supplemented by Hailes sandstone. Mortar consists of traditional hot-mixed non-hydraulic lime and sharp pit sand. The central commemorative plinth employs polished grey Peterhead and Aberdeenshire granites over subterranean rubblestone foundations."
      }
    },
    {
      "type": "Feature",
      "id": "stratum_3_ground_surface",
      "geometry": {
        "type": "Point",
        "coordinates": [
          -3.206784589026718,
          55.95176812129627
        ]
      },
      "properties": {
        "stratum": "ground_surface",
        "primary_surfacing": "Engineered roadway and paved pedestrian curbs",
        "wear_characteristics": "Authentic environmental patina and drainage grading"
      }
    },
    {
      "type": "Feature",
      "id": "stratum_4_landscape_ecology",
      "geometry": {
        "type": "Point",
        "coordinates": [
          -3.206784589026718,
          55.95176812129627
        ]
      },
      "properties": {
        "stratum": "landscape_ecology",
        "botanical_analysis": "Mature urban parkland specimens within garden enclosure: Acer pseudoplatanus (Sycamore), Tilia \u00d7 europaea (Common Lime), and Ulmus glabra (Wych Elm). Late September phenological state: dense canopies exhibiting early autumn senescence, margin yellowing, chlorosis, and patchy ochre leaf discoloration, with scattered leaf litter over the dense turf of Lolium perenne and Poa pratensis.",
        "foliage_rectification": "Disambiguated from masonry mesh"
      }
    },
    {
      "type": "Feature",
      "id": "stratum_5_built_environment",
      "geometry": {
        "type": "Point",
        "coordinates": [
          -3.206784589026718,
          55.95176812129627
        ]
      },
      "properties": {
        "stratum": "built_environment",
        "architectural_summary": "Planar neoclassical civic and residential composition rectified to plumb verticality. Centerpiece is West Register House (former St George's Church), featuring a central rusticated entrance pavilion, tetrastyle colossal portico with fluted columns supporting a triangular pediment, surmounted by an octagonal drum, peristyle colonnade, and high copper-clad ribbed dome terminating in a gilded lantern. Flanking wings connect to Robert Adam-designed neoclassical palatial terraces: three-storey over rusticated basements, articulated by channelled ashlar ground floors, smooth-faced ashlar piano nobiles with molded architraves, balustraded parapets, hipped dormers, and regularly spaced chimney stacks. Fenestration consists of rectilinear 6-over-6 and 12-pane timber sash-and-case windows. Center garden contains the rectilinear stepped pedestal of the Prince Albert Memorial surmounted by an equestrian bronze monument and bronze corner groups.",
        "structures": [
          {
            "name": "Primary Facade",
            "storeys": 2,
            "height_m": 7.5,
            "roof_geometry": "pitched / parapet",
            "facade_material": "authentic regional masonry",
            "planar_rectification": "ENFORCED"
          }
        ]
      }
    },
    {
      "type": "Feature",
      "id": "stratum_6_dynamic_elements",
      "geometry": {
        "type": "Point",
        "coordinates": [
          -3.206784589026718,
          55.95176812129627
        ]
      },
      "properties": {
        "stratum": "dynamic_elements",
        "transient_decluttering": "ENFORCED",
        "vehicles": "NONE",
        "pedestrians": "NONE",
        "transient_clutter": "STRIPPED",
        "permanent_civil_fabric": "PRESERVED"
      }
    },
    {
      "type": "Feature",
      "id": "stratum_7_atmospheric_state",
      "geometry": null,
      "properties": {
        "stratum": "atmospheric_state",
        "lighting_rig": "SOLAR_EPHEMERIS",
        "timestamp_utc": "2026-09-23T16:03:00+00:00",
        "weather_state": "SUNNY",
        "solar_azimuth_deg": 244.05,
        "solar_elevation_deg": 16.68,
        "shadow_azimuth_deg": 64.1,
        "color_temperature_k": 4500,
        "ambient_illuminance_lux": 35000
      }
    }
  ]
}