{
  "type": "FeatureCollection",
  "properties": {
    "address": "1 W Register St, Edinburgh EH2 2AA, UK",
    "spatial_mode": "3D_TILES",
    "schema_version": "7-Strata-v2.0"
  },
  "features": [
    {
      "type": "Feature",
      "id": "stratum_1_observer_frame",
      "geometry": {
        "type": "Point",
        "coordinates": [
          -3.1901169968103114,
          55.954149049306416
        ]
      },
      "properties": {
        "stratum": "observer_frame",
        "spatial_mode": "3D_TILES",
        "camera": {
          "altitude_m_agl": 69.2,
          "pitch_deg": -27.2,
          "heading_deg": 270.5,
          "fov_deg": 60.0
        }
      }
    },
    {
      "type": "Feature",
      "id": "stratum_2_subterranean_geology",
      "geometry": {
        "type": "Point",
        "coordinates": [
          -3.1901169968103114,
          55.954149049306416
        ]
      },
      "properties": {
        "stratum": "subterranean_geology",
        "foundation_analysis": "Bedrock comprises Carboniferous sedimentary strata of the Inverclyde and Strathclyde Groups, predominantly calciferous sandstones interbedded with siltstone and basaltic volcanic intrusions. Primary structural lithics consist of fine-to-medium-grained Craigleith and Hailes pale buff-to-grey quartz-arenite sandstones. Subterranean hydrological run-off drains south-west toward the palaeo-lacustrine basin of the drained Nor' Loch. Mortars are historic hot-mixed, non-hydraulic lime and sand matrices with localized Portland cement repointing on mid-to-late 20th-century infills."
      }
    },
    {
      "type": "Feature",
      "id": "stratum_3_ground_surface",
      "geometry": {
        "type": "Point",
        "coordinates": [
          -3.1901169968103114,
          55.954149049306416
        ]
      },
      "properties": {
        "stratum": "ground_surface",
        "primary_surfacing": "Engineered roadway and paved pedestrian curbs",
        "wear_characteristics": "Authentic environmental patina and drainage grading"
      }
    },
    {
      "type": "Feature",
      "id": "stratum_4_landscape_ecology",
      "geometry": {
        "type": "Point",
        "coordinates": [
          -3.1901169968103114,
          55.954149049306416
        ]
      },
      "properties": {
        "stratum": "landscape_ecology",
        "botanical_analysis": "Perimeter and interior parkland planting consists of mature *Platanus \u00d7 acerifolia* (London plane), *Acer pseudoplatanus* (sycamore), *Tilia cordata* (small-leaved lime), and *Betula pendula* (silver birch). Late-September phenology: dense, mature canopies exhibiting early autumn senescent chlorosis, fading from deep olive green to muted ochre and pale yellow along outer leaf margins, with intact foliage volume and visible branch frameworks beneath.",
        "foliage_rectification": "Disambiguated from masonry mesh"
      }
    },
    {
      "type": "Feature",
      "id": "stratum_5_built_environment",
      "geometry": {
        "type": "Point",
        "coordinates": [
          -3.1901169968103114,
          55.954149049306416
        ]
      },
      "properties": {
        "stratum": "built_environment",
        "architectural_summary": "Central public garden square centered on the 1821 Melville Monument: a fluted Roman Doric sandstone column atop a multi-tiered rusticated ashlar pedestal, surmounted by a heroic stone figure. Perimeter block layout features Georgian classical townhouses (4 to 5 storeys), Victorian commercial palazzi, and late-20th-century corporate office blocks (5 to 7 storeys). Rectified orthogonal geometry: plumb vertical masonry walls, straight cornices, rusticated ashlar basements, vertical timber 6-over-6 and 2-over-2 sash-and-case fenestration grids, modern flat-panel curtain-wall glazing, and mansard slate roofs with lead-dressed dormers.",
        "structures": [
          {
            "name": "Primary Facade",
            "storeys": 2,
            "height_m": 7.5,
            "roof_geometry": "pitched / parapet",
            "facade_material": "authentic regional masonry",
            "planar_rectification": "ENFORCED"
          }
        ]
      }
    },
    {
      "type": "Feature",
      "id": "stratum_6_dynamic_elements",
      "geometry": {
        "type": "Point",
        "coordinates": [
          -3.1901169968103114,
          55.954149049306416
        ]
      },
      "properties": {
        "stratum": "dynamic_elements",
        "transient_decluttering": "ENFORCED",
        "vehicles": "NONE",
        "pedestrians": "NONE",
        "transient_clutter": "STRIPPED",
        "permanent_civil_fabric": "PRESERVED"
      }
    },
    {
      "type": "Feature",
      "id": "stratum_7_atmospheric_state",
      "geometry": null,
      "properties": {
        "stratum": "atmospheric_state",
        "lighting_rig": "SOLAR_EPHEMERIS",
        "timestamp_utc": "2026-09-22T07:30:00+00:00",
        "weather_state": "SUNNY",
        "solar_azimuth_deg": 107.35,
        "solar_elevation_deg": 12.23,
        "shadow_azimuth_deg": 287.4,
        "color_temperature_k": 4500,
        "ambient_illuminance_lux": 35000
      }
    }
  ]
}