{
  "type": "FeatureCollection",
  "properties": {
    "address": "West End, Atholl Cres, Edinburgh EH3 8HA, UK",
    "spatial_mode": "3D_TILES",
    "schema_version": "7-Strata-v2.0"
  },
  "features": [
    {
      "type": "Feature",
      "id": "stratum_1_observer_frame",
      "geometry": {
        "type": "Point",
        "coordinates": [
          -3.211708035780551,
          55.948293085529905
        ]
      },
      "properties": {
        "stratum": "observer_frame",
        "spatial_mode": "3D_TILES",
        "camera": {
          "altitude_m_agl": 154.8,
          "pitch_deg": -8.9,
          "heading_deg": 37.1,
          "fov_deg": 60.0
        }
      }
    },
    {
      "type": "Feature",
      "id": "stratum_2_subterranean_geology",
      "geometry": {
        "type": "Point",
        "coordinates": [
          -3.211708035780551,
          55.948293085529905
        ]
      },
      "properties": {
        "stratum": "subterranean_geology",
        "foundation_analysis": "The subterranean foundation rests upon the Lower Carboniferous Gullane and Wardie Formations of the Strathclyde Group, comprising interbedded sandstones, siltstones, and bituminous shales overlain by dense glacial till. The dominant structural masonry across the foreground and midground is composed of pale buff-to-grey Carboniferous quartz arenite sandstone, historically sourced from the nearby Craigleith and Hailes quarries. Bedding planes are set in lime-based mortars composed of calcined Scottish limestone aggregate and sharp river sand. Ground water drains northward following the topographic fall toward the Water of Leith basin."
      }
    },
    {
      "type": "Feature",
      "id": "stratum_3_ground_surface",
      "geometry": {
        "type": "Point",
        "coordinates": [
          -3.211708035780551,
          55.948293085529905
        ]
      },
      "properties": {
        "stratum": "ground_surface",
        "primary_surfacing": "Engineered roadway and paved pedestrian curbs",
        "wear_characteristics": "Authentic environmental patina and drainage grading"
      }
    },
    {
      "type": "Feature",
      "id": "stratum_4_landscape_ecology",
      "geometry": {
        "type": "Point",
        "coordinates": [
          -3.211708035780551,
          55.948293085529905
        ]
      },
      "properties": {
        "stratum": "landscape_ecology",
        "botanical_analysis": "Along peripheral courtyard pockets and rear property lines are mature deciduous urban trees, including *Acer pseudoplatanus* (Sycamore), *Ulmus glabra* (Wych Elm), and *Betula pendula* (Silver Birch), exhibiting branching structures and full green foliage.",
        "foliage_rectification": "Disambiguated from masonry mesh"
      }
    },
    {
      "type": "Feature",
      "id": "stratum_5_built_environment",
      "geometry": {
        "type": "Point",
        "coordinates": [
          -3.211708035780551,
          55.948293085529905
        ]
      },
      "properties": {
        "stratum": "built_environment",
        "architectural_summary": "The scene captures the urban corridor of Shandwick Place looking northeast along the West End toward Charlotte Square and George Street. The prominent midground focal point is St George's West Church (Charlotte Chapel), featuring an Italian Romanesque/Venetian-inspired design originally conceived by David Bryce (1866\u20131869) with an imposing 56-metre Venetian campanile campanile tower and spire added by Sir Robert Rowand Anderson (1881\u20131882), terminating in an octagonal belfry, copper-clad spire, and clock faces. Surrounding the church are 4-to-5-storey classical Georgian and Victorian tenement blocks and commercial terraces featuring rusticated ground-floor arcades, ashlar upper facades, continuous stringcourses, classical architraves, canted bay windows, and steep slate mansard roofs punctuated by gabled and segmental pedimented dormers. In the background left, the neoclassical green copper dome of West Register House (formerly St George's Church, Charlotte Square, by Robert Reid) rises above the skyline. All vertical corner quoins, pilasters, and campanile shaft edges are strictly plumbed perpendicular to the horizontal ground plane.",
        "structures": [
          {
            "name": "Primary Facade",
            "storeys": 2,
            "height_m": 7.5,
            "roof_geometry": "pitched / parapet",
            "facade_material": "authentic regional masonry",
            "planar_rectification": "ENFORCED"
          }
        ]
      }
    },
    {
      "type": "Feature",
      "id": "stratum_6_dynamic_elements",
      "geometry": {
        "type": "Point",
        "coordinates": [
          -3.211708035780551,
          55.948293085529905
        ]
      },
      "properties": {
        "stratum": "dynamic_elements",
        "transient_decluttering": "ENFORCED",
        "vehicles": "NONE",
        "pedestrians": "NONE",
        "transient_clutter": "STRIPPED",
        "permanent_civil_fabric": "PRESERVED"
      }
    },
    {
      "type": "Feature",
      "id": "stratum_7_atmospheric_state",
      "geometry": null,
      "properties": {
        "stratum": "atmospheric_state",
        "lighting_rig": "SOLAR_EPHEMERIS",
        "timestamp_utc": "2026-08-27T05:36:50.809929+00:00",
        "weather_state": "RAIN",
        "temperature_c": 15.0,
        "solar_azimuth_deg": 103.68,
        "solar_elevation_deg": 3.39,
        "shadow_azimuth_deg": 283.7,
        "color_temperature_k": 3000,
        "ambient_illuminance_lux": 12000
      }
    }
  ]
}