{
  "type": "FeatureCollection",
  "properties": {
    "address": "VXM7+CJ Washington, DC, USA",
    "spatial_mode": "3D_TILES",
    "schema_version": "7-Strata-v2.0"
  },
  "features": [
    {
      "type": "Feature",
      "id": "stratum_1_observer_frame",
      "geometry": {
        "type": "Point",
        "coordinates": [
          -77.03599113312589,
          38.883575305647504
        ]
      },
      "properties": {
        "stratum": "observer_frame",
        "spatial_mode": "3D_TILES",
        "camera": {
          "altitude_m_agl": 292.2,
          "pitch_deg": -24.1,
          "heading_deg": 7.1,
          "fov_deg": 60.0
        }
      }
    },
    {
      "type": "Feature",
      "id": "stratum_2_subterranean_geology",
      "geometry": {
        "type": "Point",
        "coordinates": [
          -77.03599113312589,
          38.883575305647504
        ]
      },
      "properties": {
        "stratum": "subterranean_geology",
        "foundation_analysis": "The subterranean floor beneath the National Mall occupies the Atlantic Coastal Plain margin where unconsolidated Quaternary and Holocene alluvial silt, clay, and gravel overlie crystalline Piedmont metamorphic bedrock (Piedmont gneiss and schist). Due to historic proximity to the Potomac River and Tiber Creek floodplains, artificial fills and massive engineered foundations (including the 1880s underpinning of the Washington Monument using mass concrete sub-bases) stabilize the terrain. Indigenous lithics include:\n- **Washington Monument:** Faced with dolomitic white marble from the Beaver Dam / Texas quarry in Cockeysville, Maryland (lower 46m / 152ft), transitional courses of Stockbridge marble from Lee, Massachusetts, and upper Cockeysville marble, backed by Maine granite and Seneca red sandstone.\n- **Federal Triangle Buildings:** Extensive cladding of dense calcarenitic Salem Limestone (Indiana oolitic limestone) set over structural steel and concrete frames.\n- **Smithsonian Complex:** Triassic iron-rich arkosic red sandstone from the Poolesville Member quarried at Seneca, Maryland (Smithsonian Castle), paired with deep red fired clay structural bricks and polychrome pressed brickwork."
      }
    },
    {
      "type": "Feature",
      "id": "stratum_3_ground_surface",
      "geometry": {
        "type": "Point",
        "coordinates": [
          -77.03599113312589,
          38.883575305647504
        ]
      },
      "properties": {
        "stratum": "ground_surface",
        "primary_surfacing": "Engineered roadway and paved pedestrian curbs",
        "wear_characteristics": "Authentic environmental patina and drainage grading"
      }
    },
    {
      "type": "Feature",
      "id": "stratum_4_landscape_ecology",
      "geometry": {
        "type": "Point",
        "coordinates": [
          -77.03599113312589,
          38.883575305647504
        ]
      },
      "properties": {
        "stratum": "landscape_ecology",
        "botanical_analysis": "- **Mature Urban Canopy:** American elm (*Ulmus americana*) lining the mall corridors in formal linear allees, American sycamore (*Platanus occidentalis*), London plane trees (*Platanus \u00d7 acerifolia*), willow oaks (*Quercus phellos*), pin oaks (*Quercus palustris*), and Eastern redcedar (*Juniperus virginiana*).\n- **Turf & Vegetation:** Maintained Kentucky bluegrass and fescue blend lawn expanses showing seasonal micro-variations, clover clusters, and aeration striping across the broad greens of the Monument grounds and the Ellipse.",
        "foliage_rectification": "Disambiguated from masonry mesh"
      }
    },
    {
      "type": "Feature",
      "id": "stratum_5_built_environment",
      "geometry": {
        "type": "Point",
        "coordinates": [
          -77.03599113312589,
          38.883575305647504
        ]
      },
      "properties": {
        "stratum": "built_environment",
        "architectural_summary": "- **Centerpiece (Washington Monument):** Pure neoclassical Egyptian obelisk form, measuring 169.05 meters (554.6 feet) in height, tapering uniformly to an apex pyramidion capped in cast aluminum. Grounded on a paved circular plaza ringed with fifty flagpoles. Planar alignment rectified to true gravity vertical.\n- **Flanking Northeast / East (Federal Triangle):** Monumental Beaux-Arts, Neoclassical, and French Renaissance revival federal office complexes (including the Herbert C. Hoover Building / Department of Commerce, Ronald Reagan Building, and Clinton Federal Building). Consistent massing spanning 6 to 8 stories (approx. 30\u201340 meters), punctuated by massive Corinthian and Doric colonnades, rusticated bases, hipped roofscapes, and red clay Spanish barrel-tile roofs.\n- **East-Center (National Museum of African American History and Culture - NMAAHC):** Contemporary inverted three-tiered corona stepped pyramid wrapped in an ornate bronze-tinted cast aluminum lattice filigree over a glazed curtain-wall base.\n- **Southeast / Foreground Flanks:** Victorian Romanesque Revival and polychromatic brick pavilions (Smithsonian Arts and Industries Building and Castle complex) featuring turrets, gabled pavilions, and clerestory dormers.\n- **Urban Topography & Pathways:** Curved pedestrian walkways and grand elliptical axes (The Ellipse / President's Park South to the north, Constitution Avenue corridor, and circular monument grounds).",
        "structures": [
          {
            "name": "Primary Facade",
            "storeys": 2,
            "height_m": 7.5,
            "roof_geometry": "pitched / parapet",
            "facade_material": "authentic regional masonry",
            "planar_rectification": "ENFORCED"
          }
        ]
      }
    },
    {
      "type": "Feature",
      "id": "stratum_6_dynamic_elements",
      "geometry": {
        "type": "Point",
        "coordinates": [
          -77.03599113312589,
          38.883575305647504
        ]
      },
      "properties": {
        "stratum": "dynamic_elements",
        "transient_decluttering": "ENFORCED",
        "vehicles": "NONE",
        "pedestrians": "NONE",
        "transient_clutter": "STRIPPED",
        "permanent_civil_fabric": "PRESERVED"
      }
    },
    {
      "type": "Feature",
      "id": "stratum_7_atmospheric_state",
      "geometry": null,
      "properties": {
        "stratum": "atmospheric_state",
        "lighting_rig": "SOLAR_EPHEMERIS",
        "timestamp_utc": "2026-08-26T12:03:00+00:00",
        "weather_state": "SUNNY",
        "temperature_c": 30.5,
        "solar_azimuth_deg": 90.24,
        "solar_elevation_deg": 16.89,
        "shadow_azimuth_deg": 270.2,
        "color_temperature_k": 4500,
        "ambient_illuminance_lux": 35000
      }
    }
  ]
}