{
  "type": "FeatureCollection",
  "properties": {
    "address": "10 Glencairn Cres, Edinburgh EH12 5BS, UK",
    "spatial_mode": "3D_TILES",
    "schema_version": "7-Strata-v2.0"
  },
  "features": [
    {
      "type": "Feature",
      "id": "stratum_1_observer_frame",
      "geometry": {
        "type": "Point",
        "coordinates": [
          -3.2194957957300425,
          55.94855248758411
        ]
      },
      "properties": {
        "stratum": "observer_frame",
        "spatial_mode": "3D_TILES",
        "camera": {
          "altitude_m_agl": 146.1,
          "pitch_deg": -2.7,
          "heading_deg": 92.9,
          "fov_deg": 60.0
        }
      }
    },
    {
      "type": "Feature",
      "id": "stratum_2_subterranean_geology",
      "geometry": {
        "type": "Point",
        "coordinates": [
          -3.2194957957300425,
          55.94855248758411
        ]
      },
      "properties": {
        "stratum": "subterranean_geology",
        "foundation_analysis": "The subterranean substrate consists of Lower Carboniferous sedimentary formations of the Strathclyde and Inverclyde Groups, primarily Gullane and Wardie siltstones and shales interspersed with intrusive volcanic basalt sills characteristic of the Midland Valley basin. The monumental centerpiece (St Mary's Episcopal Cathedral) and the surrounding New Town residential terraces are predominantly constructed from indigenous quartzose Carboniferous sandstones, notably sourced from the historic Craigleith and Hailes quarries. Craigleith sandstone, a pale grey-to-buff, silica-cemented quartz arenite of exceptional structural density, forms the primary fine ashlar masonry and intricate Gothic tracery. Flanking residential tenements utilize laminated Hailes sandstone and Cullalo sandstone, bedded in traditional hydraulic non-hydraulic lime and sand mortar. Subsurface hydrology is governed by glacial till (boulder clay) overlying sloping bedrock draining southward toward the Water of Leith basin."
      }
    },
    {
      "type": "Feature",
      "id": "stratum_3_ground_surface",
      "geometry": {
        "type": "Point",
        "coordinates": [
          -3.2194957957300425,
          55.94855248758411
        ]
      },
      "properties": {
        "stratum": "ground_surface",
        "primary_surfacing": "Engineered roadway and paved pedestrian curbs",
        "wear_characteristics": "Authentic environmental patina and drainage grading"
      }
    },
    {
      "type": "Feature",
      "id": "stratum_4_landscape_ecology",
      "geometry": {
        "type": "Point",
        "coordinates": [
          -3.2194957957300425,
          55.94855248758411
        ]
      },
      "properties": {
        "stratum": "landscape_ecology",
        "botanical_analysis": "Urban domestic gardens and street-level courtyard plantings feature mature European broadleaf species, including *Acer pseudoplatanus* (Sycamore maple), *Tilia cordata* (Small-leaved Lime), *Ulmus glabra* (Wych elm), and *Fraxinus excelsior* (European Ash). Foliage is rendered as organic leafy canopies with natural botanical branching and vein detail, completely disambiguated from adjacent masonry.",
        "foliage_rectification": "Disambiguated from masonry mesh"
      }
    },
    {
      "type": "Feature",
      "id": "stratum_5_built_environment",
      "geometry": {
        "type": "Point",
        "coordinates": [
          -3.2194957957300425,
          55.94855248758411
        ]
      },
      "properties": {
        "stratum": "built_environment",
        "architectural_summary": "A prominent high-angle oblique elevation facing East (92.9\u00b0 heading) capturing the Victorian Gothic masterpiece of St Mary's Episcopal Cathedral (designed by Sir George Gilbert Scott, 1874\u20131879) framed against the wider Edinburgh West End.\n- **Centerpiece (St Mary's Cathedral):** Cruciform plan featuring a monumental central crossing tower terminating in a 90-meter (295 ft) octagonal stone spire, flanked at the western facade by dual matching twin spires (the Mary and Barbara spires, added 1913\u20131917). Planar geometry includes flying buttresses, lancet window fenestration, deeply recessed arched portals, high clerestory bays, a steeply pitched nave roof clad in Scottish Ballachulish slate, and an eastern apse.\n- **Foreground & Flanks (Residential Terraces):** Victorian and Late Georgian New Town residential tenements (4 to 5 storeys, including raised basements and attic mansards/dormers). Rectangular, rhythmic ashlar facades characterized by repetitive vertical sash window bays, canted bays, ashlar string courses, prominent parapets, and dense arrays of symmetrical chimney stacks crowned with terracotta cylindrical pots.\n- **Planar Rectification:** All distorted photogrammetric polygons along the stone towers, spires, and tenement facades are rectified to strict vertical plumb lines. Horizontal floor stringcourses, eaves, and ridgelines are restored to sharp, unwarped geometric planes.",
        "structures": [
          {
            "name": "Primary Facade",
            "storeys": 2,
            "height_m": 7.5,
            "roof_geometry": "pitched / parapet",
            "facade_material": "authentic regional masonry",
            "planar_rectification": "ENFORCED"
          }
        ]
      }
    },
    {
      "type": "Feature",
      "id": "stratum_6_dynamic_elements",
      "geometry": {
        "type": "Point",
        "coordinates": [
          -3.2194957957300425,
          55.94855248758411
        ]
      },
      "properties": {
        "stratum": "dynamic_elements",
        "transient_decluttering": "ENFORCED",
        "vehicles": "NONE",
        "pedestrians": "NONE",
        "transient_clutter": "STRIPPED",
        "permanent_civil_fabric": "PRESERVED"
      }
    },
    {
      "type": "Feature",
      "id": "stratum_7_atmospheric_state",
      "geometry": null,
      "properties": {
        "stratum": "atmospheric_state",
        "lighting_rig": "SOLAR_EPHEMERIS",
        "timestamp_utc": "2026-08-26T19:12:52.678991+00:00",
        "weather_state": "SUNNY",
        "temperature_c": 15.0,
        "solar_azimuth_deg": 252.16,
        "solar_elevation_deg": 0.85,
        "shadow_azimuth_deg": 72.2,
        "color_temperature_k": 2400,
        "ambient_illuminance_lux": 800
      }
    }
  ]
}