{
  "type": "FeatureCollection",
  "properties": {
    "address": "12 Charlotte Square, Edinburgh EH2 4ET, UK",
    "spatial_mode": "3D_TILES",
    "schema_version": "7-Strata-v2.0"
  },
  "features": [
    {
      "type": "Feature",
      "id": "stratum_1_observer_frame",
      "geometry": {
        "type": "Point",
        "coordinates": [
          -3.2072049700396352,
          55.951904957281435
        ]
      },
      "properties": {
        "stratum": "observer_frame",
        "spatial_mode": "3D_TILES",
        "camera": {
          "altitude_m_agl": 2.3,
          "pitch_deg": 3.8,
          "heading_deg": 244.4,
          "fov_deg": 60.0
        }
      }
    },
    {
      "type": "Feature",
      "id": "stratum_2_subterranean_geology",
      "geometry": {
        "type": "Point",
        "coordinates": [
          -3.2072049700396352,
          55.951904957281435
        ]
      },
      "properties": {
        "stratum": "subterranean_geology",
        "foundation_analysis": "Subterranean foundation composed of Lower Carboniferous sedimentary bedrock belonging to the Strathclyde Group, comprising interbedded blonde sandstones, carbonaceous siltstones, and mudstones overlain by dense glacial till. Primary architectural masonry sourced from local Craigleith and Hailes quarries: fine-to-medium-grained quartz-arenite sandstone with high silica content and carbonaceous laminations. Pedestal foundation blocks utilize polished Peterhead pink granite atop dressed Craigleith bedrock pads. Mortar matrices consist of traditional non-hydraulic lime binders blended with sharp, coarse quartz sands, showing localized modern repointing with natural hydraulic lime (NHL 2.0). Groundwater dynamics governed by shallow seasonal perched water tables beneath parkland topsoil."
      }
    },
    {
      "type": "Feature",
      "id": "stratum_3_ground_surface",
      "geometry": {
        "type": "Point",
        "coordinates": [
          -3.2072049700396352,
          55.951904957281435
        ]
      },
      "properties": {
        "stratum": "ground_surface",
        "primary_surfacing": "Engineered roadway and paved pedestrian curbs",
        "wear_characteristics": "Authentic environmental patina and drainage grading"
      }
    },
    {
      "type": "Feature",
      "id": "stratum_4_landscape_ecology",
      "geometry": {
        "type": "Point",
        "coordinates": [
          -3.2072049700396352,
          55.951904957281435
        ]
      },
      "properties": {
        "stratum": "landscape_ecology",
        "botanical_analysis": "Enclosed urban park lawn (*Lolium perenne*, *Festuca rubra*) showing winter dormancy. Deciduous canopy consisting of mature *Tilia \u00d7 europaea* (Common Lime), *Acer pseudoplatanus* (Sycamore), and *Platanus \u00d7 acerifolia* (London Plane). Phenology precisely aligned with late December (2026-12-22): 100% defoliation; bare, highly articulated branch architecture; dormant winter buds; dark, wet-barked trunks with localized epiphytic crustose lichens (*Lecanora*) and moss cushions (*Hypnum cupressiforme*) on prevailing weather flanks.",
        "foliage_rectification": "Disambiguated from masonry mesh"
      }
    },
    {
      "type": "Feature",
      "id": "stratum_5_built_environment",
      "geometry": {
        "type": "Point",
        "coordinates": [
          -3.2072049700396352,
          55.951904957281435
        ]
      },
      "properties": {
        "stratum": "built_environment",
        "architectural_summary": "Neoclassical urban ensemble comprising Robert Adam's uniform residential palace-front terraces (1791\u20131820) and Robert Reid\u2019s central West Register House (formerly St George's Church, 1811\u20131814). West Register House features a monumental centralized copper-clad dome on an arcaded drum with Corinthian pilasters, surmounting a rusticated ashlar base with an advanced tetrastyle Ionic portico and flanking pavilion wings. Flanking terraced townhouses adhere to strict symmetrical Georgian orders: rusticated ground-floor ashlar over sunken basements, smooth-dressed piano nobile with pedimented and molded architraves, second-storey square windows, and continuous balustraded parapets. Roofscapes feature pitched slate-clad timber rafters with lead-dressed dormers, chimney stacks with ceramic pots, and ashlar skew copings. Central park features the Prince Albert Memorial (1876, Sir John Steell): bronze equestrian monument atop an ornate stepped granite pedestal with secondary bronze allegorical relief groups at the corners.",
        "structures": [
          {
            "name": "Primary Facade",
            "storeys": 2,
            "height_m": 7.5,
            "roof_geometry": "pitched / parapet",
            "facade_material": "authentic regional masonry",
            "planar_rectification": "ENFORCED"
          }
        ]
      }
    },
    {
      "type": "Feature",
      "id": "stratum_6_dynamic_elements",
      "geometry": {
        "type": "Point",
        "coordinates": [
          -3.2072049700396352,
          55.951904957281435
        ]
      },
      "properties": {
        "stratum": "dynamic_elements",
        "transient_decluttering": "ENFORCED",
        "vehicles": "NONE",
        "pedestrians": "NONE",
        "transient_clutter": "STRIPPED",
        "permanent_civil_fabric": "PRESERVED"
      }
    },
    {
      "type": "Feature",
      "id": "stratum_7_atmospheric_state",
      "geometry": null,
      "properties": {
        "stratum": "atmospheric_state",
        "lighting_rig": "SOLAR_EPHEMERIS",
        "timestamp_utc": "2026-12-22T15:33:00+00:00",
        "weather_state": "SUNNY",
        "solar_azimuth_deg": 225.03,
        "solar_elevation_deg": -0.13,
        "shadow_azimuth_deg": null,
        "color_temperature_k": 2200,
        "ambient_illuminance_lux": 800
      }
    }
  ]
}