{
  "type": "FeatureCollection",
  "properties": {
    "address": "7 Ainslie Pl, Edinburgh EH3 6AS, UK",
    "spatial_mode": "3D_TILES",
    "schema_version": "7-Strata-v2.0"
  },
  "features": [
    {
      "type": "Feature",
      "id": "stratum_1_observer_frame",
      "geometry": {
        "type": "Point",
        "coordinates": [
          -3.2106998692080797,
          55.95361395987533
        ]
      },
      "properties": {
        "stratum": "observer_frame",
        "spatial_mode": "3D_TILES",
        "camera": {
          "altitude_m_agl": 1.4,
          "pitch_deg": -8.8,
          "heading_deg": 139.9,
          "fov_deg": 60.0
        }
      }
    },
    {
      "type": "Feature",
      "id": "stratum_2_subterranean_geology",
      "geometry": {
        "type": "Point",
        "coordinates": [
          -3.2106998692080797,
          55.95361395987533
        ]
      },
      "properties": {
        "stratum": "subterranean_geology",
        "foundation_analysis": "Bedrock: Carboniferous sedimentary strata of the Inverclyde and Strathclyde Groups, interbedded with Edinburgh Volcanic Complex basaltic intrusive sills.\nLithics: Primary load-bearing masonry composed of pale grey-blonde Craigleith and Hailes carboniferous quartz-arenite sandstone.\nMortar: Traditional hot-mixed calcitic lime mortar with local river-sand aggregate. Subterranean moisture buffered by glacial till deposits."
      }
    },
    {
      "type": "Feature",
      "id": "stratum_3_ground_surface",
      "geometry": {
        "type": "Point",
        "coordinates": [
          -3.2106998692080797,
          55.95361395987533
        ]
      },
      "properties": {
        "stratum": "ground_surface",
        "primary_surfacing": "Engineered roadway and paved pedestrian curbs",
        "wear_characteristics": "Authentic environmental patina and drainage grading"
      }
    },
    {
      "type": "Feature",
      "id": "stratum_4_landscape_ecology",
      "geometry": {
        "type": "Point",
        "coordinates": [
          -3.2106998692080797,
          55.95361395987533
        ]
      },
      "properties": {
        "stratum": "landscape_ecology",
        "botanical_analysis": "Species: Ainslie Place central garden featuring *Acer pseudoplatanus* (Sycamore), *Tilia \u00d7 europaea* (Common Lime), and *Ulmus glabra* (Wych Elm).\nPhenology (Late September): Fully expanded mature broadleaf canopies exhibiting early seasonal chlorosis; localized lime-green to pale ochre edge senescence with partial inner-canopy defoliation.",
        "foliage_rectification": "Disambiguated from masonry mesh"
      }
    },
    {
      "type": "Feature",
      "id": "stratum_5_built_environment",
      "geometry": {
        "type": "Point",
        "coordinates": [
          -3.2106998692080797,
          55.95361395987533
        ]
      },
      "properties": {
        "stratum": "built_environment",
        "architectural_summary": "Typology: 1820s Georgian neoclassical curved residential circus/terrace (Moray Estate, James Gillespie Graham design).\nMassing: Curvilinear 3-storey plus sunken basement and pitched attic dormers. Rusticated ground-floor arcading supporting polished ashlar upper levels with molded string courses and classical entablatures.\nFenestration & Geometry: Regular bays of plumb 6-over-6 and 2-over-2 timber sash-and-case windows. Planar-rectified vertical party walls, continuous stone copings, paired ashlar chimney stacks with clay pots. Neoclassical copper dome profile visible along distant roofline.",
        "structures": [
          {
            "name": "Primary Facade",
            "storeys": 2,
            "height_m": 7.5,
            "roof_geometry": "pitched / parapet",
            "facade_material": "authentic regional masonry",
            "planar_rectification": "ENFORCED"
          }
        ]
      }
    },
    {
      "type": "Feature",
      "id": "stratum_6_dynamic_elements",
      "geometry": {
        "type": "Point",
        "coordinates": [
          -3.2106998692080797,
          55.95361395987533
        ]
      },
      "properties": {
        "stratum": "dynamic_elements",
        "transient_decluttering": "ENFORCED",
        "vehicles": "NONE",
        "pedestrians": "NONE",
        "transient_clutter": "STRIPPED",
        "permanent_civil_fabric": "PRESERVED"
      }
    },
    {
      "type": "Feature",
      "id": "stratum_7_atmospheric_state",
      "geometry": null,
      "properties": {
        "stratum": "atmospheric_state",
        "lighting_rig": "SOLAR_EPHEMERIS",
        "timestamp_utc": "2026-09-24T13:03:00+00:00",
        "weather_state": "RAIN",
        "solar_azimuth_deg": 197.36,
        "solar_elevation_deg": 32.66,
        "shadow_azimuth_deg": null,
        "color_temperature_k": 5400,
        "ambient_illuminance_lux": 60000
      }
    }
  ]
}