{
  "type": "FeatureCollection",
  "properties": {
    "address": "43 St Andrew Sq, Edinburgh EH2 2AD, UK",
    "spatial_mode": "3D_TILES",
    "schema_version": "7-Strata-v2.0"
  },
  "features": [
    {
      "type": "Feature",
      "id": "stratum_1_observer_frame",
      "geometry": {
        "type": "Point",
        "coordinates": [
          -3.192528841505891,
          55.95533322769255
        ]
      },
      "properties": {
        "stratum": "observer_frame",
        "spatial_mode": "3D_TILES",
        "camera": {
          "altitude_m_agl": 56.6,
          "pitch_deg": -15.1,
          "heading_deg": 196.1,
          "fov_deg": 60.0
        }
      }
    },
    {
      "type": "Feature",
      "id": "stratum_2_subterranean_geology",
      "geometry": {
        "type": "Point",
        "coordinates": [
          -3.192528841505891,
          55.95533322769255
        ]
      },
      "properties": {
        "stratum": "subterranean_geology",
        "foundation_analysis": "Subterranean foundation consists of the Lower Carboniferous Strathclyde and Inverclyde Group sedimentary strata (interbedded sandstone, siltstone, and mudstone) intersected by the volcanic basalt neck of Castle Rock to the south. Primary masonry lithology is Carboniferous quartz arenite sandstone, historically sourced from Craigleith, Hailes, and Binny quarries. Surfacing lithics include Scottish whinstone (dolerite/basalt) and Peterhead granite setts, edged with Caithness flagstone kerbstones. Mortar chemistry across historic envelopes is traditional non-hydraulic to feebly hydraulic hot-mixed lime and graded quartz sand."
      }
    },
    {
      "type": "Feature",
      "id": "stratum_3_ground_surface",
      "geometry": {
        "type": "Point",
        "coordinates": [
          -3.192528841505891,
          55.95533322769255
        ]
      },
      "properties": {
        "stratum": "ground_surface",
        "primary_surfacing": "Engineered roadway and paved pedestrian curbs",
        "wear_characteristics": "Authentic environmental patina and drainage grading"
      }
    },
    {
      "type": "Feature",
      "id": "stratum_4_landscape_ecology",
      "geometry": {
        "type": "Point",
        "coordinates": [
          -3.192528841505891,
          55.95533322769255
        ]
      },
      "properties": {
        "stratum": "landscape_ecology",
        "botanical_analysis": "Urban public garden square populated by mature broadleaf trees:\n- *Platanus \u00d7 acerifolia* (London plane): high-branching columnar trunks with exfoliating bark plates, wide-spreading hemispherical crown architecture reaching 18\u201322 metres in height.\n- *Acer pseudoplatanus* (Sycamore): single stout boles dividing into dense, rounded, multi-stem structural canopies.\n- *Tilia cordata* (Small-leaved lime): upright trunks supporting narrow-to-ovate canopy frameworks positioned along the perimeter path alignments.\n- Ground cover: high-density *Poa pratensis* and *Lolium perenne* civic turf encircled by low stone kerbs and perimeter cast-iron balustrades.",
        "foliage_rectification": "Disambiguated from masonry mesh"
      }
    },
    {
      "type": "Feature",
      "id": "stratum_5_built_environment",
      "geometry": {
        "type": "Point",
        "coordinates": [
          -3.192528841505891,
          55.95533322769255
        ]
      },
      "properties": {
        "stratum": "built_environment",
        "architectural_summary": "Central focal structure is the Melville Monument: a 42.7-metre fluted sandstone Roman Doric column elevated on a tiered ashlar pedestal and square plinth, surmounted by a standing stone statue. \nSt Andrew Square perimeter comprises a continuous terrace of rectified four- to six-storey late Georgian, Victorian, and Edwardian commercial palazzi interspersed with late 20th and early 21st-century commercial infill:\n- Historic blocks: rusticated ground storeys, regular fenestration grids with 6-over-6 and 2-over-2 timber sash-and-case windows, projecting entablatures, modillioned cornices, classical pediments, and mansard slate roofs with dressed ashlar dormers.\n- Contemporary infill: rectilinear multi-storey curtain wall assemblies composed of structural steel mullions, bronze-anodized louvres, flat planar high-performance glass panes, and polished reconstituted stone rainscreen cladding panels.\n- Park structure: single-storey circular pavilion featuring curved structural glass walls and a low-pitch zinc-sheathed standing-seam roof.\n- Background ridge: the crag-and-tail silhouette of Castle Rock supporting Edinburgh Castle's rubble-built curtain walls, crenellated parapets, and the neo-Gothic spire of The Hub.",
        "structures": [
          {
            "name": "Primary Facade",
            "storeys": 2,
            "height_m": 7.5,
            "roof_geometry": "pitched / parapet",
            "facade_material": "authentic regional masonry",
            "planar_rectification": "ENFORCED"
          }
        ]
      }
    },
    {
      "type": "Feature",
      "id": "stratum_6_dynamic_elements",
      "geometry": {
        "type": "Point",
        "coordinates": [
          -3.192528841505891,
          55.95533322769255
        ]
      },
      "properties": {
        "stratum": "dynamic_elements",
        "transient_decluttering": "ENFORCED",
        "vehicles": "NONE",
        "pedestrians": "NONE",
        "transient_clutter": "STRIPPED",
        "permanent_civil_fabric": "PRESERVED"
      }
    },
    {
      "type": "Feature",
      "id": "stratum_7_atmospheric_state",
      "geometry": null,
      "properties": {
        "stratum": "atmospheric_state",
        "lighting_rig": "SOLAR_EPHEMERIS",
        "timestamp_utc": "2026-12-25T12:00:00+00:00",
        "weather_state": "OVERCAST",
        "solar_azimuth_deg": 177.09,
        "solar_elevation_deg": 10.6,
        "shadow_azimuth_deg": null,
        "color_temperature_k": 4500,
        "ambient_illuminance_lux": 35000
      }
    }
  ]
}