{
  "type": "FeatureCollection",
  "properties": {
    "address": "VXP6+69 Washington, DC, USA",
    "spatial_mode": "3D_TILES",
    "schema_version": "7-Strata-v2.0"
  },
  "features": [
    {
      "type": "Feature",
      "id": "stratum_1_observer_frame",
      "geometry": {
        "type": "Point",
        "coordinates": [
          -77.03910195986349,
          38.88552668163355
        ]
      },
      "properties": {
        "stratum": "observer_frame",
        "spatial_mode": "3D_TILES",
        "camera": {
          "altitude_m_agl": 87.7,
          "pitch_deg": -4.9,
          "heading_deg": 39.5,
          "fov_deg": 60.0
        }
      }
    },
    {
      "type": "Feature",
      "id": "stratum_2_subterranean_geology",
      "geometry": {
        "type": "Point",
        "coordinates": [
          -77.03910195986349,
          38.88552668163355
        ]
      },
      "properties": {
        "stratum": "subterranean_geology",
        "foundation_analysis": "The subterranean stratigraphy beneath the National Mall and Monument Grounds consists of Quaternary river terrace alluvium and saturated tidal silts overlying deeply buried crystalline metamorphic basement (Piedmont Province schist and gneiss). The massive 555-foot Washington Monument rests upon a reinforced concrete and Potomac bluestone gneiss underpinning. \n* **Primary Lithics (The Monument):** An unreinforced stone masonry obelisk comprising three distinct historical quarry layers:\n  1. Base (0\u2013152 ft): Coarse crystalline calcitic/dolomitic marble from the Texas quarry in Baltimore County, Maryland.\n  2. Transitional belt (~152\u2013160 ft): Distinct brownish-banded fine marble from Lee/Sheffield, Berkshire County, Massachusetts.\n  3. Upper shaft & pyramidion (160\u2013555 ft): Slightly grayer dolomitic marble quarried in Cockeysville, Baltimore County, Maryland, containing fine phlogopite mica traces.\n  * The structural backing consists of Devonian Mount Waldo coarse-grained biotite granite from Maine.\n* **Background Urban Fabric:** The Federal Triangle and Constitution Avenue monumental row are faced predominantly with Mississippian Bedford Indiana oolitic limestone, anchored with steel and reinforced concrete framing, capped with fired terracotta pantile roofs."
      }
    },
    {
      "type": "Feature",
      "id": "stratum_3_ground_surface",
      "geometry": {
        "type": "Point",
        "coordinates": [
          -77.03910195986349,
          38.88552668163355
        ]
      },
      "properties": {
        "stratum": "ground_surface",
        "primary_surfacing": "Engineered roadway and paved pedestrian curbs",
        "wear_characteristics": "Authentic environmental patina and drainage grading"
      }
    },
    {
      "type": "Feature",
      "id": "stratum_4_landscape_ecology",
      "geometry": {
        "type": "Point",
        "coordinates": [
          -77.03910195986349,
          38.88552668163355
        ]
      },
      "properties": {
        "stratum": "landscape_ecology",
        "botanical_analysis": "The grounds are dominated by the manicured turfgrass of the Washington Monument Grounds (*Poa pratensis* / *Festuca arundinacea*). Disambiguated mature deciduous urban tree canopies include:\n* American Elm (*Ulmus americana*) lining Constitution Avenue and the Mall paths.\n* London Plane Trees (*Platanus \u00d7 acerifolia*) and Pin Oaks (*Quercus palustris*) around the periphery of the knoll.\n* Red Maple (*Acer rubrum*) and Littleleaf Linden (*Tilia cordata*) clusters framing the surrounding park spaces.\n* Dense organic foliage with realistic layered branching, serrated green leaves, and natural leaf-shadow canopies completely free of polygonal artifacts.",
        "foliage_rectification": "Disambiguated from masonry mesh"
      }
    },
    {
      "type": "Feature",
      "id": "stratum_5_built_environment",
      "geometry": {
        "type": "Point",
        "coordinates": [
          -77.03910195986349,
          38.88552668163355
        ]
      },
      "properties": {
        "stratum": "built_environment",
        "architectural_summary": "* **Center (Washington Monument):** Pure Egyptian-revival monumental obelisk measuring 554 ft 7 in (169.05 m) in height, with a 55 ft base tapering smoothly to a 34 ft pyramidion base capped by an apex pyramidion. Photogrammetry-induced geometric wobble is rectified: all four corner edges are plumbed to absolute straight linear convergence, with smooth planar ashlar joints. Surrounding the circular marble plaza is a formal ring of 50 vertical stainless steel flagpoles.\n* **Flanking Right / Mid-Ground (NMAAHC):** The National Museum of African American History and Culture\u2014a 5-storey tiered inverted corona structure enveloped in a bronze-colored architectural lattice/scrim made of cast aluminum panels over dark vision glazing.\n* **Background (Federal Triangle & Constitution Avenue North Facades):** \n  - Herbert C. Hoover Building (Department of Commerce): 7-storey Neoclassical/Beaux-Arts palazzo massing with massive Doric/Ionic colonnades, deep window reveals, and low-pitch hipped red terracotta tile roofs.\n  - Ronald Reagan Building & International Trade Center: 8-storey modern limestone Neoclassical volume with crisp unadorned cornice lines and stepped pavilions.\n  - Department of the Interior / GSA buildings and distant monumental domes along Constitution and Pennsylvania Avenues.\n  * All vertical facades across the frame are plumbed perpendicular to gravity, planar wall surfaces flattened, and rooflines straightened.",
        "structures": [
          {
            "name": "Primary Facade",
            "storeys": 2,
            "height_m": 7.5,
            "roof_geometry": "pitched / parapet",
            "facade_material": "authentic regional masonry",
            "planar_rectification": "ENFORCED"
          }
        ]
      }
    },
    {
      "type": "Feature",
      "id": "stratum_6_dynamic_elements",
      "geometry": {
        "type": "Point",
        "coordinates": [
          -77.03910195986349,
          38.88552668163355
        ]
      },
      "properties": {
        "stratum": "dynamic_elements",
        "transient_decluttering": "ENFORCED",
        "vehicles": "NONE",
        "pedestrians": "NONE",
        "transient_clutter": "STRIPPED",
        "permanent_civil_fabric": "PRESERVED"
      }
    },
    {
      "type": "Feature",
      "id": "stratum_7_atmospheric_state",
      "geometry": null,
      "properties": {
        "stratum": "atmospheric_state",
        "lighting_rig": "SOLAR_EPHEMERIS",
        "timestamp_utc": "2026-08-26T12:13:09.384470+00:00",
        "weather_state": "SUNNY",
        "temperature_c": 15.0,
        "solar_azimuth_deg": 88.64,
        "solar_elevation_deg": 18.86,
        "shadow_azimuth_deg": 268.6,
        "color_temperature_k": 4500,
        "ambient_illuminance_lux": 35000
      }
    }
  ]
}