{
  "type": "FeatureCollection",
  "properties": {
    "address": "17 Charlotte Square, Edinburgh EH2 4DJ, UK",
    "spatial_mode": "3D_TILES",
    "schema_version": "7-Strata-v2.0"
  },
  "features": [
    {
      "type": "Feature",
      "id": "stratum_1_observer_frame",
      "geometry": {
        "type": "Point",
        "coordinates": [
          -3.206784589026718,
          55.95176812129627
        ]
      },
      "properties": {
        "stratum": "observer_frame",
        "spatial_mode": "3D_TILES",
        "camera": {
          "altitude_m_agl": 1.2,
          "pitch_deg": 6.1,
          "heading_deg": 265.3,
          "fov_deg": 60.0
        }
      }
    },
    {
      "type": "Feature",
      "id": "stratum_2_subterranean_geology",
      "geometry": {
        "type": "Point",
        "coordinates": [
          -3.206784589026718,
          55.95176812129627
        ]
      },
      "properties": {
        "stratum": "subterranean_geology",
        "foundation_analysis": "- Bedrock: Carboniferous sedimentary strata (Gullane Formation / Lower Oil-Shale Group) comprising intercalated sandstones, siltstones, and mudstones underlying the Edinburgh New Town plateau.\n- Masonry Lithics: Pale cream-to-buff, fine-to-medium grained Carboniferous quartz-arenite sandstone quarried predominantly from Craigleith Quarry (distinguished by high silica matrix and structural longevity), supplemented with darker laminated sandstone from Hailes Quarry.\n- Memorial Plinth: Polished igneous pink Peterhead granite base with dressed Carboniferous freestone footing.\n- Mortar & Foundations: Historic non-hydraulic slaked lime mortars compounded with sharp crushed quartz sand; dry-laid rubble foundation footings bearing directly onto dense glacial till over sedimentary bedrock."
      }
    },
    {
      "type": "Feature",
      "id": "stratum_3_ground_surface",
      "geometry": {
        "type": "Point",
        "coordinates": [
          -3.206784589026718,
          55.95176812129627
        ]
      },
      "properties": {
        "stratum": "ground_surface",
        "primary_surfacing": "Engineered roadway and paved pedestrian curbs",
        "wear_characteristics": "Authentic environmental patina and drainage grading"
      }
    },
    {
      "type": "Feature",
      "id": "stratum_4_landscape_ecology",
      "geometry": {
        "type": "Point",
        "coordinates": [
          -3.206784589026718,
          55.95176812129627
        ]
      },
      "properties": {
        "stratum": "landscape_ecology",
        "botanical_analysis": "- Temporal Target: 23 September (Early Autumn).\n- Species Composition: *Acer pseudoplatanus* (Sycamore), *Tilia \u00d7 europaea* (Common Lime), *Aesculus hippocastanum* (Horse Chestnut), and *Betula pendula* (Silver Birch).\n- Canopy Phenology: Dense, high-volume mature canopies entering early autumn senescence; *Tilia \u00d7 europaea* displaying pale yellow marginal chlorosis; *Aesculus hippocastanum* showing localized leaf-edge browning and early leaflet shedding; *Acer pseudoplatanus* retaining predominantly dark green foliage with sparse yellow spotting; *Betula pendula* exhibiting delicate drooping branches with early golden-flecked leaves.",
        "foliage_rectification": "Disambiguated from masonry mesh"
      }
    },
    {
      "type": "Feature",
      "id": "stratum_5_built_environment",
      "geometry": {
        "type": "Point",
        "coordinates": [
          -3.206784589026718,
          55.95176812129627
        ]
      },
      "properties": {
        "stratum": "built_environment",
        "architectural_summary": "- West Register House (Former St George's Church): Neoclassical monumental civic architecture designed by Robert Reid (adapting Robert Adam's 1791 scheme); dominant central copper-sheathed dome over a drum surrounded by a Corinthian colonnade, surmounting a rusticated ground floor with a colossal tetrastyle portico carrying a full classical entablature and triangular pediment.\n- Residential Perimeter: Robert Adam designed Neoclassical unified palace-front terraces; 3-storey plus attic and rusticated basement configurations; symmetrical terminal and central pavilions with attached Corinthian/Ionic pilasters; Scottish Ballachulish slate mansard and pitched roof planes; aligned ashlar chimney stacks with terracotta pots; 6-over-6 and 12-pane timber sash-and-case fenestration grids.\n- Monument: Central Neo-Renaissance Prince Albert Memorial equestrian statue elevated on a stepped architectural pedestal with flanking subsidiary bronze sculptural groups.\n- Rectification: True-plumb vertical facade walls and portico columns; planar alignment of terrace rustication and entablatures; complete restoration of the circular drum and hemispherical dome geometry against photogrammetric mesh distortion.",
        "structures": [
          {
            "name": "Primary Facade",
            "storeys": 2,
            "height_m": 7.5,
            "roof_geometry": "pitched / parapet",
            "facade_material": "authentic regional masonry",
            "planar_rectification": "ENFORCED"
          }
        ]
      }
    },
    {
      "type": "Feature",
      "id": "stratum_6_dynamic_elements",
      "geometry": {
        "type": "Point",
        "coordinates": [
          -3.206784589026718,
          55.95176812129627
        ]
      },
      "properties": {
        "stratum": "dynamic_elements",
        "transient_decluttering": "ENFORCED",
        "vehicles": "NONE",
        "pedestrians": "NONE",
        "transient_clutter": "STRIPPED",
        "permanent_civil_fabric": "PRESERVED"
      }
    },
    {
      "type": "Feature",
      "id": "stratum_7_atmospheric_state",
      "geometry": null,
      "properties": {
        "stratum": "atmospheric_state",
        "lighting_rig": "SOLAR_EPHEMERIS",
        "timestamp_utc": "2026-09-23T16:03:00+00:00",
        "weather_state": "SUNNY",
        "solar_azimuth_deg": 244.05,
        "solar_elevation_deg": 16.68,
        "shadow_azimuth_deg": 64.1,
        "color_temperature_k": 4500,
        "ambient_illuminance_lux": 35000
      }
    }
  ]
}