{
  "type": "FeatureCollection",
  "properties": {
    "address": "13 E Basin Dr SW, Washington, DC 20004, USA",
    "spatial_mode": "3D_TILES",
    "schema_version": "7-Strata-v2.0"
  },
  "features": [
    {
      "type": "Feature",
      "id": "stratum_1_observer_frame",
      "geometry": {
        "type": "Point",
        "coordinates": [
          -77.03684387523569,
          38.879191611053294
        ]
      },
      "properties": {
        "stratum": "observer_frame",
        "spatial_mode": "3D_TILES",
        "camera": {
          "altitude_m_agl": 58.0,
          "pitch_deg": -12.1,
          "heading_deg": 5.0,
          "fov_deg": 60.0
        }
      }
    },
    {
      "type": "Feature",
      "id": "stratum_2_subterranean_geology",
      "geometry": {
        "type": "Point",
        "coordinates": [
          -77.03684387523569,
          38.879191611053294
        ]
      },
      "properties": {
        "stratum": "subterranean_geology",
        "foundation_analysis": "The subterranean stratum beneath the Thomas Jefferson Memorial consists of Potomac River alluvial floodplain deposits and late 19th-century hydraulic dredge fill (silt, fine sand, and organic mud) resting directly above weathered crystalline Piedmont metamorphic bedrock. The memorial\u2019s superstructure is founded on reinforced concrete caissons driven through the unstable fill layers to anchor into solid bedrock. Exterior masonry consists of dense, crystalline Vermont Imperial Danby white marble set above a granite sub-base and terrace retaining wall system. Non-hydraulic, Portland-lime mortar forms tight ashlar joints. Surrounding hydrology is governed by the high water table and semi-diurnal tidal oscillations of the Potomac River via the adjacent Tidal Basin reservoir, which exerts hydrostatic pressure and promotes persistent moisture intrusion at the perimeter riprap and seawall interface."
      }
    },
    {
      "type": "Feature",
      "id": "stratum_3_ground_surface",
      "geometry": {
        "type": "Point",
        "coordinates": [
          -77.03684387523569,
          38.879191611053294
        ]
      },
      "properties": {
        "stratum": "ground_surface",
        "primary_surfacing": "Engineered roadway and paved pedestrian curbs",
        "wear_characteristics": "Authentic environmental patina and drainage grading"
      }
    },
    {
      "type": "Feature",
      "id": "stratum_4_landscape_ecology",
      "geometry": {
        "type": "Point",
        "coordinates": [
          -77.03684387523569,
          38.879191611053294
        ]
      },
      "properties": {
        "stratum": "landscape_ecology",
        "botanical_analysis": "The perimeter landscape is dominated by mature Prunus serrulata (Yoshino cherry trees) with broad, branching leafy canopies and dark fissured bark lining the curvilinear shoreline of the Tidal Basin. The surrounding memorial grounds feature dense groves of Quercus alba (White oak), Acer rubrum (Red maple), Platanus occidentalis (American sycamore), and well-kept turf grass (Kentucky bluegrass and fescue blend) interrupted by low Taxus baccata (Yew) hedges and perimeter shrub beds. All tree canopies display individual branch structures and dense organic leaf clusters.",
        "foliage_rectification": "Disambiguated from masonry mesh"
      }
    },
    {
      "type": "Feature",
      "id": "stratum_5_built_environment",
      "geometry": {
        "type": "Point",
        "coordinates": [
          -77.03684387523569,
          38.879191611053294
        ]
      },
      "properties": {
        "stratum": "built_environment",
        "architectural_summary": "The central monument is a Neoclassical pantheon-style circular rotunda designed by John Russell Pope, dedicated in 1943. The circular structure features a single main level (equivalent to an open rotunda volume approximately 28 m / 92 ft high) surrounded by an exterior peristyle ring of circular fluted Ionic marble columns, topped by an entablature and a low stepped saucer dome. The northern entrance consists of a formal octastyle portico with a triangular pediment oriented northward across the Tidal Basin toward the White House and Washington Monument. The base comprises concentric stepped circular terraces and granite podiums. All cylindrical vertical columns, wall planes, and the distant obelisk (the 169-meter Washington Monument) are strictly plumbed along true gravitational verticals. The Federal Triangle and downtown D.C. administrative blocks in the far background form rectified horizontal roofline bands.",
        "structures": [
          {
            "name": "Primary Facade",
            "storeys": 2,
            "height_m": 7.5,
            "roof_geometry": "pitched / parapet",
            "facade_material": "authentic regional masonry",
            "planar_rectification": "ENFORCED"
          }
        ]
      }
    },
    {
      "type": "Feature",
      "id": "stratum_6_dynamic_elements",
      "geometry": {
        "type": "Point",
        "coordinates": [
          -77.03684387523569,
          38.879191611053294
        ]
      },
      "properties": {
        "stratum": "dynamic_elements",
        "transient_decluttering": "ENFORCED",
        "vehicles": "NONE",
        "pedestrians": "NONE",
        "transient_clutter": "STRIPPED",
        "permanent_civil_fabric": "PRESERVED"
      }
    },
    {
      "type": "Feature",
      "id": "stratum_7_atmospheric_state",
      "geometry": null,
      "properties": {
        "stratum": "atmospheric_state",
        "lighting_rig": "SOLAR_EPHEMERIS",
        "timestamp_utc": "2026-08-27T22:08:08.842530+00:00",
        "weather_state": "SUNNY",
        "temperature_c": 15.0,
        "solar_azimuth_deg": 271.62,
        "solar_elevation_deg": 18.38,
        "shadow_azimuth_deg": 91.6,
        "color_temperature_k": 4500,
        "ambient_illuminance_lux": 35000
      }
    }
  ]
}