{
  "type": "FeatureCollection",
  "properties": {
    "address": "21 Ainslie Pl, Edinburgh EH3 6AJ, UK",
    "spatial_mode": "3D_TILES",
    "schema_version": "7-Strata-v2.0"
  },
  "features": [
    {
      "type": "Feature",
      "id": "stratum_1_observer_frame",
      "geometry": {
        "type": "Point",
        "coordinates": [
          -3.2101054751889797,
          55.9533760228848
        ]
      },
      "properties": {
        "stratum": "observer_frame",
        "spatial_mode": "3D_TILES",
        "camera": {
          "altitude_m_agl": 3.0,
          "pitch_deg": -2.6,
          "heading_deg": 309.9,
          "fov_deg": 60.0
        }
      }
    },
    {
      "type": "Feature",
      "id": "stratum_2_subterranean_geology",
      "geometry": {
        "type": "Point",
        "coordinates": [
          -3.2101054751889797,
          55.9533760228848
        ]
      },
      "properties": {
        "stratum": "subterranean_geology",
        "foundation_analysis": "- Bedrock: Carboniferous sedimentary sequences of the Strathclyde and Inverclyde Groups, primarily cross-bedded fluvial sandstone, siltstone, and grey mudstone under consolidated glacial till.\n- Lithic Fabric: Premium-grade pale buff to golden-grey quartzitic Carboniferous sandstone, principally sourced from Craigleith Quarry with secondary contributions from Hailes Quarry.\n- Mortar & Foundations: Traditional non-hydraulic to weakly hydraulic hot-mixed slaked lime and coarse river sand mortars, resting on continuous stepped sandstone rubble footings into glacial drift.\n- Groundwater & Drainage: Sloping subterranean run-off directed northwest toward the Water of Leith gorge, managed through subsurface flagstone culverts and drained sunken basement lightwells."
      }
    },
    {
      "type": "Feature",
      "id": "stratum_3_ground_surface",
      "geometry": {
        "type": "Point",
        "coordinates": [
          -3.2101054751889797,
          55.9533760228848
        ]
      },
      "properties": {
        "stratum": "ground_surface",
        "primary_surfacing": "Engineered roadway and paved pedestrian curbs",
        "wear_characteristics": "Authentic environmental patina and drainage grading"
      }
    },
    {
      "type": "Feature",
      "id": "stratum_4_landscape_ecology",
      "geometry": {
        "type": "Point",
        "coordinates": [
          -3.2101054751889797,
          55.9533760228848
        ]
      },
      "properties": {
        "stratum": "landscape_ecology",
        "botanical_analysis": "- Botanical Classification: *Platanus \u00d7 acerifolia* (London plane) and *Acer pseudoplatanus* (Sycamore) dominating the enclosed communal gardens of Ainslie Place.\n- Canopy & Phenology (September 3): Fully developed, dense late-summer canopies with heavy foliage volume; deep matte olive-green leaves exhibiting subtle onset of early autumnal edge-chlorosis and scattered yellowing, with intact dense crown profiles.",
        "foliage_rectification": "Disambiguated from masonry mesh"
      }
    },
    {
      "type": "Feature",
      "id": "stratum_5_built_environment",
      "geometry": {
        "type": "Point",
        "coordinates": [
          -3.2101054751889797,
          55.9533760228848
        ]
      },
      "properties": {
        "stratum": "built_environment",
        "architectural_summary": "- Typology: Late Georgian / Regency Neoclassical palatial crescent terrace, forming the south-western crescent of Ainslie Place (Moray Estate master plan by James Gillespie Graham, c. 1822\u20131824).\n- Massing & Storeys: Monumental 3-storey plus sunken basement and attic storey block with continuous horizontal continuity. Rectilinear vertical plumb lines spanning an elliptical curved street sweep.\n- Facade Rectification: Planar vertical rectification applied across the curving frontage. Deeply rusticated and channelled ground-floor ashlar base supporting smooth droved and polished ashlar on upper storeys.\n- Fenestration Grid: Semicircular radiating fanlights over panelled timber entrance doors within round-arched recesses on the ground floor; regular grid of 6-over-6 and 2-over-2 double-hung timber sash-and-case windows above; first-floor piano nobile apertures trimmed with moulded architraves, console brackets, and individual cornices.\n- Roof & Parapet: Low-pitch Welsh slate hipped and pitched roofs concealed behind continuous moulded entablature, dentilled stone cornice, and blocking parapets punctuated by massive shared ashlar chimney stacks with terracotta pots.",
        "structures": [
          {
            "name": "Primary Facade",
            "storeys": 2,
            "height_m": 7.5,
            "roof_geometry": "pitched / parapet",
            "facade_material": "authentic regional masonry",
            "planar_rectification": "ENFORCED"
          }
        ]
      }
    },
    {
      "type": "Feature",
      "id": "stratum_6_dynamic_elements",
      "geometry": {
        "type": "Point",
        "coordinates": [
          -3.2101054751889797,
          55.9533760228848
        ]
      },
      "properties": {
        "stratum": "dynamic_elements",
        "transient_decluttering": "ENFORCED",
        "vehicles": "NONE",
        "pedestrians": "NONE",
        "transient_clutter": "STRIPPED",
        "permanent_civil_fabric": "PRESERVED"
      }
    },
    {
      "type": "Feature",
      "id": "stratum_7_atmospheric_state",
      "geometry": null,
      "properties": {
        "stratum": "atmospheric_state",
        "lighting_rig": "SOLAR_EPHEMERIS",
        "timestamp_utc": "2026-09-03T14:00:00+00:00",
        "weather_state": "SUNNY",
        "solar_azimuth_deg": 214.31,
        "solar_elevation_deg": 37.41,
        "shadow_azimuth_deg": 34.3,
        "color_temperature_k": 5400,
        "ambient_illuminance_lux": 60000
      }
    }
  ]
}