{
  "type": "FeatureCollection",
  "properties": {
    "address": "1540 Maine Ave SW, Washington, DC 20004, USA",
    "spatial_mode": "3D_TILES",
    "schema_version": "7-Strata-v2.0"
  },
  "features": [
    {
      "type": "Feature",
      "id": "stratum_1_observer_frame",
      "geometry": {
        "type": "Point",
        "coordinates": [
          -77.03559071302307,
          38.885926550116366
        ]
      },
      "properties": {
        "stratum": "observer_frame",
        "spatial_mode": "3D_TILES",
        "camera": {
          "altitude_m_agl": 418.4,
          "pitch_deg": -46.3,
          "heading_deg": 4.9,
          "fov_deg": 60.0
        }
      }
    },
    {
      "type": "Feature",
      "id": "stratum_2_subterranean_geology",
      "geometry": {
        "type": "Point",
        "coordinates": [
          -77.03559071302307,
          38.885926550116366
        ]
      },
      "properties": {
        "stratum": "subterranean_geology",
        "foundation_analysis": "The Washington Monument grounds occupy the transition zone between the Piedmont Province and the Atlantic Coastal Plain, situated atop Quaternary alluvium, river terrace gravels, and clays of the Potomac Formation resting on deep crystalline Precambrian-to-Paleozoic metamorphic bedrock (schist and gneiss). Due to original settlement issues, the obelisk rests upon an engineered underpinning of bluestone gneiss aggregate and mass concrete installed by the U.S. Army Corps of Engineers.\n\nThe obelisk\u2019s exterior ashlar comprises three distinct lithological strata:\n1. **Lower 152 feet (Phase I, 1848\u20131854):** Coarse-grained calcitic marble quarried from the Texas Quarry in Baltimore County, Maryland.\n2. **Intermediate beltline:** Four courses of fine-grained Early Ordovician Stockbridge/Sheffield calcitic marble from Lee/Sheffield, Berkshire County, Massachusetts.\n3. **Upper 390+ feet (Phase II, 1879\u20131884):** Fine-grained dolomitic Cockeysville Marble containing phlogopite mica from Cockeysville, Maryland, backed with Devonian biotite granite from Mount Waldo, Maine.\n\nThe surrounding plaza incorporates dense, fine-grained grey granites and *Mesabi Black* gabbroic/noritic granite paving. Subterranean drainage dynamics are managed through perimeter deep-well storm collection discharging toward the Tidal Basin and Potomac River."
      }
    },
    {
      "type": "Feature",
      "id": "stratum_3_ground_surface",
      "geometry": {
        "type": "Point",
        "coordinates": [
          -77.03559071302307,
          38.885926550116366
        ]
      },
      "properties": {
        "stratum": "ground_surface",
        "primary_surfacing": "Engineered roadway and paved pedestrian curbs",
        "wear_characteristics": "Authentic environmental patina and drainage grading"
      }
    },
    {
      "type": "Feature",
      "id": "stratum_4_landscape_ecology",
      "geometry": {
        "type": "Point",
        "coordinates": [
          -77.03559071302307,
          38.885926550116366
        ]
      },
      "properties": {
        "stratum": "landscape_ecology",
        "botanical_analysis": "- **Canopy Trees:** Mature stands of American elm (*Ulmus americana*), London plane (*Platanus occidentalis \u00d7 orientalis*), northern red oak (*Quercus rubra*), white oak (*Quercus alba*), and sweetgum (*Liquidambar styraciflua*) framing the perimeter of the Monument grounds and flanking Constitution Avenue. Canopies are fully foliage-dense, featuring natural branching structures, deciduous leaf texture, and organic root flare zones.\n- **Ground Cover:** Uniformly graded, aerated Kentucky bluegrass (*Poa pratensis*) and tall fescue (*Festuca arundinacea*) turfgrass marked by crisp radial mowing lines, devoid of photogrammetric mesh distortion.",
        "foliage_rectification": "Disambiguated from masonry mesh"
      }
    },
    {
      "type": "Feature",
      "id": "stratum_5_built_environment",
      "geometry": {
        "type": "Point",
        "coordinates": [
          -77.03559071302307,
          38.885926550116366
        ]
      },
      "properties": {
        "stratum": "built_environment",
        "architectural_summary": "- **Centerpiece (Washington Monument):** Pure unreinforced stone masonry obelisk designed by Robert Mills, executed and structurally refined to a height of 554 ft 7 11/32 in (169.05 m) with a 10:1 height-to-base proportion. The shaft tapers continuously to a 55-foot pyramidal apex (pyramidion) capped with an aluminum point. Vertical load-bearing lines are plumb, and corners maintain crisp 90-degree planar convergence.\n- **Plaza & Hardscape:** Symmetrical concentric circular granite security barrier walls and pedestrian aprons encompassing 56 ringed steel flagpoles, intersected by curved, geometric decomposed granite/gravel pedestrian pathways cutting through manicured lawn turf.\n- **Right Flank (National Museum of African American History and Culture):** Designed by Freelon Adjaye Bond / SmithGroup, massed as a 5-storey above-grade, 3-tiered inverted step pyramid (\"Corona\") inspired by the Yoruban Caryatid, cantilevering outward at a 17-degree angle that matches the monument's pyramidion. \n- **North / Northeast Perimeter (Federal Triangle / National Museum of American History):** Strict monumental Neoclassical and Modernist civic massing, defined by multi-storey colonnaded limestone volumes, crisp horizontal parapets, and recessed rooftop mechanical enclosures.",
        "structures": [
          {
            "name": "Primary Facade",
            "storeys": 2,
            "height_m": 7.5,
            "roof_geometry": "pitched / parapet",
            "facade_material": "authentic regional masonry",
            "planar_rectification": "ENFORCED"
          }
        ]
      }
    },
    {
      "type": "Feature",
      "id": "stratum_6_dynamic_elements",
      "geometry": {
        "type": "Point",
        "coordinates": [
          -77.03559071302307,
          38.885926550116366
        ]
      },
      "properties": {
        "stratum": "dynamic_elements",
        "transient_decluttering": "ENFORCED",
        "vehicles": "NONE",
        "pedestrians": "NONE",
        "transient_clutter": "STRIPPED",
        "permanent_civil_fabric": "PRESERVED"
      }
    },
    {
      "type": "Feature",
      "id": "stratum_7_atmospheric_state",
      "geometry": null,
      "properties": {
        "stratum": "atmospheric_state",
        "lighting_rig": "SOLAR_EPHEMERIS",
        "timestamp_utc": "2026-08-26T23:53:08.541771+00:00",
        "weather_state": "SUNNY",
        "temperature_c": 15.0,
        "solar_azimuth_deg": 255.1,
        "solar_elevation_deg": -1.6,
        "shadow_azimuth_deg": 75.1,
        "color_temperature_k": 2400,
        "ambient_illuminance_lux": 800
      }
    }
  ]
}