{
  "type": "FeatureCollection",
  "properties": {
    "address": "VXP5+5X Washington, DC, USA",
    "spatial_mode": "3D_TILES",
    "schema_version": "7-Strata-v2.0"
  },
  "features": [
    {
      "type": "Feature",
      "id": "stratum_1_observer_frame",
      "geometry": {
        "type": "Point",
        "coordinates": [
          -77.04007856363557,
          38.88543858587802
        ]
      },
      "properties": {
        "stratum": "observer_frame",
        "spatial_mode": "3D_TILES",
        "camera": {
          "altitude_m_agl": 84.2,
          "pitch_deg": -4.3,
          "heading_deg": 41.2,
          "fov_deg": 60.0
        }
      }
    },
    {
      "type": "Feature",
      "id": "stratum_2_subterranean_geology",
      "geometry": {
        "type": "Point",
        "coordinates": [
          -77.04007856363557,
          38.88543858587802
        ]
      },
      "properties": {
        "stratum": "subterranean_geology",
        "foundation_analysis": "- **Subterranean Foundation**: Sited within the Atlantic Fall Line transition zone over alluvial and terrace deposits of the Potomac Formation, underlain at depth by Precambrian-to-Early Paleozoic metamorphic crystalline bedrock (Piedmont Province schists, bluestone gneiss, and Sykesville Formation meta-greywacke/granite gneiss).\n- **Monument Masonry & Lithics**:\n  - *Lower Shaft (up to ~152 ft / 46.3 m)*: Coarse-grained, high-calcite white marble quarried from Texas, Maryland.\n  - *Mid-to-Upper Shaft & Pyramidion*: Fine-grained dolomitic white marble quarried from Beaver Dam / Cockeysville, Maryland, with intermittent courses of Massachusetts Sheffield marble.\n  - *Sub-foundation & Inner Core*: Massive unreinforced Sykesville metamorphic gneiss, Potomac River bluestone, and Maine granite infill blocks bound by hydraulic lime and early Portland cements.\n- **Urban Facade Lithics (Midground/Background)**: Salem/Bedford oolitic limestone from Indiana across the Federal Triangle complexes (Herbert C. Hoover Building, Ronald Reagan Building, EPA/Ariel Rios buildings), backed with structural brick and steel framing; low-iron granite curbstones along thoroughfares.\n- **Hydrology**: High water table associated with the reclaimed marshlands of the historic Tiber Creek and Potomac tidal flats, controlled via integrated sub-surface drainage sumps and deep perimeter curtain walls."
      }
    },
    {
      "type": "Feature",
      "id": "stratum_3_ground_surface",
      "geometry": {
        "type": "Point",
        "coordinates": [
          -77.04007856363557,
          38.88543858587802
        ]
      },
      "properties": {
        "stratum": "ground_surface",
        "primary_surfacing": "Engineered roadway and paved pedestrian curbs",
        "wear_characteristics": "Authentic environmental patina and drainage grading"
      }
    },
    {
      "type": "Feature",
      "id": "stratum_4_landscape_ecology",
      "geometry": {
        "type": "Point",
        "coordinates": [
          -77.04007856363557,
          38.88543858587802
        ]
      },
      "properties": {
        "stratum": "landscape_ecology",
        "botanical_analysis": "- **Canopy Disambiguation**: Trees and vegetative masses are strictly differentiated from surrounding masonry and turf:\n  - Mature *Quercus phellos* (Willow Oak) and *Quercus alba* (White Oak) forming dense, leafy horizontal crowns with distinct trunk-and-branch architecture along the edges of the Mall grounds.\n  - Stately *Ulmus americana* (American Elm) lines bordering Constitution Avenue and peripheral parkways with characteristic high vase-shaped canopies.\n  - Interspersed groupings of *Prunus serrulata* (Yoshino Cherry) and *Tilia cordata* (Littleleaf Linden) with individual multi-layered foliage clumps.\n- **Groundcover**: Manicured, continuous cool-season turfgrass (*Festuca arundinacea* / Tall Fescue and Kentucky Bluegrass blend) across the Washington Monument knoll, exhibiting subtle mowing striations and natural topographical contouring.",
        "foliage_rectification": "Disambiguated from masonry mesh"
      }
    },
    {
      "type": "Feature",
      "id": "stratum_5_built_environment",
      "geometry": {
        "type": "Point",
        "coordinates": [
          -77.04007856363557,
          38.88543858587802
        ]
      },
      "properties": {
        "stratum": "built_environment",
        "architectural_summary": "- **The Washington Monument (Center)**:\n  - Free-standing Egyptian-revival monumental obelisk measuring 554 ft 7+11/32 in (169.046 m) in absolute height, tapering smoothly upward to a pyramidal apex (pyramidion) capped with cast aluminum.\n  - Rectified strictly to true plumb vertical; planarized 4-sided geometry without photogrammetric faceted polygon warp or surface mesh distortion.\n  - Sits centered atop an elliptical graded earthen knoll surrounded by a circular granite-paved plaza and fifty evenly spaced perimeter flagpoles.\n- **Federal Triangle & Downtown DC Fabric (Flanking/Background)**:\n  - *Federal Triangle (Right/Mid-ground)*: Unified monumental Neoclassical and Beaux-Arts administrative massing. Consistent 6-to-7 storey street walls (~80\u2013110 ft / 24\u201333 m streetwall height) with deep-set rusticated arcades, colonnaded loggias, continuous dentiled classical entablatures, and pitched hipped roofs surfaced in variegated terracotta barrel tiles.\n  - *Downtown Core (Far Left/Upper Background)*: Strictly height-regulated (1910 Height of Buildings Act, 90\u2013130 ft max) commercial and institutional mid-rises with flat parapets, mechanical penthouses, and punched-opening fenestration.\n  - *Planar Alignment*: All rectilinear facades, fenestration bands, roof cornices, and street axes (Constitution Ave, 14th/15th/17th Streets) are fully plumbed and horizontally trued to planar architectural geometry.",
        "structures": [
          {
            "name": "Primary Facade",
            "storeys": 2,
            "height_m": 7.5,
            "roof_geometry": "pitched / parapet",
            "facade_material": "authentic regional masonry",
            "planar_rectification": "ENFORCED"
          }
        ]
      }
    },
    {
      "type": "Feature",
      "id": "stratum_6_dynamic_elements",
      "geometry": {
        "type": "Point",
        "coordinates": [
          -77.04007856363557,
          38.88543858587802
        ]
      },
      "properties": {
        "stratum": "dynamic_elements",
        "transient_decluttering": "ENFORCED",
        "vehicles": "NONE",
        "pedestrians": "NONE",
        "transient_clutter": "STRIPPED",
        "permanent_civil_fabric": "PRESERVED"
      }
    },
    {
      "type": "Feature",
      "id": "stratum_7_atmospheric_state",
      "geometry": null,
      "properties": {
        "stratum": "atmospheric_state",
        "lighting_rig": "SOLAR_EPHEMERIS",
        "timestamp_utc": "2026-08-26T06:32:00+00:00",
        "weather_state": "SUNNY",
        "temperature_c": 30.5,
        "solar_azimuth_deg": 154.69,
        "solar_elevation_deg": -36.83,
        "shadow_azimuth_deg": 334.7,
        "color_temperature_k": 2000,
        "ambient_illuminance_lux": 5
      }
    }
  ]
}