{
  "type": "FeatureCollection",
  "properties": {
    "address": "17 Charlotte Square, Edinburgh EH2 4DJ, UK",
    "spatial_mode": "3D_TILES",
    "schema_version": "7-Strata-v2.0"
  },
  "features": [
    {
      "type": "Feature",
      "id": "stratum_1_observer_frame",
      "geometry": {
        "type": "Point",
        "coordinates": [
          -3.2088392533288927,
          55.95226390586746
        ]
      },
      "properties": {
        "stratum": "observer_frame",
        "spatial_mode": "3D_TILES",
        "camera": {
          "altitude_m_agl": 2.4,
          "pitch_deg": 7.2,
          "heading_deg": 183.8,
          "fov_deg": 60.0
        }
      }
    },
    {
      "type": "Feature",
      "id": "stratum_2_subterranean_geology",
      "geometry": {
        "type": "Point",
        "coordinates": [
          -3.2088392533288927,
          55.95226390586746
        ]
      },
      "properties": {
        "stratum": "subterranean_geology",
        "foundation_analysis": "Bedrock comprises Carboniferous sedimentary strata of the Lothian Oil-Shale Group, interleaved with basaltic volcanic sills. Superficial deposits consist of dense Quaternary glacial till. Building fabric utilizes indigenous pale-buff to blonde Craigleith and Hailes sandstones, bedded in non-hydraulic lime and crushed stone mortars. Ground drainage follows engineered historic subterranean storm sewers along the ridge profile."
      }
    },
    {
      "type": "Feature",
      "id": "stratum_3_ground_surface",
      "geometry": {
        "type": "Point",
        "coordinates": [
          -3.2088392533288927,
          55.95226390586746
        ]
      },
      "properties": {
        "stratum": "ground_surface",
        "primary_surfacing": "Engineered roadway and paved pedestrian curbs",
        "wear_characteristics": "Authentic environmental patina and drainage grading"
      }
    },
    {
      "type": "Feature",
      "id": "stratum_4_landscape_ecology",
      "geometry": {
        "type": "Point",
        "coordinates": [
          -3.2088392533288927,
          55.95226390586746
        ]
      },
      "properties": {
        "stratum": "landscape_ecology",
        "botanical_analysis": "Perimeter of Charlotte Square Gardens populated by mature *Acer pseudoplatanus* (Sycamore), *Tilia \u00d7 europaea* (Common Lime), and *Ulmus glabra* (Wych Elm). Late-September phenology displays dense, mature canopies exhibiting early autumn senescence: partial chlorophyll loss, mottled yellowing leaf margins, and scattered crown thinning without major defoliation.",
        "foliage_rectification": "Disambiguated from masonry mesh"
      }
    },
    {
      "type": "Feature",
      "id": "stratum_5_built_environment",
      "geometry": {
        "type": "Point",
        "coordinates": [
          -3.2088392533288927,
          55.95226390586746
        ]
      },
      "properties": {
        "stratum": "built_environment",
        "architectural_summary": "Neoclassical Edinburgh New Town palatial urban block designed by Robert Adam and executed by Robert Reid. Central visual anchor features West Register House with its monumental portico, colossal attached columns, and elevated copper-clad dome drum. Flanking symmetrical three-storey and attic terraced townhouses over rusticated basements. Planar facades rectified to strict plumb verticals; fenestration follows regular grids of timber sash-and-case windows (six-over-six and twelve-over-twelve configurations) with continuous stringcourses and projecting eaves cornices.",
        "structures": [
          {
            "name": "Primary Facade",
            "storeys": 2,
            "height_m": 7.5,
            "roof_geometry": "pitched / parapet",
            "facade_material": "authentic regional masonry",
            "planar_rectification": "ENFORCED"
          }
        ]
      }
    },
    {
      "type": "Feature",
      "id": "stratum_6_dynamic_elements",
      "geometry": {
        "type": "Point",
        "coordinates": [
          -3.2088392533288927,
          55.95226390586746
        ]
      },
      "properties": {
        "stratum": "dynamic_elements",
        "transient_decluttering": "ENFORCED",
        "vehicles": "NONE",
        "pedestrians": "NONE",
        "transient_clutter": "STRIPPED",
        "permanent_civil_fabric": "PRESERVED"
      }
    },
    {
      "type": "Feature",
      "id": "stratum_7_atmospheric_state",
      "geometry": null,
      "properties": {
        "stratum": "atmospheric_state",
        "lighting_rig": "SOLAR_EPHEMERIS",
        "timestamp_utc": "2026-09-23T16:00:00+00:00",
        "weather_state": "FOG",
        "solar_azimuth_deg": 243.37,
        "solar_elevation_deg": 17.06,
        "shadow_azimuth_deg": null,
        "color_temperature_k": 4500,
        "ambient_illuminance_lux": 35000
      }
    }
  ]
}