{
  "type": "FeatureCollection",
  "properties": {
    "address": "45 N Washington St, Boston, MA 02114, USA",
    "spatial_mode": "3D_TILES",
    "schema_version": "7-Strata-v2.0"
  },
  "features": [
    {
      "type": "Feature",
      "id": "stratum_1_observer_frame",
      "geometry": {
        "type": "Point",
        "coordinates": [
          -71.058627585067,
          42.3637324243441
        ]
      },
      "properties": {
        "stratum": "observer_frame",
        "spatial_mode": "3D_TILES",
        "camera": {
          "altitude_m_agl": 32.5,
          "pitch_deg": -26.2,
          "heading_deg": 27.4,
          "fov_deg": 60.0
        }
      }
    },
    {
      "type": "Feature",
      "id": "stratum_2_subterranean_geology",
      "geometry": {
        "type": "Point",
        "coordinates": [
          -71.058627585067,
          42.3637324243441
        ]
      },
      "properties": {
        "stratum": "subterranean_geology",
        "foundation_analysis": "* **Bedrock & Stratigraphy:** Boston Basin tectonic depression underlain by Neoproterozoic Cambridge Argillite (metamorphosed laminated mudstone/pelite) mantled by Pleistocene Boston Blue Clay (glaciomarine silty clay) and 19th-century anthropogenic tidal fill from the former Mill Pond drainage and reclamation.\n* **Lithics & Sourcing:** Glacial clay-extruded red brick (fired from local Mystic and Merrimack River valley clays); Quincy and Chelmsford biotite granite foundation footings, water tables, and ground-level storefront lintels; red Medina/Longmeadow arkosic sandstone lintels and belt courses.\n* **Hydrology & Mortar Chemistry:** Historic non-hydraulic calcitic lime-and-sand mortar (1:3 lime-to-quartz sand ratio) across 19th-century masonry, transition to Type N Portland-lime mortars on 20th-century repointing; high subterranean water table governed by proximity to the Charles River and Boston Inner Harbor."
      }
    },
    {
      "type": "Feature",
      "id": "stratum_3_ground_surface",
      "geometry": {
        "type": "Point",
        "coordinates": [
          -71.058627585067,
          42.3637324243441
        ]
      },
      "properties": {
        "stratum": "ground_surface",
        "primary_surfacing": "Engineered roadway and paved pedestrian curbs",
        "wear_characteristics": "Authentic environmental patina and drainage grading"
      }
    },
    {
      "type": "Feature",
      "id": "stratum_4_landscape_ecology",
      "geometry": {
        "type": "Point",
        "coordinates": [
          -71.058627585067,
          42.3637324243441
        ]
      },
      "properties": {
        "stratum": "landscape_ecology",
        "botanical_analysis": "* **Taxonomy:** *Gleditsia triacanthos* var. *inermis* (Thornless Honeylocust) and *Tilia cordata* (Littleleaf Linden) situated in sidewalk tree pits.\n* **Canopy Phenology (Late August / August 30):** Full mature canopy density; dark green pinnately compound foliage showing subtle late-summer moisture stress; mature seed pods developing on honeylocust branches; complete foliage retention prior to autumn abscission.",
        "foliage_rectification": "Disambiguated from masonry mesh"
      }
    },
    {
      "type": "Feature",
      "id": "stratum_5_built_environment",
      "geometry": {
        "type": "Point",
        "coordinates": [
          -71.058627585067,
          42.3637324243441
        ]
      },
      "properties": {
        "stratum": "built_environment",
        "architectural_summary": "* **Typological Matrix:** \n  * *45\u201351 North Washington Street (Center Corner):* 5-storey Federal/Greek Revival transitional commercial-residential masonry block; planar rectangular massing with flat parapet roof, regular punched fenestration grid of rectangular 2-over-2 and 1-over-1 double-hung timber and aluminum-clad sashes, projecting steel commercial billboard framework affixed to roof deck.\n  * *53\u201355 North Washington Street (Left Midground):* 4-storey commercial block with slate-shingled mansard roof and timber pedimented dormers.\n  * *77\u201381 North Washington Street (Far Left Anchor):* 10-storey early-20th-century commercial daylight factory/warehouse loft; steel-framed with deep masonry piers, multi-bay Chicago-style broad industrial window spans, and brick-painted historic ghost signage (\"Scotch 'n Sirloin\") on the blind lateral exposure.\n  * *North End Residential Fabric (Right Background):* 4-to-5-storey late-19th-century brick tenements; cast-iron external fire escape ladders, pronounced corbelled brick cornices, stone sills, and flat built-up bitumen roofs.\n* **Planar Rectification:** Strict gravity-plumbed vertical wall planes; elimination of photogrammetric mesh distortion; crisp orthogonal alignment across street curbs, parapets, sill courses, and roof edges.",
        "structures": [
          {
            "name": "Primary Facade",
            "storeys": 2,
            "height_m": 7.5,
            "roof_geometry": "pitched / parapet",
            "facade_material": "authentic regional masonry",
            "planar_rectification": "ENFORCED"
          }
        ]
      }
    },
    {
      "type": "Feature",
      "id": "stratum_6_dynamic_elements",
      "geometry": {
        "type": "Point",
        "coordinates": [
          -71.058627585067,
          42.3637324243441
        ]
      },
      "properties": {
        "stratum": "dynamic_elements",
        "transient_decluttering": "ENFORCED",
        "vehicles": "NONE",
        "pedestrians": "NONE",
        "transient_clutter": "STRIPPED",
        "permanent_civil_fabric": "PRESERVED"
      }
    },
    {
      "type": "Feature",
      "id": "stratum_7_atmospheric_state",
      "geometry": null,
      "properties": {
        "stratum": "atmospheric_state",
        "lighting_rig": "SOLAR_EPHEMERIS",
        "timestamp_utc": "2026-08-30T22:56:59+00:00",
        "weather_state": "SUNNY",
        "solar_azimuth_deg": 278.74,
        "solar_elevation_deg": 3.96,
        "shadow_azimuth_deg": 98.7,
        "color_temperature_k": 3000,
        "ambient_illuminance_lux": 12000
      }
    }
  ]
}