{
  "type": "FeatureCollection",
  "properties": {
    "address": "17 Charlotte Square, Edinburgh EH2 4DJ, UK",
    "spatial_mode": "3D_TILES",
    "schema_version": "7-Strata-v2.0"
  },
  "features": [
    {
      "type": "Feature",
      "id": "stratum_1_observer_frame",
      "geometry": {
        "type": "Point",
        "coordinates": [
          -3.2088392533288927,
          55.95226390586746
        ]
      },
      "properties": {
        "stratum": "observer_frame",
        "spatial_mode": "3D_TILES",
        "camera": {
          "altitude_m_agl": 2.4,
          "pitch_deg": 7.2,
          "heading_deg": 183.8,
          "fov_deg": 60.0
        }
      }
    },
    {
      "type": "Feature",
      "id": "stratum_2_subterranean_geology",
      "geometry": {
        "type": "Point",
        "coordinates": [
          -3.2088392533288927,
          55.95226390586746
        ]
      },
      "properties": {
        "stratum": "subterranean_geology",
        "foundation_analysis": "Subterranean Carboniferous sandstone and volcanic tuff bedrock. Superstructure composed of fine-grained pale cream-to-grey Craigleith and Hailes sandstone ashlar, bedded with non-hydraulic lime mortar. Stable urban ground with historic subterranean drainage and basement lightwells."
      }
    },
    {
      "type": "Feature",
      "id": "stratum_3_ground_surface",
      "geometry": {
        "type": "Point",
        "coordinates": [
          -3.2088392533288927,
          55.95226390586746
        ]
      },
      "properties": {
        "stratum": "ground_surface",
        "primary_surfacing": "Engineered roadway and paved pedestrian curbs",
        "wear_characteristics": "Authentic environmental patina and drainage grading"
      }
    },
    {
      "type": "Feature",
      "id": "stratum_4_landscape_ecology",
      "geometry": {
        "type": "Point",
        "coordinates": [
          -3.2088392533288927,
          55.95226390586746
        ]
      },
      "properties": {
        "stratum": "landscape_ecology",
        "botanical_analysis": "Bordering parkland canopy featuring mature *Acer pseudoplatanus* (Sycamore) and *Tilia \u00d7 europaea* (Common Lime). Late September phenology: full canopy structure with early chlorosis, yellowing leaf margins, and minor localized leaf drop along lower branches.",
        "foliage_rectification": "Disambiguated from masonry mesh"
      }
    },
    {
      "type": "Feature",
      "id": "stratum_5_built_environment",
      "geometry": {
        "type": "Point",
        "coordinates": [
          -3.2088392533288927,
          55.95226390586746
        ]
      },
      "properties": {
        "stratum": "built_environment",
        "architectural_summary": "Georgian Neoclassical unified palatial terrace designed by Robert Adam, flanked around the central West Register House (formerly St George's Church, Robert Reid). Three-storey plus basement and attic residential bays with rusticated ground floors and ashlar upper levels. Central monument features a colossal tetrastyle Ionic portico, stepped attic base, cylindrical drum with Corinthian pilasters, and a ribbed hemispherical cupola. Fenestration consists of timber 12-pane and 6-over-6 sash-and-case windows with ashlar architraves. True plumb vertical load-bearing lines and rectified straight rooflines.",
        "structures": [
          {
            "name": "Primary Facade",
            "storeys": 2,
            "height_m": 7.5,
            "roof_geometry": "pitched / parapet",
            "facade_material": "authentic regional masonry",
            "planar_rectification": "ENFORCED"
          }
        ]
      }
    },
    {
      "type": "Feature",
      "id": "stratum_6_dynamic_elements",
      "geometry": {
        "type": "Point",
        "coordinates": [
          -3.2088392533288927,
          55.95226390586746
        ]
      },
      "properties": {
        "stratum": "dynamic_elements",
        "transient_decluttering": "ENFORCED",
        "vehicles": "NONE",
        "pedestrians": "NONE",
        "transient_clutter": "STRIPPED",
        "permanent_civil_fabric": "PRESERVED"
      }
    },
    {
      "type": "Feature",
      "id": "stratum_7_atmospheric_state",
      "geometry": null,
      "properties": {
        "stratum": "atmospheric_state",
        "lighting_rig": "SOLAR_EPHEMERIS",
        "timestamp_utc": "2026-09-23T16:00:00+00:00",
        "weather_state": "OVERCAST",
        "solar_azimuth_deg": 243.37,
        "solar_elevation_deg": 17.06,
        "shadow_azimuth_deg": null,
        "color_temperature_k": 4500,
        "ambient_illuminance_lux": 35000
      }
    }
  ]
}