{
  "type": "FeatureCollection",
  "properties": {
    "address": "6 Shandwick Pl, Edinburgh EH2 4RN, UK",
    "spatial_mode": "3D_TILES",
    "schema_version": "7-Strata-v2.0"
  },
  "features": [
    {
      "type": "Feature",
      "id": "stratum_1_observer_frame",
      "geometry": {
        "type": "Point",
        "coordinates": [
          -3.2074151408352254,
          55.95026163749057
        ]
      },
      "properties": {
        "stratum": "observer_frame",
        "spatial_mode": "3D_TILES",
        "camera": {
          "altitude_m_agl": 5.1,
          "pitch_deg": 0.2,
          "heading_deg": 257.0,
          "fov_deg": 60.0
        }
      }
    },
    {
      "type": "Feature",
      "id": "stratum_2_subterranean_geology",
      "geometry": {
        "type": "Point",
        "coordinates": [
          -3.2074151408352254,
          55.95026163749057
        ]
      },
      "properties": {
        "stratum": "subterranean_geology",
        "foundation_analysis": "Subterranean formation composed of Lower Carboniferous sedimentary rock of the Gullane and Wardie Mudstone Formations, interspersed with nearby volcanic basaltic intrusions. Structural load rests upon stiff glaciomarine till over sandstone bedrock. Primary building fabric comprises fine-grained Carboniferous quartz-arenite sourced from local historic quarries: buff-coloured Craigleith sandstone alongside laminated pink-grey Hailes sandstone. Bedding and pointing utilize traditional hot-mixed lime mortar composed of slaked high-calcium quicklime and sharp fluvial aggregate."
      }
    },
    {
      "type": "Feature",
      "id": "stratum_3_ground_surface",
      "geometry": {
        "type": "Point",
        "coordinates": [
          -3.2074151408352254,
          55.95026163749057
        ]
      },
      "properties": {
        "stratum": "ground_surface",
        "primary_surfacing": "Engineered roadway and paved pedestrian curbs",
        "wear_characteristics": "Authentic environmental patina and drainage grading"
      }
    },
    {
      "type": "Feature",
      "id": "stratum_4_landscape_ecology",
      "geometry": {
        "type": "Point",
        "coordinates": [
          -3.2074151408352254,
          55.95026163749057
        ]
      },
      "properties": {
        "stratum": "landscape_ecology",
        "botanical_analysis": "Peripheral urban specimens of *Acer pseudoplatanus* (Sycamore) and *Tilia \u00d7 europaea* (Common Lime). Canopy state for late September displays early autumn phenology: dense crowns transitioning from deep green to muted ochre and olive-yellow margins, with localized foliage thinning along upper outer branches.",
        "foliage_rectification": "Disambiguated from masonry mesh"
      }
    },
    {
      "type": "Feature",
      "id": "stratum_5_built_environment",
      "geometry": {
        "type": "Point",
        "coordinates": [
          -3.2074151408352254,
          55.95026163749057
        ]
      },
      "properties": {
        "stratum": "built_environment",
        "architectural_summary": "Victorian Scots Baronial and Italian Renaissance Revival mixed-use tenement blocks alongside early Victorian Georgian infill. Facades range from 4 to 5 storeys plus mansard and dormered attic storeys. Massing features strapwork and crow-stepped gables, corbelled corner turrets, canted oriel bay stacks, and molded continuous stringcourses. Fenestration consists of timber-framed 1-over-1 and 2-over-2 sliding sash-and-case windows set in planar ashlar reveals. In the mid-distance rises the Italian Romanesque campanile of St George's West Church (David Bryce, 1869), defined by a tall square-plan sandstone tower, round-arched louvred belfry arcades, a bracketed cornice, and an octagonal spire.",
        "structures": [
          {
            "name": "Primary Facade",
            "storeys": 2,
            "height_m": 7.5,
            "roof_geometry": "pitched / parapet",
            "facade_material": "authentic regional masonry",
            "planar_rectification": "ENFORCED"
          }
        ]
      }
    },
    {
      "type": "Feature",
      "id": "stratum_6_dynamic_elements",
      "geometry": {
        "type": "Point",
        "coordinates": [
          -3.2074151408352254,
          55.95026163749057
        ]
      },
      "properties": {
        "stratum": "dynamic_elements",
        "transient_decluttering": "ENFORCED",
        "vehicles": "NONE",
        "pedestrians": "NONE",
        "transient_clutter": "STRIPPED",
        "permanent_civil_fabric": "PRESERVED"
      }
    },
    {
      "type": "Feature",
      "id": "stratum_7_atmospheric_state",
      "geometry": null,
      "properties": {
        "stratum": "atmospheric_state",
        "lighting_rig": "SOLAR_EPHEMERIS",
        "timestamp_utc": "2026-09-24T07:20:59+00:00",
        "weather_state": "SUNNY",
        "solar_azimuth_deg": 105.98,
        "solar_elevation_deg": 10.46,
        "shadow_azimuth_deg": 286.0,
        "color_temperature_k": 4500,
        "ambient_illuminance_lux": 35000
      }
    }
  ]
}