{
  "type": "FeatureCollection",
  "properties": {
    "address": "145 Princes St., Edinburgh EH2 4BL, UK",
    "spatial_mode": "3D_TILES",
    "schema_version": "7-Strata-v2.0"
  },
  "features": [
    {
      "type": "Feature",
      "id": "stratum_1_observer_frame",
      "geometry": {
        "type": "Point",
        "coordinates": [
          -3.207606814871762,
          55.950257119269565
        ]
      },
      "properties": {
        "stratum": "observer_frame",
        "spatial_mode": "3D_TILES",
        "camera": {
          "altitude_m_agl": 154.3,
          "pitch_deg": -16.2,
          "heading_deg": 247.1,
          "fov_deg": 60.0
        }
      }
    },
    {
      "type": "Feature",
      "id": "stratum_2_subterranean_geology",
      "geometry": {
        "type": "Point",
        "coordinates": [
          -3.207606814871762,
          55.950257119269565
        ]
      },
      "properties": {
        "stratum": "subterranean_geology",
        "foundation_analysis": "- Bedrock: Subterranean foundation situated along the northern flank of the Castle Rock crag-and-tail volcanic formation, underpinned by Early Carboniferous sedimentary rock formations (Gullane Formation and Wardie Shales).\n- Masonry Lithics: Primarily Carboniferous pale buff-to-grey quartz-rich Craigleith sandstone and Hailes sandstone ashlar blocks, with later nineteenth-century infills utilizing buff sandstone and Red Permian/Triassic Sandstone details.\n- Mortar Chemistry: Historical non-hydraulic and feebly hydraulic slaked lime mortar matrices with coarse river-sand aggregate, showing historic localized lime repointing.\n- Hydrology & Subterranean Drainage: Southern gradient falls toward the historic infilled hollow of the former Nor Loch (now West Princes Street Gardens), managed via subterranean municipal stone culverts."
      }
    },
    {
      "type": "Feature",
      "id": "stratum_3_ground_surface",
      "geometry": {
        "type": "Point",
        "coordinates": [
          -3.207606814871762,
          55.950257119269565
        ]
      },
      "properties": {
        "stratum": "ground_surface",
        "primary_surfacing": "Engineered roadway and paved pedestrian curbs",
        "wear_characteristics": "Authentic environmental patina and drainage grading"
      }
    },
    {
      "type": "Feature",
      "id": "stratum_4_landscape_ecology",
      "geometry": {
        "type": "Point",
        "coordinates": [
          -3.207606814871762,
          55.950257119269565
        ]
      },
      "properties": {
        "stratum": "landscape_ecology",
        "botanical_analysis": "- Urban & Park Foliage: Mature broadleaf deciduous trees along the southern edge flanking West Princes Street Gardens and churchyards, comprising Sycamore (*Acer pseudoplatanus*), Wych Elm (*Ulmus glabra*), European Lime (*Tilia x europaea*), and English Oak (*Quercus robur*).\n- Botanical Clarity: Dense organic canopy structures with individualized leaf clusters, organic branching, and natural bark texture, fully decoupled from adjacent stone parapets and retaining walls.",
        "foliage_rectification": "Disambiguated from masonry mesh"
      }
    },
    {
      "type": "Feature",
      "id": "stratum_5_built_environment",
      "geometry": {
        "type": "Point",
        "coordinates": [
          -3.207606814871762,
          55.950257119269565
        ]
      },
      "properties": {
        "stratum": "built_environment",
        "architectural_summary": "- Typology: Late Georgian to Victorian commercial terraces, Edwardian Baroque/Renaissance Revival department store conversions (notably 145 Princes Street, the former Binns/House of Fraser building, now the Johnnie Walker Experience), terminating westward toward the West End junction, Shandwick Place, and the distant triple spires of St Mary's Episcopal Cathedral.\n- Vertical Rectification: All load-bearing facades plumbed to strict 90-degree gravity vertical; bulging photogrammetric distortions and warped window jambs rectified to razor-straight ashlar courses and planar vertical reveals.\n- Storey Heights & Massing: 4-to-6 storey continuous commercial and domestic elevations with rusticated ashlar ground-floor plinths, classicized architraves, pronounced pedimented dormers, and mansard slate rooflines interrupted by heavy chimney stacks and stone balustrades.\n- Distant Focal Points: Square campanile tower of St Cuthbert's Parish Church / St John's Church flanking the green edge of the gardens to the southwest, and the dominant Gothic revival spires of St Mary's Cathedral rising in the background.",
        "structures": [
          {
            "name": "Primary Facade",
            "storeys": 2,
            "height_m": 7.5,
            "roof_geometry": "pitched / parapet",
            "facade_material": "authentic regional masonry",
            "planar_rectification": "ENFORCED"
          }
        ]
      }
    },
    {
      "type": "Feature",
      "id": "stratum_6_dynamic_elements",
      "geometry": {
        "type": "Point",
        "coordinates": [
          -3.207606814871762,
          55.950257119269565
        ]
      },
      "properties": {
        "stratum": "dynamic_elements",
        "transient_decluttering": "ENFORCED",
        "vehicles": "NONE",
        "pedestrians": "NONE",
        "transient_clutter": "STRIPPED",
        "permanent_civil_fabric": "PRESERVED"
      }
    },
    {
      "type": "Feature",
      "id": "stratum_7_atmospheric_state",
      "geometry": null,
      "properties": {
        "stratum": "atmospheric_state",
        "lighting_rig": "SOLAR_EPHEMERIS",
        "timestamp_utc": "2026-08-27T17:15:49.825636+00:00",
        "weather_state": "RAIN",
        "temperature_c": 15.0,
        "solar_azimuth_deg": 276.44,
        "solar_elevation_deg": 16.72,
        "shadow_azimuth_deg": 96.4,
        "color_temperature_k": 4500,
        "ambient_illuminance_lux": 35000
      }
    }
  ]
}