{
  "type": "FeatureCollection",
  "properties": {
    "address": "1540 Maine Ave SW, Washington, DC 20004, USA",
    "spatial_mode": "3D_TILES",
    "schema_version": "7-Strata-v2.0"
  },
  "features": [
    {
      "type": "Feature",
      "id": "stratum_1_observer_frame",
      "geometry": {
        "type": "Point",
        "coordinates": [
          -77.03715909558203,
          38.8858692444861
        ]
      },
      "properties": {
        "stratum": "observer_frame",
        "spatial_mode": "3D_TILES",
        "camera": {
          "altitude_m_agl": 153.3,
          "pitch_deg": -11.6,
          "heading_deg": 23.6,
          "fov_deg": 60.0
        }
      }
    },
    {
      "type": "Feature",
      "id": "stratum_2_subterranean_geology",
      "geometry": {
        "type": "Point",
        "coordinates": [
          -77.03715909558203,
          38.8858692444861
        ]
      },
      "properties": {
        "stratum": "subterranean_geology",
        "foundation_analysis": "- Bedrock: Potomac Formation saprolite over crystalline schist and gneiss of the Piedmont Province, with deep alluvial silt, gravel, and clay fill across the reclaimed Potomac flats.\n- Monument Substructure: Massive unreinforced bluestone gneiss rubble foundation underpinned by concrete slab and underpinning buttresses extending to bedrock.\n- Lithic Provenance: \n  * Washington Monument shaft: Lower 152 feet composed of Cockeysville/Texas Maryland calcitic marble; upper 400+ feet composed of Lee, Massachusetts dolomitic marble and Cockeysville marble backing blocks, backed by Maine granite ashlar and New England gneiss masonry.\n  * Federal Triangle & surrounding civic structures: Indiana Bedford calcitic limestone ashlar facades, Deer Isle granite plinths, and red terracotta clay tile roofs.\n  * Circular plaza: Thermal-finished crystalline granite paving stones and honed Pennsylvania bluestone perimeter bands."
      }
    },
    {
      "type": "Feature",
      "id": "stratum_3_ground_surface",
      "geometry": {
        "type": "Point",
        "coordinates": [
          -77.03715909558203,
          38.8858692444861
        ]
      },
      "properties": {
        "stratum": "ground_surface",
        "primary_surfacing": "Engineered roadway and paved pedestrian curbs",
        "wear_characteristics": "Authentic environmental patina and drainage grading"
      }
    },
    {
      "type": "Feature",
      "id": "stratum_4_landscape_ecology",
      "geometry": {
        "type": "Point",
        "coordinates": [
          -77.03715909558203,
          38.8858692444861
        ]
      },
      "properties": {
        "stratum": "landscape_ecology",
        "botanical_analysis": "- Date-Grounded Phenology (September): Fully expanded late-summer canopy volumes displaying mature deep olive and forest greens, with early faint chlorosis/yellowing on select branch tips; zero leaf drop.\n- Botanical Taxa:\n  * Overstory Groves & Mall Borders: American Elm (*Ulmus americana*), Pin Oak (*Quercus palustris*), White Oak (*Quercus alba*), and American Sycamore (*Platanus occidentalis*).\n  * Perimeter Plantings: Red Maple (*Acer rubrum*), London Planetree (*Platanus \u00d7 acerifolia*), and Sweetgum (*Liquidambar styraciflua*).\n  * Turf Cover: Dense, high-durability sod composition of Kentucky Bluegrass (*Poa pratensis*) and Tall Fescue (*Festuca arundinacea*), clipped to uniform height across the undulating knoll.",
        "foliage_rectification": "Disambiguated from masonry mesh"
      }
    },
    {
      "type": "Feature",
      "id": "stratum_5_built_environment",
      "geometry": {
        "type": "Point",
        "coordinates": [
          -77.03715909558203,
          38.8858692444861
        ]
      },
      "properties": {
        "stratum": "built_environment",
        "architectural_summary": "- Washington Monument: Free-standing, hollow Egyptian-revival masonry obelisk, precisely 555 feet 5\u215b inches in height with a 10:1 height-to-base ratio; four battered planar stone faces tapering to a 55-foot-tall pyramidal capstone (pyramidion) topped with cast aluminum apex. True plumb vertical load-bearing lines.\n- Base Plaza: Concentric circular granite and bluestone plaza ringed by 50 stainless steel/aluminum flagpoles set into granite bollards; security screening facility integrated at the base in matching honed stone and structural glass.\n- Urban Fabric (Background/Periphery):\n  * National Museum of African American History and Culture (NMAAHC): Inverted three-tiered stepped ziggurat (corona) clad in ornate cast-aluminum lattice panels with bronze-toned PVDF finish, resting on a glazed transparent ground-level pavilion.\n  * Federal Triangle Complex (Herbert C. Hoover / Commerce, Ronald Reagan Building, EPA / Ariel Rios, IRS): Monumental Neoclassical and Beaux-Arts federal administrative blocks; multi-story rusticated ashlar bases, continuous colossal Doric and Ionic colonnades, pedimented porticos, repetitive multi-lite double-hung timber/bronze fenestration grids, and pitched terracotta Spanish tile hipped roofs with classical balustrades.\n  * Ground Geometries: Monument grounds contoured into a subtle concentric knoll surrounded by curvilinear asphalt and decomposed-granite pedestrian pathway ribbons.",
        "structures": [
          {
            "name": "Primary Facade",
            "storeys": 2,
            "height_m": 7.5,
            "roof_geometry": "pitched / parapet",
            "facade_material": "authentic regional masonry",
            "planar_rectification": "ENFORCED"
          }
        ]
      }
    },
    {
      "type": "Feature",
      "id": "stratum_6_dynamic_elements",
      "geometry": {
        "type": "Point",
        "coordinates": [
          -77.03715909558203,
          38.8858692444861
        ]
      },
      "properties": {
        "stratum": "dynamic_elements",
        "transient_decluttering": "ENFORCED",
        "vehicles": "NONE",
        "pedestrians": "NONE",
        "transient_clutter": "STRIPPED",
        "permanent_civil_fabric": "PRESERVED"
      }
    },
    {
      "type": "Feature",
      "id": "stratum_7_atmospheric_state",
      "geometry": null,
      "properties": {
        "stratum": "atmospheric_state",
        "lighting_rig": "SOLAR_EPHEMERIS",
        "timestamp_utc": "2026-09-04T23:11:59+00:00",
        "weather_state": "SUNNY",
        "solar_azimuth_deg": 276.42,
        "solar_elevation_deg": 3.68,
        "shadow_azimuth_deg": 96.4,
        "color_temperature_k": 3000,
        "ambient_illuminance_lux": 12000
      }
    }
  ]
}