{
  "type": "FeatureCollection",
  "properties": {
    "address": "40 Charlotte Square, Edinburgh EH2 4HQ, UK",
    "spatial_mode": "3D_TILES",
    "schema_version": "7-Strata-v2.0"
  },
  "features": [
    {
      "type": "Feature",
      "id": "stratum_1_observer_frame",
      "geometry": {
        "type": "Point",
        "coordinates": [
          -3.206928039539391,
          55.95191750686016
        ]
      },
      "properties": {
        "stratum": "observer_frame",
        "spatial_mode": "3D_TILES",
        "camera": {
          "altitude_m_agl": 6.5,
          "pitch_deg": 0.8,
          "heading_deg": 253.7,
          "fov_deg": 60.0
        }
      }
    },
    {
      "type": "Feature",
      "id": "stratum_2_subterranean_geology",
      "geometry": {
        "type": "Point",
        "coordinates": [
          -3.206928039539391,
          55.95191750686016
        ]
      },
      "properties": {
        "stratum": "subterranean_geology",
        "foundation_analysis": "- Subterranean Bedrock: Dinantian (Lower Carboniferous) sandstone and siltstone sedimentary strata of the Gullane and Wardie Formations, overlain by dense glacial till.\n- Lithic Fabric: Primary structural ashlar quarried from local Craigleith Sandstone (fine-to-medium grained, silica-cemented, quartz-rich pale grey-buff freestone). Monument pedestal comprised of polished Peterhead red granite and subsidiary sandstone blocks.\n- Mortar Chemistry: Historical non-hydraulic and feebly hydraulic lime-sand bedding mortar with high calcium lime putty matrix.\n- Hydrology & Subsurface Drainage: Gentle westward fall across the Old/New Town glacial plateau toward the Water of Leith catchment, drained via sub-turf agricultural tile drains and perimeter stone culverts."
      }
    },
    {
      "type": "Feature",
      "id": "stratum_3_ground_surface",
      "geometry": {
        "type": "Point",
        "coordinates": [
          -3.206928039539391,
          55.95191750686016
        ]
      },
      "properties": {
        "stratum": "ground_surface",
        "primary_surfacing": "Engineered roadway and paved pedestrian curbs",
        "wear_characteristics": "Authentic environmental patina and drainage grading"
      }
    },
    {
      "type": "Feature",
      "id": "stratum_4_landscape_ecology",
      "geometry": {
        "type": "Point",
        "coordinates": [
          -3.206928039539391,
          55.95191750686016
        ]
      },
      "properties": {
        "stratum": "landscape_ecology",
        "botanical_analysis": "- Garden Canopy Fabric: Mature urban parkland broadleaves situated within Charlotte Square Gardens.\n- Identified Species: *Acer pseudoplatanus* (Sycamore), *Tilia \u00d7 europaea* (Common Lime), *Ulmus glabra* (Wych Elm), and *Fagus sylvatica* (European Beech).\n- Date Phenology (September 22 - Early Autumn Transition): Full, dense late-season canopies showing initial senescence; foliage displaying olive-greens with marginal leaf chlorosis, intermittent ochre and pale yellow edge discoloration, intact canopy volume prior to major autumn leaf abscission.",
        "foliage_rectification": "Disambiguated from masonry mesh"
      }
    },
    {
      "type": "Feature",
      "id": "stratum_5_built_environment",
      "geometry": {
        "type": "Point",
        "coordinates": [
          -3.206928039539391,
          55.95191750686016
        ]
      },
      "properties": {
        "stratum": "built_environment",
        "architectural_summary": "- Central Focal Massing (West Register House / St George's Church): Neoclassical civic-ecclesiastical composition designed by Robert Reid (1811\u20131814). Symmetrical frontispiece featuring a monumental tetra-style portico with Ionic columns, pedimented entablature, rusticated ground level, and an octagonal/circular colonnaded drum carrying a prominent ribbed hemispherical dome capped with an open lantern and gilded cross.\n- Flanking Terraces (West side of Charlotte Square): Symmetrical Georgian terraced townhouses (designed to Robert Adam's comprehensive 1791 scheme). Three principal storeys above sunken basement lightwells, regular rhythm of 3-bay modular facades, rusticated ground floors, band courses, and timber sash-and-case fenestration (6-over-6 and 12-pane configurations). Continuous eaves cornice beneath pitched slate roofs punctuated by pedimented attic dormers and ashlar chimney stacks.\n- Central Monument (Prince Albert Memorial): Sited symmetrically on the garden axis; Sir John Steell equestrian monument (1876) consisting of a tiered stepped plinth, rectangular polished granite pedestal with allegorical bronze bas-relief panels, corner figural groupings, and a heroic-scale bronze equestrian statue.\n- Planar Rectification: Plumb vertical terrace frontages, planarized rusticated ashlar facades, aligned horizontal stringcourses and gutter lines, rectified circular drum geometry beneath the true hemispherical dome.",
        "structures": [
          {
            "name": "Primary Facade",
            "storeys": 2,
            "height_m": 7.5,
            "roof_geometry": "pitched / parapet",
            "facade_material": "authentic regional masonry",
            "planar_rectification": "ENFORCED"
          }
        ]
      }
    },
    {
      "type": "Feature",
      "id": "stratum_6_dynamic_elements",
      "geometry": {
        "type": "Point",
        "coordinates": [
          -3.206928039539391,
          55.95191750686016
        ]
      },
      "properties": {
        "stratum": "dynamic_elements",
        "transient_decluttering": "ENFORCED",
        "vehicles": "NONE",
        "pedestrians": "NONE",
        "transient_clutter": "STRIPPED",
        "permanent_civil_fabric": "PRESERVED"
      }
    },
    {
      "type": "Feature",
      "id": "stratum_7_atmospheric_state",
      "geometry": null,
      "properties": {
        "stratum": "atmospheric_state",
        "lighting_rig": "SOLAR_EPHEMERIS",
        "timestamp_utc": "2026-09-22T16:30:00+00:00",
        "weather_state": "FOG",
        "solar_azimuth_deg": 250.17,
        "solar_elevation_deg": 13.58,
        "shadow_azimuth_deg": 70.2,
        "color_temperature_k": 4500,
        "ambient_illuminance_lux": 35000
      }
    }
  ]
}