{
  "type": "FeatureCollection",
  "properties": {
    "address": "14 Albany St, Edinburgh EH1 3QB, UK",
    "spatial_mode": "3D_TILES",
    "schema_version": "7-Strata-v2.0"
  },
  "features": [
    {
      "type": "Feature",
      "id": "stratum_1_observer_frame",
      "geometry": {
        "type": "Point",
        "coordinates": [
          -3.192594698318735,
          55.957195386968095
        ]
      },
      "properties": {
        "stratum": "observer_frame",
        "spatial_mode": "3D_TILES",
        "camera": {
          "altitude_m_agl": 170.4,
          "pitch_deg": -20.6,
          "heading_deg": 318.5,
          "fov_deg": 60.0
        }
      }
    },
    {
      "type": "Feature",
      "id": "stratum_2_subterranean_geology",
      "geometry": {
        "type": "Point",
        "coordinates": [
          -3.192594698318735,
          55.957195386968095
        ]
      },
      "properties": {
        "stratum": "subterranean_geology",
        "foundation_analysis": "The subterranean geology comprises Lower Carboniferous fluvio-deltaic bedrock from the Gullane Formation and Strathclyde Group (sandstone, siltstone, and mudstone intervals) overlain by dense glacial till (boulder clay). Primary load-bearing masonry is extracted from regional quarries: dense, fine-grained buff Craigleith quartzitic sandstone paired with laminated grey Hailes and Binny sandstones. Bedding planes are oriented horizontally to withstand compressive loading, assembled with hot-mixed non-hydraulic to weakly hydraulic lime mortar with washed river aggregate. Natural grade slopes northward toward the Water of Leith basin, engineered with subterranean barrel-vaulted cellars and stone-paved sunken basement lightwells for moisture dissipation."
      }
    },
    {
      "type": "Feature",
      "id": "stratum_3_ground_surface",
      "geometry": {
        "type": "Point",
        "coordinates": [
          -3.192594698318735,
          55.957195386968095
        ]
      },
      "properties": {
        "stratum": "ground_surface",
        "primary_surfacing": "Engineered roadway and paved pedestrian curbs",
        "wear_characteristics": "Authentic environmental patina and drainage grading"
      }
    },
    {
      "type": "Feature",
      "id": "stratum_4_landscape_ecology",
      "geometry": {
        "type": "Point",
        "coordinates": [
          -3.192594698318735,
          55.957195386968095
        ]
      },
      "properties": {
        "stratum": "landscape_ecology",
        "botanical_analysis": "Drummond Place Gardens features mature urban woodland enclosed by perimeter wrought-iron railings. Canopy species: *Ulmus glabra* (Wych elm), *Platanus \u00d7 acerifolia* (London plane), *Acer pseudoplatanus* (Sycamore maple), *Fagus sylvatica* (European beech), and *Tilia \u00d7 europaea* (Common lime). Date phenology (November 11): Advanced late-autumn senescence with 75% to 85% defoliation; stark branch architectures and fractal limb systems exposed; remaining leaves present as sparse russet, ochre, and deep umber patches; garden lawn surfaces are covered in damp fallen leaf litter.",
        "foliage_rectification": "Disambiguated from masonry mesh"
      }
    },
    {
      "type": "Feature",
      "id": "stratum_5_built_environment",
      "geometry": {
        "type": "Point",
        "coordinates": [
          -3.192594698318735,
          55.957195386968095
        ]
      },
      "properties": {
        "stratum": "built_environment",
        "architectural_summary": "Classic Regency and Georgian New Town urban composition planned by Robert Reid and William Sibbald (1801\u20131824). Uniform streetwall blocks, crescent quadrants, and rectilinear terraces feature rigid planar alignments with vertical gravity rectification. Structural configurations consist of 3-to-4-storey elevations over rusticated sunken basements bridged by stone platts with wrought iron spearhead balustrades. Piano nobile and upper floors display polished ashlar stone facades with moulded stringcourses, continuous eaves cornices, and blocking courses. Rooflines are double-pitched timber rafters clad in dark grey Ballachulish slate, punctuated by regular canted and piended slate-clad dormers and massive ashlar wall-head chimney stacks supporting arrays of terracotta chimney pots. Fenestration is strictly aligned to a vertical grid of 6-over-6 and 12-pane timber sash-and-case windows with thin glazing bars (astragals).",
        "structures": [
          {
            "name": "Primary Facade",
            "storeys": 2,
            "height_m": 7.5,
            "roof_geometry": "pitched / parapet",
            "facade_material": "authentic regional masonry",
            "planar_rectification": "ENFORCED"
          }
        ]
      }
    },
    {
      "type": "Feature",
      "id": "stratum_6_dynamic_elements",
      "geometry": {
        "type": "Point",
        "coordinates": [
          -3.192594698318735,
          55.957195386968095
        ]
      },
      "properties": {
        "stratum": "dynamic_elements",
        "transient_decluttering": "ENFORCED",
        "vehicles": "NONE",
        "pedestrians": "NONE",
        "transient_clutter": "STRIPPED",
        "permanent_civil_fabric": "PRESERVED"
      }
    },
    {
      "type": "Feature",
      "id": "stratum_7_atmospheric_state",
      "geometry": null,
      "properties": {
        "stratum": "atmospheric_state",
        "lighting_rig": "SOLAR_EPHEMERIS",
        "timestamp_utc": "2025-11-11T12:30:00+00:00",
        "weather_state": "SUNNY",
        "solar_azimuth_deg": 188.22,
        "solar_elevation_deg": 16.48,
        "shadow_azimuth_deg": 8.2,
        "color_temperature_k": 4500,
        "ambient_illuminance_lux": 35000
      }
    }
  ]
}