{
  "type": "FeatureCollection",
  "properties": {
    "address": "14 Dublin St Ln N, Edinburgh EH3 6NT, UK",
    "spatial_mode": "3D_TILES",
    "schema_version": "7-Strata-v2.0"
  },
  "features": [
    {
      "type": "Feature",
      "id": "stratum_1_observer_frame",
      "geometry": {
        "type": "Point",
        "coordinates": [
          -3.1933138918979083,
          55.9578720849437
        ]
      },
      "properties": {
        "stratum": "observer_frame",
        "spatial_mode": "3D_TILES",
        "camera": {
          "altitude_m_agl": 145.0,
          "pitch_deg": -23.8,
          "heading_deg": 320.0,
          "fov_deg": 60.0
        }
      }
    },
    {
      "type": "Feature",
      "id": "stratum_2_subterranean_geology",
      "geometry": {
        "type": "Point",
        "coordinates": [
          -3.1933138918979083,
          55.9578720849437
        ]
      },
      "properties": {
        "stratum": "subterranean_geology",
        "foundation_analysis": "- Bedrock: Carboniferous sedimentary sequences of the Midland Valley basin, predominantly Lower Carboniferous (Tournaisian-Vis\u00e9an) sandstones, shales, and mudstones with dolerite intrusions.\n- Lithics & Quarries: Fine-to-medium grained quartzose blonde/buff sandstone from Craigleith and Hailes quarries; secondary grey-brown sandstone rubble on rear and flanking elevations; Caithness flagstone paving slabs; Scottish whinstone and granite setts lining the perimeter roadway.\n- Mortar Chemistry: Traditional non-hydraulic to weakly hydraulic hot-mixed slaked lime mortar (calcium carbonate matrices) with sharp pit-sand aggregate, devoid of modern Portland cements.\n- Hydrogeology & Drainage: Glacial till overburden sloping gently northwards towards the Water of Leith basin, controlled via sub-pavement vaulted cellars, sunken dry-area retaining lightwells, and stone culverts."
      }
    },
    {
      "type": "Feature",
      "id": "stratum_3_ground_surface",
      "geometry": {
        "type": "Point",
        "coordinates": [
          -3.1933138918979083,
          55.9578720849437
        ]
      },
      "properties": {
        "stratum": "ground_surface",
        "primary_surfacing": "Engineered roadway and paved pedestrian curbs",
        "wear_characteristics": "Authentic environmental patina and drainage grading"
      }
    },
    {
      "type": "Feature",
      "id": "stratum_4_landscape_ecology",
      "geometry": {
        "type": "Point",
        "coordinates": [
          -3.1933138918979083,
          55.9578720849437
        ]
      },
      "properties": {
        "stratum": "landscape_ecology",
        "botanical_analysis": "- Botanical Classification: Drummond Place Gardens central communal canopy. Dominant specimen trees: *Acer pseudoplatanus* (Sycamore), *Ulmus glabra* (Wych Elm), *Tilia \u00d7 europaea* (Common Lime), *Aesculus hippocastanum* (Horse Chestnut), and *Fagus sylvatica* (Copper/European Beech).\n- Understory & Enclosure: Perimeter *Ligustrum vulgare* (Privet), *Ilex aquifolium* (Holly), and mature rhododendron shrubberies contained behind boundary cast-iron railings.\n- Canopy Phenology: Dense late-summer/early-autumn full crown volume, deep chlorophyll saturation showing initial localized tip chlorosis (early ochre/amber tinting) on deciduous margins; distinct dendritic scaffold limb branching through organic voids.",
        "foliage_rectification": "Disambiguated from masonry mesh"
      }
    },
    {
      "type": "Feature",
      "id": "stratum_5_built_environment",
      "geometry": {
        "type": "Point",
        "coordinates": [
          -3.1933138918979083,
          55.9578720849437
        ]
      },
      "properties": {
        "stratum": "built_environment",
        "architectural_summary": "- Typology: Edinburgh Second New Town neoclassical residential square / circus (planned 1802 by Robert Reid and William Sibbald, completed c. 1823 by Thomas Bonnar).\n- Structural Hierarchy & Massing: Multi-bay continuous terraces comprising 3-storey to 4-storey residential blocks with sunken basement lightwells and hipped attic dormer levels. Terminal pavilions articulated with engaged Ionic and panelled pilasters flanking upper bays.\n- Fenestration & Openings: Strict vertical alignment; ground floor set in round-arched recessed ashlar panels with semicircular and rectangular radial timber fanlights over panelled timber entrance doors; upper floors featuring uniform 12-pane (6-over-6) timber sash-and-case windows; projecting ashlar continuous string courses and moulded eaves cornices.\n- Roof Geometry & Chimneys: Scottish grey-slate M-profile and pitched roofs behind blocking courses; heavy broached ashlar wallhead and ridge stacks with tall cylindrical terracotta flue cans.\n- Planar Rectification: Complete plumb rectification of photogrammetric mesh distortion; facades straightened to true vertical planes; horizontal parapets, cornices, and gutter alignments corrected.",
        "structures": [
          {
            "name": "Primary Facade",
            "storeys": 2,
            "height_m": 7.5,
            "roof_geometry": "pitched / parapet",
            "facade_material": "authentic regional masonry",
            "planar_rectification": "ENFORCED"
          }
        ]
      }
    },
    {
      "type": "Feature",
      "id": "stratum_6_dynamic_elements",
      "geometry": {
        "type": "Point",
        "coordinates": [
          -3.1933138918979083,
          55.9578720849437
        ]
      },
      "properties": {
        "stratum": "dynamic_elements",
        "transient_decluttering": "ENFORCED",
        "vehicles": "NONE",
        "pedestrians": "NONE",
        "transient_clutter": "STRIPPED",
        "permanent_civil_fabric": "PRESERVED"
      }
    },
    {
      "type": "Feature",
      "id": "stratum_7_atmospheric_state",
      "geometry": null,
      "properties": {
        "stratum": "atmospheric_state",
        "lighting_rig": "SOLAR_EPHEMERIS",
        "timestamp_utc": "2026-11-11T15:30:46.395334+00:00",
        "weather_state": "SUNNY",
        "temperature_c": 15.0,
        "solar_azimuth_deg": 309.73,
        "solar_elevation_deg": 4.16,
        "shadow_azimuth_deg": 129.7,
        "color_temperature_k": 3000,
        "ambient_illuminance_lux": 12000
      }
    }
  ]
}