{
  "type": "FeatureCollection",
  "properties": {
    "address": "9 St Colme St, Edinburgh EH3 6AA, UK",
    "spatial_mode": "3D_TILES",
    "schema_version": "7-Strata-v2.0"
  },
  "features": [
    {
      "type": "Feature",
      "id": "stratum_1_observer_frame",
      "geometry": {
        "type": "Point",
        "coordinates": [
          -3.2089333214041513,
          55.95295814777533
        ]
      },
      "properties": {
        "stratum": "observer_frame",
        "spatial_mode": "3D_TILES",
        "camera": {
          "altitude_m_agl": 145.2,
          "pitch_deg": -1.6,
          "heading_deg": 186.8,
          "fov_deg": 60.0
        }
      }
    },
    {
      "type": "Feature",
      "id": "stratum_2_subterranean_geology",
      "geometry": {
        "type": "Point",
        "coordinates": [
          -3.2089333214041513,
          55.95295814777533
        ]
      },
      "properties": {
        "stratum": "subterranean_geology",
        "foundation_analysis": "- Bedrock Stratigraphy: Lower Carboniferous (Tournaisian\u2013Visean) sedimentary succession of the Inverclyde and Strathclyde Groups, predominantly calciferous sandstone measures interbedded with siltstone and mudstone, overlying Devonian Old Red Sandstone, bounded by the Calton fault block system.\n- Primary Lithics: Upper Lower Carboniferous quartz arenite sandstone sourced directly from local quarries\u2014predominantly Craigleith Quarry (pale buff to silver-grey siliceous sandstone), complemented by Hailes Quarry (argillaceous laminated sandstone) and Binny Sandstone for ashlar dressings.\n- Aggregate & Paving: Devonian olivine-basalt and quartz-dolerite (Whin) kerbs and setts; Devonian Caithness flagstone and Carboniferous flagstone pedestrian pavements.\n- Mortar Chemistry: Traditional hydraulic and non-hydraulic lime mortars composed of hot-mixed quicklime, local coarse river sand, and crushed sandstone fines, exhibiting natural carbonation with high vapour permeability."
      }
    },
    {
      "type": "Feature",
      "id": "stratum_3_ground_surface",
      "geometry": {
        "type": "Point",
        "coordinates": [
          -3.2089333214041513,
          55.95295814777533
        ]
      },
      "properties": {
        "stratum": "ground_surface",
        "primary_surfacing": "Engineered roadway and paved pedestrian curbs",
        "wear_characteristics": "Authentic environmental patina and drainage grading"
      }
    },
    {
      "type": "Feature",
      "id": "stratum_4_landscape_ecology",
      "geometry": {
        "type": "Point",
        "coordinates": [
          -3.2089333214041513,
          55.95295814777533
        ]
      },
      "properties": {
        "stratum": "landscape_ecology",
        "botanical_analysis": "- Urban Woodland Typology: Mixed cool-temperate urban estate trees within Queen Street Gardens and Charlotte Square enclosures.\n- Species Identification: Dominance of *Acer pseudoplatanus* (Sycamore), *Ulmus glabra* (Wych Elm), *Tilia \u00d7 europaea* (Common Lime), and occasional *Aesculus hippocastanum* (Horse Chestnut).\n- Phenology (Mid-November / Epoch 2026-11-11): Late autumn transitional state; 80\u201390% canopy defoliation across mature deciduous specimens; intricate bare woody branch architectures exposed; residual sparse leaves exhibiting advanced senescent chlorosis, dull ochre-brown coloration, and curled margins clinging to terminal twigs; damp ground plane covered by fallen leaf litter.",
        "foliage_rectification": "Disambiguated from masonry mesh"
      }
    },
    {
      "type": "Feature",
      "id": "stratum_5_built_environment",
      "geometry": {
        "type": "Point",
        "coordinates": [
          -3.2089333214041513,
          55.95295814777533
        ]
      },
      "properties": {
        "stratum": "built_environment",
        "architectural_summary": "- Typology: Georgian / Regency Neoclassical terraced townhouses (Albyn Place / St Colme Street, Moray Estate / New Town expansion) and monumental civic ecclesiastical architecture (West Register House / Former St George\u2019s Church, designed by Robert Reid after Robert Adam, 1811\u20131814).\n- Planar Rectification: All vertical facade planes rectified to absolute 90\u00b0 plumb lines; photogrammetric mesh faceting eliminated across continuous rusticated basements, string courses, modillion cornices, and roof ridgelines.\n- West Register House: Colossal square-plan neo-classical base with tetrastyle Ionic portico in antis, stepped stylobate, engaged corner pavilions, massive cylindrical peristyle drum with peristyle colonnade and alternating niches/oculi, surmounted by a ribbed hemispherical dome and gilded cupola lantern.\n- Terraced Facades: 3-storey plus basement and attic terraced townhouses; channelled rusticated ground floors with voussoired segmental window arches; smooth dressed ashlar piano nobile with molded architraves and pediments; 6-over-6 and 2-over-2 timber double-hung sash-and-case fenestration grids; continuous blocking courses and parapets; Scottish slate pitched roofs punctured by periodic dormers and ashlar chimney stacks with terracotta pots.",
        "structures": [
          {
            "name": "Primary Facade",
            "storeys": 2,
            "height_m": 7.5,
            "roof_geometry": "pitched / parapet",
            "facade_material": "authentic regional masonry",
            "planar_rectification": "ENFORCED"
          }
        ]
      }
    },
    {
      "type": "Feature",
      "id": "stratum_6_dynamic_elements",
      "geometry": {
        "type": "Point",
        "coordinates": [
          -3.2089333214041513,
          55.95295814777533
        ]
      },
      "properties": {
        "stratum": "dynamic_elements",
        "transient_decluttering": "ENFORCED",
        "vehicles": "NONE",
        "pedestrians": "NONE",
        "transient_clutter": "STRIPPED",
        "permanent_civil_fabric": "PRESERVED"
      }
    },
    {
      "type": "Feature",
      "id": "stratum_7_atmospheric_state",
      "geometry": null,
      "properties": {
        "stratum": "atmospheric_state",
        "lighting_rig": "SOLAR_EPHEMERIS",
        "timestamp_utc": "2026-11-11T13:30:00+00:00",
        "weather_state": "RAIN",
        "solar_azimuth_deg": 202.87,
        "solar_elevation_deg": 14.23,
        "shadow_azimuth_deg": 22.9,
        "color_temperature_k": 4500,
        "ambient_illuminance_lux": 35000
      }
    }
  ]
}