{
  "type": "FeatureCollection",
  "properties": {
    "address": "Playfair House, Broughton St Ln, Edinburgh EH1 3LY, UK",
    "spatial_mode": "3D_TILES",
    "schema_version": "7-Strata-v2.0"
  },
  "features": [
    {
      "type": "Feature",
      "id": "stratum_1_observer_frame",
      "geometry": {
        "type": "Point",
        "coordinates": [
          -3.187640274834207,
          55.95751198466491
        ]
      },
      "properties": {
        "stratum": "observer_frame",
        "spatial_mode": "3D_TILES",
        "camera": {
          "altitude_m_agl": 141.9,
          "pitch_deg": -52.5,
          "heading_deg": 216.8,
          "fov_deg": 60.0
        }
      }
    },
    {
      "type": "Feature",
      "id": "stratum_2_subterranean_geology",
      "geometry": {
        "type": "Point",
        "coordinates": [
          -3.187640274834207,
          55.95751198466491
        ]
      },
      "properties": {
        "stratum": "subterranean_geology",
        "foundation_analysis": "- **Bedrock Lithology:** Carboniferous sedimentary sequences of the Gullane Formation (Strathclyde Group), characterized by interbedded sandstones, siltstones, and mudstones situated over the Calton volcanic bedrock periphery.\n- **Building Lithics:** Primary construction utilizing blonde-to-grey Craigleith quartz-arenite sandstone, Hailes micaceous laminated sandstone for coursed rubble rear elevations, and fine-grained Darney/Cullalo sandstone dressings.\n- **Mortar Chemistry:** Traditional non-hydraulic to weakly hydraulic slaked lime mortar blended with sharp river aggregate; localized 20th-century Portland cement repointing at low courses.\n- **Hydrology & Drainage:** Glacial till over permeable sedimentary strata; regional subterranean gradient draining northeast towards the Water of Leith basin."
      }
    },
    {
      "type": "Feature",
      "id": "stratum_3_ground_surface",
      "geometry": {
        "type": "Point",
        "coordinates": [
          -3.187640274834207,
          55.95751198466491
        ]
      },
      "properties": {
        "stratum": "ground_surface",
        "primary_surfacing": "Engineered roadway and paved pedestrian curbs",
        "wear_characteristics": "Authentic environmental patina and drainage grading"
      }
    },
    {
      "type": "Feature",
      "id": "stratum_4_landscape_ecology",
      "geometry": {
        "type": "Point",
        "coordinates": [
          -3.187640274834207,
          55.95751198466491
        ]
      },
      "properties": {
        "stratum": "landscape_ecology",
        "botanical_analysis": "- **Botanical Identifiers:** Courtyard specimens of *Acer pseudoplatanus* (Sycamore maple) and *Fraxinus excelsior* (European ash), with boundary colonization by *Hedera helix* (English ivy).\n- **Phenology (Late Summer / August):** Heavy, fully expanded deep-green foliage; mature broad canopy volume with localized leaf-margin desiccation; dense vegetative undergrowth along courtyard garden plots.",
        "foliage_rectification": "Disambiguated from masonry mesh"
      }
    },
    {
      "type": "Feature",
      "id": "stratum_5_built_environment",
      "geometry": {
        "type": "Point",
        "coordinates": [
          -3.187640274834207,
          55.95751198466491
        ]
      },
      "properties": {
        "stratum": "built_environment",
        "architectural_summary": "- **Typology:** Late Georgian New Town multi-storey tenement blocks (circa 1800\u20131820) enclosing mews back-lanes, juxtaposed with 20th-century rear infill structures (Playfair House complex).\n- **Storey Massing & Envelope:** 4-to-5 storey primary tenement elevations with attic storeys, stepped down to 1-to-3 storey pitched-roof mews wings and flat-roofed annexes.\n- **Fenestration:** Regular vertical fenestration grid of timber sash-and-case windows (12-pane, 6-over-6, and Victorian 2-over-2 configurations) set in recessed stone margins with projected sills and flat arched lintels.\n- **Roof Geometry:** Pitched dual-pitch roofs clad in diminishing-course Scottish and Welsh blue-grey slates, punctuated by gabled and piended slate-cheeked dormers, stone coped skews, lead valleys, and multi-flue sandstone chimney stacks with terracotta pots.\n- **Planar Rectification:** Strict vertical alignment of tenement load-bearing party walls, planarization of rear elevations, plumb chimney stacks, and sharp rectification of eaves lines.",
        "structures": [
          {
            "name": "Primary Facade",
            "storeys": 2,
            "height_m": 7.5,
            "roof_geometry": "pitched / parapet",
            "facade_material": "authentic regional masonry",
            "planar_rectification": "ENFORCED"
          }
        ]
      }
    },
    {
      "type": "Feature",
      "id": "stratum_6_dynamic_elements",
      "geometry": {
        "type": "Point",
        "coordinates": [
          -3.187640274834207,
          55.95751198466491
        ]
      },
      "properties": {
        "stratum": "dynamic_elements",
        "transient_decluttering": "ENFORCED",
        "vehicles": "NONE",
        "pedestrians": "NONE",
        "transient_clutter": "STRIPPED",
        "permanent_civil_fabric": "PRESERVED"
      }
    },
    {
      "type": "Feature",
      "id": "stratum_7_atmospheric_state",
      "geometry": null,
      "properties": {
        "stratum": "atmospheric_state",
        "lighting_rig": "CAMERA_FLOODLIGHT",
        "timestamp_utc": "2026-08-28T11:54:44.033666+00:00",
        "weather_state": "OVERCAST",
        "ambient_lux": 0,
        "color_temperature_k": 5600,
        "beam_vector": {
          "heading_deg": 216.8,
          "pitch_deg": -52.5
        }
      }
    }
  ]
}