{
  "type": "FeatureCollection",
  "properties": {
    "address": "West End, Atholl Cres, Edinburgh EH3 8HA, UK",
    "spatial_mode": "3D_TILES",
    "schema_version": "7-Strata-v2.0"
  },
  "features": [
    {
      "type": "Feature",
      "id": "stratum_1_observer_frame",
      "geometry": {
        "type": "Point",
        "coordinates": [
          -3.2117615343712074,
          55.94840046681126
        ]
      },
      "properties": {
        "stratum": "observer_frame",
        "spatial_mode": "3D_TILES",
        "camera": {
          "altitude_m_agl": 151.1,
          "pitch_deg": -6.7,
          "heading_deg": 43.6,
          "fov_deg": 60.0
        }
      }
    },
    {
      "type": "Feature",
      "id": "stratum_2_subterranean_geology",
      "geometry": {
        "type": "Point",
        "coordinates": [
          -3.2117615343712074,
          55.94840046681126
        ]
      },
      "properties": {
        "stratum": "subterranean_geology",
        "foundation_analysis": "- Subterranean Bedrock: Underlain by the Carboniferous Strathclyde and Inverclyde Group sandstones, siltstones, and basalts characteristic of the Edinburgh volcanic complex.\n- Indigenous Lithics: Predominantly polished fine-grained pale honey-buff and grey Craigleith and Hailes sandstones (Calciferous Sandstone Series) dominating the ashlar masonry and coursed rubble tenements.\n- Mortar Chemistry: Traditional non-hydraulic and feebly hydraulic slaked lime-sand mortars with fine grit aggregate, deeply recessed along restored joints.\n- Drainage & Topography: Elevated terrace sloping gently northeast toward the Firth of Forth basin, with artificial subsurface drainage networks established during the 18th- and 19th-century New Town expansions."
      }
    },
    {
      "type": "Feature",
      "id": "stratum_3_ground_surface",
      "geometry": {
        "type": "Point",
        "coordinates": [
          -3.2117615343712074,
          55.94840046681126
        ]
      },
      "properties": {
        "stratum": "ground_surface",
        "primary_surfacing": "Engineered roadway and paved pedestrian curbs",
        "wear_characteristics": "Authentic environmental patina and drainage grading"
      }
    },
    {
      "type": "Feature",
      "id": "stratum_4_landscape_ecology",
      "geometry": {
        "type": "Point",
        "coordinates": [
          -3.2117615343712074,
          55.94840046681126
        ]
      },
      "properties": {
        "stratum": "landscape_ecology",
        "botanical_analysis": "- Urban Canopy: Mature broadleaf deciduous trees (principally *Acer pseudoplatanus* / Sycamore, *Tilia x europaea* / Common Lime, and *Ulmus glabra* / Wych Elm) emerging from courtyard pockets and Charlotte Square gardens to the rear/east, rendered with dense, authentic leafy branching and natural organic canopies rather than solid polygonal volume.",
        "foliage_rectification": "Disambiguated from masonry mesh"
      }
    },
    {
      "type": "Feature",
      "id": "stratum_5_built_environment",
      "geometry": {
        "type": "Point",
        "coordinates": [
          -3.2117615343712074,
          55.94840046681126
        ]
      },
      "properties": {
        "stratum": "built_environment",
        "architectural_summary": "- Core Focal Monument: St George's West Church (Charlotte Chapel, 58 Shandwick Place) featuring a Roman Baroque body (designed by David Bryce, 1866\u20131869) integrated with a 4-stage Venetian campanile/belfry terminating in a pale copper-clad pyramidal spire (designed by Sir Robert Rowand Anderson, 1879\u20131881, inspired by San Giorgio Maggiore).\n- Skyline Secondary Anchor (Background Left): The Neoclassical dome of West Register House (formerly St George's Church, Charlotte Square, by Robert Reid, 1811\u20131814), featuring a tall peristyle drum supporting a ribbed copper dome and lantern cupola.\n- Urban Tenement Blocks: 3- to 4-storey plus attic Classical and Victorian tenements with timber double-hung sash-and-case fenestration, rusticated ashlar ground-floor arcades, pronounced moulded string courses, dentilled eaves, vertical chimney stacks with terracotta chimney pots, and zinc/slate mansard roofs with dormer windows.\n- Planar Rectification: All vertical load-bearing facades, corner pilasters, and campanile shafts plumbed perpendicular to the horizon; warped mesh artifacts eliminated from slate roofs, parapets, and cornices.",
        "structures": [
          {
            "name": "Primary Facade",
            "storeys": 2,
            "height_m": 7.5,
            "roof_geometry": "pitched / parapet",
            "facade_material": "authentic regional masonry",
            "planar_rectification": "ENFORCED"
          }
        ]
      }
    },
    {
      "type": "Feature",
      "id": "stratum_6_dynamic_elements",
      "geometry": {
        "type": "Point",
        "coordinates": [
          -3.2117615343712074,
          55.94840046681126
        ]
      },
      "properties": {
        "stratum": "dynamic_elements",
        "transient_decluttering": "ENFORCED",
        "vehicles": "NONE",
        "pedestrians": "NONE",
        "transient_clutter": "STRIPPED",
        "permanent_civil_fabric": "PRESERVED"
      }
    },
    {
      "type": "Feature",
      "id": "stratum_7_atmospheric_state",
      "geometry": null,
      "properties": {
        "stratum": "atmospheric_state",
        "lighting_rig": "SOLAR_EPHEMERIS",
        "timestamp_utc": "2026-08-27T20:12:50.822768+00:00",
        "weather_state": "RAIN",
        "temperature_c": 15.0,
        "solar_azimuth_deg": 239.65,
        "solar_elevation_deg": -7.16,
        "shadow_azimuth_deg": 59.6,
        "color_temperature_k": 2000,
        "ambient_illuminance_lux": 5
      }
    }
  ]
}