{
  "type": "FeatureCollection",
  "properties": {
    "address": "8 Ainslie Pl, Edinburgh EH3 6AS, UK",
    "spatial_mode": "3D_TILES",
    "schema_version": "7-Strata-v2.0"
  },
  "features": [
    {
      "type": "Feature",
      "id": "stratum_1_observer_frame",
      "geometry": {
        "type": "Point",
        "coordinates": [
          -3.2101492786067856,
          55.953365569624125
        ]
      },
      "properties": {
        "stratum": "observer_frame",
        "spatial_mode": "3D_TILES",
        "camera": {
          "altitude_m_agl": 2.1,
          "pitch_deg": 5.5,
          "heading_deg": 290.5,
          "fov_deg": 60.0
        }
      }
    },
    {
      "type": "Feature",
      "id": "stratum_2_subterranean_geology",
      "geometry": {
        "type": "Point",
        "coordinates": [
          -3.2101492786067856,
          55.953365569624125
        ]
      },
      "properties": {
        "stratum": "subterranean_geology",
        "foundation_analysis": "Subterranean Carboniferous sedimentary bedrock overlain by glacial till. Primary building fabric comprises fine-grained, pale blonde to buff Craigleith and Hailes quartzose sandstone. Masonry bound with traditional non-hydraulic to weakly hydraulic lime and sharp quartz sand mortar."
      }
    },
    {
      "type": "Feature",
      "id": "stratum_3_ground_surface",
      "geometry": {
        "type": "Point",
        "coordinates": [
          -3.2101492786067856,
          55.953365569624125
        ]
      },
      "properties": {
        "stratum": "ground_surface",
        "primary_surfacing": "Engineered roadway and paved pedestrian curbs",
        "wear_characteristics": "Authentic environmental patina and drainage grading"
      }
    },
    {
      "type": "Feature",
      "id": "stratum_4_landscape_ecology",
      "geometry": {
        "type": "Point",
        "coordinates": [
          -3.2101492786067856,
          55.953365569624125
        ]
      },
      "properties": {
        "stratum": "landscape_ecology",
        "botanical_analysis": "Central crescent garden interior populated by mature *Platanus \u00d7 acerifolia* (London plane) and *Acer pseudoplatanus* (Sycamore). September 24 late-summer to early-autumn phenology: dense canopies exhibiting initial leaf chlorosis, yellowing outer margins, and early dispersed litterfall over dense *Lolium perenne* and *Festuca rubra* lawn.",
        "foliage_rectification": "Disambiguated from masonry mesh"
      }
    },
    {
      "type": "Feature",
      "id": "stratum_5_built_environment",
      "geometry": {
        "type": "Point",
        "coordinates": [
          -3.2101492786067856,
          55.953365569624125
        ]
      },
      "properties": {
        "stratum": "built_environment",
        "architectural_summary": "Curved Georgian Neo-Classical residential circus terrace (c. 1822, James Gillespie Graham). Massing forms a four-storey continuous concave elevation over sunken basement lightwells. Ground floor exhibits channelled V-jointed ashlar rustication; upper storeys feature polished ashlar with continuous string courses, moulded architraves, Doric/Ionic pilaster rhythm, full entablature, and parapet blocking course. Regular fenestration grid of multi-pane 6-over-6 and 12-over-12 painted timber sash-and-case windows. Pitched roofs clad in Scottish slate with regular sandstone ashlar chimney stacks.",
        "structures": [
          {
            "name": "Primary Facade",
            "storeys": 2,
            "height_m": 7.5,
            "roof_geometry": "pitched / parapet",
            "facade_material": "authentic regional masonry",
            "planar_rectification": "ENFORCED"
          }
        ]
      }
    },
    {
      "type": "Feature",
      "id": "stratum_6_dynamic_elements",
      "geometry": {
        "type": "Point",
        "coordinates": [
          -3.2101492786067856,
          55.953365569624125
        ]
      },
      "properties": {
        "stratum": "dynamic_elements",
        "transient_decluttering": "ENFORCED",
        "vehicles": "NONE",
        "pedestrians": "NONE",
        "transient_clutter": "STRIPPED",
        "permanent_civil_fabric": "PRESERVED"
      }
    },
    {
      "type": "Feature",
      "id": "stratum_7_atmospheric_state",
      "geometry": null,
      "properties": {
        "stratum": "atmospheric_state",
        "lighting_rig": "SOLAR_EPHEMERIS",
        "timestamp_utc": "2026-09-24T13:00:00+00:00",
        "weather_state": "RAIN",
        "solar_azimuth_deg": 196.48,
        "solar_elevation_deg": 32.78,
        "shadow_azimuth_deg": null,
        "color_temperature_k": 5400,
        "ambient_illuminance_lux": 60000
      }
    }
  ]
}