{
  "type": "FeatureCollection",
  "properties": {
    "address": "9 Eglinton Cres, Edinburgh EH12 5DD, UK",
    "spatial_mode": "3D_TILES",
    "schema_version": "7-Strata-v2.0"
  },
  "features": [
    {
      "type": "Feature",
      "id": "stratum_1_observer_frame",
      "geometry": {
        "type": "Point",
        "coordinates": [
          -3.2193334934130013,
          55.94913958225753
        ]
      },
      "properties": {
        "stratum": "observer_frame",
        "spatial_mode": "3D_TILES",
        "camera": {
          "altitude_m_agl": 199.6,
          "pitch_deg": -13.2,
          "heading_deg": 117.2,
          "fov_deg": 60.0
        }
      }
    },
    {
      "type": "Feature",
      "id": "stratum_2_subterranean_geology",
      "geometry": {
        "type": "Point",
        "coordinates": [
          -3.2193334934130013,
          55.94913958225753
        ]
      },
      "properties": {
        "stratum": "subterranean_geology",
        "foundation_analysis": "The subterranean strata beneath Edinburgh's West End consist of early Carboniferous sedimentary sequences of the Strathclyde Group (sandstones, siltstones, and thin mudstones/shales), uncomformably overlying volcanic intrusions and basaltic plugs such as those forming Castle Rock and Arthur's Seat visible on the eastern horizon. The primary construction material defining the entire vista is indigenous Carboniferous Craigleith and Hailes sandstone\u2014a quartz-rich, pale greyish-buff to light olive-brown sandstone known for exceptional density and silica cementation. Mortar beds throughout the Victorian and late Georgian ashlar construction are formulated from traditional non-hydraulic to weakly hydraulic lime mortar aggregate mixtures. Subterranean moisture management relies on natural subterranean gradients draining towards the Water of Leith basin, with extensive subterranean basement lightwells (areas) lined with droved stone retaining walls."
      }
    },
    {
      "type": "Feature",
      "id": "stratum_3_ground_surface",
      "geometry": {
        "type": "Point",
        "coordinates": [
          -3.2193334934130013,
          55.94913958225753
        ]
      },
      "properties": {
        "stratum": "ground_surface",
        "primary_surfacing": "Engineered roadway and paved pedestrian curbs",
        "wear_characteristics": "Authentic environmental patina and drainage grading"
      }
    },
    {
      "type": "Feature",
      "id": "stratum_4_landscape_ecology",
      "geometry": {
        "type": "Point",
        "coordinates": [
          -3.2193334934130013,
          55.94913958225753
        ]
      },
      "properties": {
        "stratum": "landscape_ecology",
        "botanical_analysis": "Urban mature deciduous trees punctuate private cathedral grounds, garden enclosures, and flanking avenue sidewalks. Botanical species include mature European sycamores (*Acer pseudoplatanus*), English oaks (*Quercus robur*), London plane trees (*Platanus x acerifolia*), and Wych elms (*Ulmus glabra*), rendered with full leafy canopies, distinct organic branch architecture, and healthy urban turfgrass borders within the cathedral perimeter grounds.",
        "foliage_rectification": "Disambiguated from masonry mesh"
      }
    },
    {
      "type": "Feature",
      "id": "stratum_5_built_environment",
      "geometry": {
        "type": "Point",
        "coordinates": [
          -3.2193334934130013,
          55.94913958225753
        ]
      },
      "properties": {
        "stratum": "built_environment",
        "architectural_summary": "The central visual anchor is St Mary's Episcopal Cathedral (designed by Sir George Gilbert Scott, consecrated 1879), an Early English/Gothic Revival cruciform cathedral featuring a towering 90m central crossing spire with decorative broaches, paired 84m western flanking towers (\"Barbara\" and \"Mary\", completed 1917), steeply pitched slate rooflines, clear cross-gabled transepts, flying buttresses, and tall lancet clerestory windows. Surrounding the cathedral is the high-density Victorian and late Georgian West End residential/civic grid, predominantly 3-to-4 storey plus raised basement and attic dormer terraced tenements and crescent townhouses (e.g., Palmerston Place, Eglinton Crescent). All photogrammetry distortion is rectified: wall planes are plumbed to absolute gravity-vertical; long continuous slate mansards, chimneys stacks, stone balustrades, string courses, and ashlar cornices form rigid, planar linear horizontals.",
        "structures": [
          {
            "name": "Primary Facade",
            "storeys": 2,
            "height_m": 7.5,
            "roof_geometry": "pitched / parapet",
            "facade_material": "authentic regional masonry",
            "planar_rectification": "ENFORCED"
          }
        ]
      }
    },
    {
      "type": "Feature",
      "id": "stratum_6_dynamic_elements",
      "geometry": {
        "type": "Point",
        "coordinates": [
          -3.2193334934130013,
          55.94913958225753
        ]
      },
      "properties": {
        "stratum": "dynamic_elements",
        "transient_decluttering": "ENFORCED",
        "vehicles": "NONE",
        "pedestrians": "NONE",
        "transient_clutter": "STRIPPED",
        "permanent_civil_fabric": "PRESERVED"
      }
    },
    {
      "type": "Feature",
      "id": "stratum_7_atmospheric_state",
      "geometry": null,
      "properties": {
        "stratum": "atmospheric_state",
        "lighting_rig": "SOLAR_EPHEMERIS",
        "timestamp_utc": "2026-08-27T00:08:52.640038+00:00",
        "weather_state": "SUNNY",
        "temperature_c": 15.0,
        "solar_azimuth_deg": 181.63,
        "solar_elevation_deg": -23.52,
        "shadow_azimuth_deg": 1.6,
        "color_temperature_k": 2000,
        "ambient_illuminance_lux": 5
      }
    }
  ]
}