{
  "type": "FeatureCollection",
  "properties": {
    "address": "12 Charlotte Square, Edinburgh EH2 4ET, UK",
    "spatial_mode": "3D_TILES",
    "schema_version": "7-Strata-v2.0"
  },
  "features": [
    {
      "type": "Feature",
      "id": "stratum_1_observer_frame",
      "geometry": {
        "type": "Point",
        "coordinates": [
          -3.2071626013510146,
          55.95193940179104
        ]
      },
      "properties": {
        "stratum": "observer_frame",
        "spatial_mode": "3D_TILES",
        "camera": {
          "altitude_m_agl": 1.4,
          "pitch_deg": 4.8,
          "heading_deg": 245.5,
          "fov_deg": 60.0
        }
      }
    },
    {
      "type": "Feature",
      "id": "stratum_2_subterranean_geology",
      "geometry": {
        "type": "Point",
        "coordinates": [
          -3.2071626013510146,
          55.95193940179104
        ]
      },
      "properties": {
        "stratum": "subterranean_geology",
        "foundation_analysis": "Subterranean geology comprises Carboniferous sedimentary sequences of the Strathclyde Group (sandstones, siltstones, and oil-shale bedrock) mantled by dense Devensian glacial lodgement till and boulder clay. Architectural lithics are dominated by pale buff and blonde Craigleith and Hailes sandstone (calciferous, fine-grained quartz arenite characterized by silica cementation and exceptional compressive strength). Secondary lithics include Dalbeattie and Peterhead pink biotite granite used for the monumental pedestal base, dressed with fine axed and polished finishes. Historic bedding and pointing utilize semi-hydraulic non-ferrous hot-mixed lime mortar with graded quartz river sand. Subsurface groundwater movement follows the westerly topographic fall toward the Water of Leith basin."
      }
    },
    {
      "type": "Feature",
      "id": "stratum_3_ground_surface",
      "geometry": {
        "type": "Point",
        "coordinates": [
          -3.2071626013510146,
          55.95193940179104
        ]
      },
      "properties": {
        "stratum": "ground_surface",
        "primary_surfacing": "Engineered roadway and paved pedestrian curbs",
        "wear_characteristics": "Authentic environmental patina and drainage grading"
      }
    },
    {
      "type": "Feature",
      "id": "stratum_4_landscape_ecology",
      "geometry": {
        "type": "Point",
        "coordinates": [
          -3.2071626013510146,
          55.95193940179104
        ]
      },
      "properties": {
        "stratum": "landscape_ecology",
        "botanical_analysis": "Urban parkland deciduous canopy within Charlotte Square Garden:\n- *Tilia \u00d7 europaea* (Common Lime): Mature broad crowns exhibiting late-September phenology with chlorotic leaf margins, early pale-yellow foliar senescence, and partial defoliation.\n- *Acer pseudoplatanus* (Sycamore): Dense spreading crowns showing dull olive-green leaves marked by autumn tar-spot lesions (*Rhytisma acerinum*) and localized crown-edge browning.\n- *Platanus \u00d7 acerifolia* (London Plane): Broad palmate foliage with olive-to-ochre discoloration at outer twig terminals.\n- Ground cover: Dense, fine-textured mown perennial turf (*Lolium perenne*, *Festuca rubra*, *Poa pratensis*) over humic garden loam with moss incursions (*Rhytidiadelphus squarrosus*).",
        "foliage_rectification": "Disambiguated from masonry mesh"
      }
    },
    {
      "type": "Feature",
      "id": "stratum_5_built_environment",
      "geometry": {
        "type": "Point",
        "coordinates": [
          -3.2071626013510146,
          55.95193940179104
        ]
      },
      "properties": {
        "stratum": "built_environment",
        "architectural_summary": "Symmetrical neoclassical civic square composition designed by Robert Adam and Robert Reid. Centerpiece comprises West Register House (former St George's Church): colossal Ionic tetrastyle pedimented portico over a rusticated ashlar basement, surmounted by an unpierced square attic plinth, a peripteral circular Corinthian colonnade drum, and a ribbed hemispherical cupola topped with an Ionic lantern and gilded cross finial. Flanking continuous terraced townhouses (Nos. 19\u201333) form a unified palace-front elevation: three storeys over rusticated basement floors, channeled ashlar ground levels with segmental-arched openings, piano nobile with architraved and pedimented windows, continuous projecting string courses, dentiled and mutule cornices, and balustraded parapet attics. Fenestration consists of rectilinear timber sash-and-case windows in six-over-six and twelve-pane configurations. Mid-garden civic sculpture is the Prince Albert Memorial: equestrian bronze figure positioned on a multi-tiered polished granite pedestal with four subsidiary bronze sculptural groups at the stepped plinth corners.",
        "structures": [
          {
            "name": "Primary Facade",
            "storeys": 2,
            "height_m": 7.5,
            "roof_geometry": "pitched / parapet",
            "facade_material": "authentic regional masonry",
            "planar_rectification": "ENFORCED"
          }
        ]
      }
    },
    {
      "type": "Feature",
      "id": "stratum_6_dynamic_elements",
      "geometry": {
        "type": "Point",
        "coordinates": [
          -3.2071626013510146,
          55.95193940179104
        ]
      },
      "properties": {
        "stratum": "dynamic_elements",
        "transient_decluttering": "ENFORCED",
        "vehicles": "NONE",
        "pedestrians": "NONE",
        "transient_clutter": "STRIPPED",
        "permanent_civil_fabric": "PRESERVED"
      }
    },
    {
      "type": "Feature",
      "id": "stratum_7_atmospheric_state",
      "geometry": null,
      "properties": {
        "stratum": "atmospheric_state",
        "lighting_rig": "SOLAR_EPHEMERIS",
        "timestamp_utc": "2026-09-22T17:45:00+00:00",
        "weather_state": "OVERCAST",
        "solar_azimuth_deg": 266.06,
        "solar_elevation_deg": 3.31,
        "shadow_azimuth_deg": null,
        "color_temperature_k": 3000,
        "ambient_illuminance_lux": 12000
      }
    }
  ]
}