{
  "type": "FeatureCollection",
  "properties": {
    "address": "200 Michigan Ave NE, Washington, DC 20017, USA",
    "spatial_mode": "3D_TILES",
    "schema_version": "7-Strata-v2.0"
  },
  "features": [
    {
      "type": "Feature",
      "id": "stratum_1_observer_frame",
      "geometry": {
        "type": "Point",
        "coordinates": [
          -77.00345041433837,
          38.930471620085044
        ]
      },
      "properties": {
        "stratum": "observer_frame",
        "spatial_mode": "3D_TILES",
        "camera": {
          "altitude_m_agl": 132.5,
          "pitch_deg": -12.5,
          "heading_deg": 37.3,
          "fov_deg": 60.0
        }
      }
    },
    {
      "type": "Feature",
      "id": "stratum_2_subterranean_geology",
      "geometry": {
        "type": "Point",
        "coordinates": [
          -77.00345041433837,
          38.930471620085044
        ]
      },
      "properties": {
        "stratum": "subterranean_geology",
        "foundation_analysis": "The site sits upon the Atlantic Seaboard Fall Line transition zone, anchored over crystalline metamorphic bedrock of the Piedmont Province (specifically Kensington Tonalite and Wissahickon schist formations) overlain by Atlantic Coastal Plain marine and terrace gravels, sandy loams, and dense silty clays. \n- Primary Architectural Lithics: The Basilica of the National Shrine of the Immaculate Conception is engineered as a traditional load-bearing unreinforced masonry structure without modern structural steel framework. Its superstructure incorporates over 11.5 million structural clay bricks (common and face brick) faced with ashlar Indiana Bedford oolitic limestone, fine-grained Roman travertine, and polished crystalline granite at the sub-base plinth. \n- Surrounding Campus Fabric: Collegiate Romanesque and Late Gothic Revival structures across the Catholic University of America grounds employ Port Deposit granite, Potomac bluestone rubble, Indiana limestone quoins/dressings, and deep red vitrified shale brick. \n- Subterranean Dynamics & Mortar: Heavy hydraulic lime and high-calcium Portland cement mortars bind thick multi-wythe load-bearing brick cores. Topographic grade slopes toward the Anacostia River basin, directing subterranean moisture and runoff southward."
      }
    },
    {
      "type": "Feature",
      "id": "stratum_3_ground_surface",
      "geometry": {
        "type": "Point",
        "coordinates": [
          -77.00345041433837,
          38.930471620085044
        ]
      },
      "properties": {
        "stratum": "ground_surface",
        "primary_surfacing": "Engineered roadway and paved pedestrian curbs",
        "wear_characteristics": "Authentic environmental patina and drainage grading"
      }
    },
    {
      "type": "Feature",
      "id": "stratum_4_landscape_ecology",
      "geometry": {
        "type": "Point",
        "coordinates": [
          -77.00345041433837,
          38.930471620085044
        ]
      },
      "properties": {
        "stratum": "landscape_ecology",
        "botanical_analysis": "A continuous urban forest canopy typical of the Mid-Atlantic Washington D.C. urban canopy:\n- Identified Species: Mature Quercus alba (White Oak), Quercus phellos (Willow Oak), Acer rubrum (Red Maple), Liriodendron tulipifera (Tulip Poplar), Platanus occidentalis (American Sycamore), and clusters of flowering Prunus serrulata (Yoshino Cherry) along campus borders.\n- Disambiguation: Photogrammetry foliage noise is resolved into dense, organic leafy crowns with visible branching structures, cast understory depth, and neatly manicured turfgrass lawns with crisp mulch rings surrounding mature street and courtyard trees.",
        "foliage_rectification": "Disambiguated from masonry mesh"
      }
    },
    {
      "type": "Feature",
      "id": "stratum_5_built_environment",
      "geometry": {
        "type": "Point",
        "coordinates": [
          -77.00345041433837,
          38.930471620085044
        ]
      },
      "properties": {
        "stratum": "built_environment",
        "architectural_summary": "A high oblique aerial perspective looking northeast across the Brookland campus, centered on the monumental Romanesque-Byzantine Revival Basilica of the National Shrine of the Immaculate Conception.\n- Basilica Superstructure: Massive Latin-cross plan massing with thick battered walls, heavy stepped buttresses, deeply recessed round-arched portals, and a grand south entrance portico. The central crossing is surmounted by a 108-foot diameter ribbed saucer dome (the Great Dome/Trinity Dome) resting on an arcaded drum ringed with arched clerestory fenestration. The attached southwest Romanesque campanile (Knight's Tower) rises 329 feet (100 m) across ten distinct vertical tiers, transitioning through arcaded belfries, louvered openings, and a stepped pyramidal roof cap. Roofs over the nave and transepts consist of gabled planes clad in barrel-profile red terra-cotta clay tiles.\n- Surrounding Campus Context: To the west and north stand multi-storey collegiate halls (e.g., Father O'Connell Hall, Gibbons Hall, Caldwell Hall) exhibiting Collegiate Gothic and Romanesque typologies with slate/clay tile mansard roofs, copper-flashed dormers, and ashlar masonry facades.\n- Planar & Geometric Rectification: Photogrammetric mesh warping is fully corrected. Campanile vertical lines are plumbed to absolute 90-degree axes; drum balustrades, cornice projections, nave parapets, arched stone voussoirs, and flat limestone plinth terraces are rectified into razor-sharp, planar lines.",
        "structures": [
          {
            "name": "Primary Facade",
            "storeys": 2,
            "height_m": 7.5,
            "roof_geometry": "pitched / parapet",
            "facade_material": "authentic regional masonry",
            "planar_rectification": "ENFORCED"
          }
        ]
      }
    },
    {
      "type": "Feature",
      "id": "stratum_6_dynamic_elements",
      "geometry": {
        "type": "Point",
        "coordinates": [
          -77.00345041433837,
          38.930471620085044
        ]
      },
      "properties": {
        "stratum": "dynamic_elements",
        "transient_decluttering": "ENFORCED",
        "vehicles": "NONE",
        "pedestrians": "NONE",
        "transient_clutter": "STRIPPED",
        "permanent_civil_fabric": "PRESERVED"
      }
    },
    {
      "type": "Feature",
      "id": "stratum_7_atmospheric_state",
      "geometry": null,
      "properties": {
        "stratum": "atmospheric_state",
        "lighting_rig": "SOLAR_EPHEMERIS",
        "timestamp_utc": "2026-08-27T22:16:59.828099+00:00",
        "weather_state": "SUNNY",
        "temperature_c": 15.0,
        "solar_azimuth_deg": 270.22,
        "solar_elevation_deg": 16.63,
        "shadow_azimuth_deg": 90.2,
        "color_temperature_k": 4500,
        "ambient_illuminance_lux": 35000
      }
    }
  ]
}