{
  "type": "FeatureCollection",
  "properties": {
    "address": "9 Grosvenor St, Edinburgh EH12 5EF, UK",
    "spatial_mode": "3D_TILES",
    "schema_version": "7-Strata-v2.0"
  },
  "features": [
    {
      "type": "Feature",
      "id": "stratum_1_observer_frame",
      "geometry": {
        "type": "Point",
        "coordinates": [
          -3.216801743694327,
          55.94677087555805
        ]
      },
      "properties": {
        "stratum": "observer_frame",
        "spatial_mode": "3D_TILES",
        "camera": {
          "altitude_m_agl": 179.5,
          "pitch_deg": -16.2,
          "heading_deg": 5.9,
          "fov_deg": 60.0
        }
      }
    },
    {
      "type": "Feature",
      "id": "stratum_2_subterranean_geology",
      "geometry": {
        "type": "Point",
        "coordinates": [
          -3.216801743694327,
          55.94677087555805
        ]
      },
      "properties": {
        "stratum": "subterranean_geology",
        "foundation_analysis": "- **Bedrock Lithology & Stratigraphy:** The subterranean foundation of Edinburgh's West End rests upon sedimentary sequences of the Carboniferous Lower Oil-Shale Group (Gullane and Wardie Formations) interbedded with Calciferous Sandstone measures, shaped by Devonian volcanic intrusions and Pleistocene glacial scouring (crag-and-tail drift).\n- **Masonry Lithics:** The central cathedral (St Mary\u2019s Episcopal Cathedral) and surrounding Victorian/Georgian residential tenements are constructed primarily of dense, quartz-rich Carboniferous sandstone extracted from the celebrated local quarries of Craigleith and Hailes. Craigleith stone exhibits a pale buff-honey to greyish hue with ultra-tight silica cementation, complemented by fine-grained sedimentary bedding planes visible across load-bearing ashlar blocks.\n- **Mortar & Subterranean Drainage:** Traditional non-hydraulic to weakly hydraulic slaked lime mortar mixed with sharp fluvial sands fills deep 3mm\u20136mm ashlar joints. The site maintains a natural northeastern subterranean groundwater gradient draining toward the Water of Leith basin through glacial till and permeable sandstone fractures."
      }
    },
    {
      "type": "Feature",
      "id": "stratum_3_ground_surface",
      "geometry": {
        "type": "Point",
        "coordinates": [
          -3.216801743694327,
          55.94677087555805
        ]
      },
      "properties": {
        "stratum": "ground_surface",
        "primary_surfacing": "Engineered roadway and paved pedestrian curbs",
        "wear_characteristics": "Authentic environmental patina and drainage grading"
      }
    },
    {
      "type": "Feature",
      "id": "stratum_4_landscape_ecology",
      "geometry": {
        "type": "Point",
        "coordinates": [
          -3.216801743694327,
          55.94677087555805
        ]
      },
      "properties": {
        "stratum": "landscape_ecology",
        "botanical_analysis": "- **Urban Vegetation:** Fully disambiguated from stonework into lush, organic botanical forms. \n- **Canopy & Species:** Mature urban European Sycamores (*Acer pseudoplatanus*), English Elms (*Ulmus minor*), London Plane trees (*Platanus \u00d7 acerifolia*), and European Ash (*Fraxinus excelsior*) lining Palmerston Place and the cathedral precinct gardens. Deep green, organic deciduous leaf crowns with intricate natural fractal branching and manicured perennial lawn turf bordering the cathedral foundation walls.",
        "foliage_rectification": "Disambiguated from masonry mesh"
      }
    },
    {
      "type": "Feature",
      "id": "stratum_5_built_environment",
      "geometry": {
        "type": "Point",
        "coordinates": [
          -3.216801743694327,
          55.94677087555805
        ]
      },
      "properties": {
        "stratum": "built_environment",
        "architectural_summary": "- **Typologies & Massing:** \n  - **Center:** St Mary's Episcopal Cathedral (designed by Sir George Gilbert Scott, consecrated 1879). A colossal High Victorian Gothic Revival cruciform cathedral dominated by a soaring 84-meter (275 ft) central crossing spire and twin western spires (\"Barbara\" and \"Mary\", added 1913\u20131917).\n  - **Foreground & Flanks:** Dense 4- to 5-storey late Georgian and early Victorian West End residential tenement terraces and palatial stone blocks featuring high rusticated basements, piano nobile ashlar levels, continuous projecting string courses, bracketed classical eaves cornices, and slate-pitched roofscapes pierced by rows of stone dormers and substantial ashlar chimney stacks.\n- **Planar Rectification & Geometry:** All exterior vertical walls are mathematically plumbed to true gravity vertical. Glacial photogrammetry mesh noise is completely rectified: window embrasures, lancet louvres, flying buttress arcs, traceried rose windows, slate valley troughs, lead ridge rolls, and roof dormer gables are resolved into crisp, planar, load-bearing architectural lines.",
        "structures": [
          {
            "name": "Primary Facade",
            "storeys": 2,
            "height_m": 7.5,
            "roof_geometry": "pitched / parapet",
            "facade_material": "authentic regional masonry",
            "planar_rectification": "ENFORCED"
          }
        ]
      }
    },
    {
      "type": "Feature",
      "id": "stratum_6_dynamic_elements",
      "geometry": {
        "type": "Point",
        "coordinates": [
          -3.216801743694327,
          55.94677087555805
        ]
      },
      "properties": {
        "stratum": "dynamic_elements",
        "transient_decluttering": "ENFORCED",
        "vehicles": "NONE",
        "pedestrians": "NONE",
        "transient_clutter": "STRIPPED",
        "permanent_civil_fabric": "PRESERVED"
      }
    },
    {
      "type": "Feature",
      "id": "stratum_7_atmospheric_state",
      "geometry": null,
      "properties": {
        "stratum": "atmospheric_state",
        "lighting_rig": "SOLAR_EPHEMERIS",
        "timestamp_utc": "2026-08-26T17:12:52.032418+00:00",
        "weather_state": "SUNNY",
        "temperature_c": 15.0,
        "solar_azimuth_deg": 276.93,
        "solar_elevation_deg": 17.46,
        "shadow_azimuth_deg": 96.9,
        "color_temperature_k": 4500,
        "ambient_illuminance_lux": 35000
      }
    }
  ]
}