{
  "type": "FeatureCollection",
  "properties": {
    "address": "29 London St, Edinburgh EH3 6LY, UK",
    "spatial_mode": "3D_TILES",
    "schema_version": "7-Strata-v2.0"
  },
  "features": [
    {
      "type": "Feature",
      "id": "stratum_1_observer_frame",
      "geometry": {
        "type": "Point",
        "coordinates": [
          -3.191925180995215,
          55.959102314709895
        ]
      },
      "properties": {
        "stratum": "observer_frame",
        "spatial_mode": "3D_TILES",
        "camera": {
          "altitude_m_agl": 121.4,
          "pitch_deg": -10.8,
          "heading_deg": 254.5,
          "fov_deg": 60.0
        }
      }
    },
    {
      "type": "Feature",
      "id": "stratum_2_subterranean_geology",
      "geometry": {
        "type": "Point",
        "coordinates": [
          -3.191925180995215,
          55.959102314709895
        ]
      },
      "properties": {
        "stratum": "subterranean_geology",
        "foundation_analysis": "- **Bedrock Stratigraphy**: Lower Carboniferous (Tournaisian-Visean) sedimentary succession of the Inverclyde Group and Gullane Formation, comprising layered quartz-arenite sandstones, siltstones, and bituminous shales, capped by dense Quaternary glaciogenic lodgement till.\n- **Lithic Extraction**: Primary structural masonry sourced from local Lothian Carboniferous quarries, predominantly fine-grained blonde Craigleith and Hailes quartzose sandstone characterized by high silica content and planar bedding.\n- **Mortar & Binding**: Traditional hot-mixed non-hydraulic to weakly hydraulic lime mortar formulated with calcined local Carboniferous limestone and sharp river aggregate, ensuring vapour permeability.\n- **Hydrogeology & Subterranean Dynamics**: North-sloping post-glacial drumlin topography directing natural perched groundwater toward the Water of Leith basin; intersected at depth beneath Drummond Place by the vaulted 1847 Scotland Street subterranean railway tunnel."
      }
    },
    {
      "type": "Feature",
      "id": "stratum_3_ground_surface",
      "geometry": {
        "type": "Point",
        "coordinates": [
          -3.191925180995215,
          55.959102314709895
        ]
      },
      "properties": {
        "stratum": "ground_surface",
        "primary_surfacing": "Engineered roadway and paved pedestrian curbs",
        "wear_characteristics": "Authentic environmental patina and drainage grading"
      }
    },
    {
      "type": "Feature",
      "id": "stratum_4_landscape_ecology",
      "geometry": {
        "type": "Point",
        "coordinates": [
          -3.191925180995215,
          55.959102314709895
        ]
      },
      "properties": {
        "stratum": "landscape_ecology",
        "botanical_analysis": "- **Botanical Taxa (Drummond Place Gardens)**: Dominant mature urban broadleaf canopy composed of *Ulmus glabra* (wych elm), *Acer pseudoplatanus* (sycamore), *Tilia \u00d7 europaea* (common lime), *Fagus sylvatica* (European beech), and *Platanus \u00d7 acerifolia* (London plane).\n- **Date-Grounded Phenology (November 11)**: Mid-November late-autumn senescence; 75\u201390% canopy defoliation exposing complex architectural ramification and dark wet bark; residual desiccated ochre, russet, and dull yellow-brown leaves concentrated within lower crown branch bifurcations; damp fallen leaf litter layering underlying lawn turf.",
        "foliage_rectification": "Disambiguated from masonry mesh"
      }
    },
    {
      "type": "Feature",
      "id": "stratum_5_built_environment",
      "geometry": {
        "type": "Point",
        "coordinates": [
          -3.191925180995215,
          55.959102314709895
        ]
      },
      "properties": {
        "stratum": "built_environment",
        "architectural_summary": "- **Typology & Provenance**: Edinburgh Second New Town late Georgian Neoclassical residential terraces and terminal crescent pavilions, laid out under the 1802 masterplan by Robert Reid and William Sibbald, completed c. 1807\u20131824 with facade revisions by Thomas Brown.\n- **Massing & Storey Heights**: Unified repetitive street wall; 3 storeys over raised basement lightwells, crowned by continuous friezes, mutule cornices, blocking courses, and recessed slate-hung piended attic dormers.\n- **Planar Rectification & Fenestration**: Corrected to rigid plumb verticals and continuous horizontal datum lines; channelled ashlar rustication at ground floor; symmetrical regular fenestration grids holding recessed 12-pane (6-over-6) and 8-over-8 timber double-hung sash-and-case windows.\n- **Roofscape Geometry**: Symmetrical dual-pitched timber roofs clad in regional Scottish and Welsh slates, punctuated by broached ashlar wallhead and party-wall chimneystacks capped with circular terracotta chimney cans.",
        "structures": [
          {
            "name": "Primary Facade",
            "storeys": 2,
            "height_m": 7.5,
            "roof_geometry": "pitched / parapet",
            "facade_material": "authentic regional masonry",
            "planar_rectification": "ENFORCED"
          }
        ]
      }
    },
    {
      "type": "Feature",
      "id": "stratum_6_dynamic_elements",
      "geometry": {
        "type": "Point",
        "coordinates": [
          -3.191925180995215,
          55.959102314709895
        ]
      },
      "properties": {
        "stratum": "dynamic_elements",
        "transient_decluttering": "ENFORCED",
        "vehicles": "NONE",
        "pedestrians": "NONE",
        "transient_clutter": "STRIPPED",
        "permanent_civil_fabric": "PRESERVED"
      }
    },
    {
      "type": "Feature",
      "id": "stratum_7_atmospheric_state",
      "geometry": null,
      "properties": {
        "stratum": "atmospheric_state",
        "lighting_rig": "SOLAR_EPHEMERIS",
        "timestamp_utc": "2026-11-11T12:35:59+00:00",
        "weather_state": "OVERCAST",
        "solar_azimuth_deg": 189.7,
        "solar_elevation_deg": 16.35,
        "shadow_azimuth_deg": null,
        "color_temperature_k": 4500,
        "ambient_illuminance_lux": 35000
      }
    }
  ]
}