{
  "type": "FeatureCollection",
  "properties": {
    "address": "1540 Maine Ave SW, Washington, DC 20004, USA",
    "spatial_mode": "3D_TILES",
    "schema_version": "7-Strata-v2.0"
  },
  "features": [
    {
      "type": "Feature",
      "id": "stratum_1_observer_frame",
      "geometry": {
        "type": "Point",
        "coordinates": [
          -77.0366860129463,
          38.88670746678647
        ]
      },
      "properties": {
        "stratum": "observer_frame",
        "spatial_mode": "3D_TILES",
        "camera": {
          "altitude_m_agl": 473.8,
          "pitch_deg": -54.3,
          "heading_deg": 23.3,
          "fov_deg": 60.0
        }
      }
    },
    {
      "type": "Feature",
      "id": "stratum_2_subterranean_geology",
      "geometry": {
        "type": "Point",
        "coordinates": [
          -77.0366860129463,
          38.88670746678647
        ]
      },
      "properties": {
        "stratum": "subterranean_geology",
        "foundation_analysis": "- Bedrock Lithology: Underlying the National Mall is late Precambrian to early Paleozoic Piedmont crystalline basement (schists and gneisses), overlain by unconsolidated Atlantic Coastal Plain Quaternary alluvial silt, sand, and clay terraces of the Potomac River floodplain.\n- Monument Substructure: Gneiss and bluestone rubble core underpinned by a deep concrete sub-foundation and slab installed by the U.S. Army Corps of Engineers (1876\u20131884) to arrest subsidence in the soft alluvium.\n- Indigenous Lithics: The primary obelisk is faced with three distinct white-to-buff calcitic/dolomitic marbles:\n  1. Base to 152 ft (46.3 m): White dolomitic Cockeysville Marble quarried from Texas, Baltimore County, Maryland.\n  2. Intermediate band (approx. 4 courses): Stockbridge Marble from Sheffield/Lee, Berkshire County, Massachusetts, exhibiting a distinct darker, brownish-grey tint.\n  3. Upper 390 ft (118.9 m) to pyramidion: Cockeysville dolomitic marble from the Beaver Dam quarry in Cockeysville, Maryland.\n- Surrounding Hardscape: Plinth ring paved with light grey, fine-grained Barre granite pavers bordered by Maryland granite curbs. Walkways composed of compacted decomposed granite and crushed orange-ochre gravel over stabilized road base.\n- Subterranean Drainage: Extensive subterranean drainage channels, French drains, and perimeter sumps managing high regional Potomac water table conditions."
      }
    },
    {
      "type": "Feature",
      "id": "stratum_3_ground_surface",
      "geometry": {
        "type": "Point",
        "coordinates": [
          -77.0366860129463,
          38.88670746678647
        ]
      },
      "properties": {
        "stratum": "ground_surface",
        "primary_surfacing": "Engineered roadway and paved pedestrian curbs",
        "wear_characteristics": "Authentic environmental patina and drainage grading"
      }
    },
    {
      "type": "Feature",
      "id": "stratum_4_landscape_ecology",
      "geometry": {
        "type": "Point",
        "coordinates": [
          -77.0366860129463,
          38.88670746678647
        ]
      },
      "properties": {
        "stratum": "landscape_ecology",
        "botanical_analysis": "- Surrounding Turf: Cultivated, aerated tall fescue (Festuca arundinacea) and Kentucky bluegrass (Poa pratensis) turfgrass maintained in sweeping circular radial cuts.\n- Surrounding Arboreal Canopy:\n  - Mature American Elm (Ulmus americana) lining the formal Mall all\u00e9es to the east and northwest.\n  - Willow Oaks (Quercus phellos), Pin Oaks (Quercus palustris), and White Oaks (Quercus alba) forming lush, dense, irregular woodland clusters across the Monument grounds.\n  - Sweetgum (Liquidambar styraciflua) and American Sycamore (Platanus occidentalis) scattered along peripheral drainage swales and lawn margins.\n  - Well-defined branch scaffolding, individual leaf clusters, deep summer chlorophyll-rich green tones, and zero polygonized or stony mesh distortions.",
        "foliage_rectification": "Disambiguated from masonry mesh"
      }
    },
    {
      "type": "Feature",
      "id": "stratum_5_built_environment",
      "geometry": {
        "type": "Point",
        "coordinates": [
          -77.0366860129463,
          38.88670746678647
        ]
      },
      "properties": {
        "stratum": "built_environment",
        "architectural_summary": "- Obelisk (Washington Monument - Robert Mills / Thomas Lincoln Casey, completed 1884):\n  - Height: 554 ft 7 11/32 in (169.05 m).\n  - Form: Pure unadorned monumental hollow stone masonry obelisk tapering upward at a continuous subtle draft to an apex capped by a steep 17-degree marble pyramidion topped with a 100-ounce cast aluminum point.\n  - Plinth: Concentric circular paved viewing terrace surrounded by a ring of 56 polished stainless steel flagpoles.\n- Upper Center-Right Structure (National Museum of African American History and Culture - Freelon Adjaye Bond / SmithGroup, opened 2016):\n  - 5 storeys above grade (approx. 85 ft / 25.9 m height).\n  - Three-tiered inverted pyramidal corona wrapped around a central glass volume, inspired by the Yoruban Caryatid capital.\n  - Deep flat roof housing high-efficiency photovoltaic arrays, linear skylights, and mechanical penthouses behind continuous parapets.\n- Lower Right Institutional Pavilions & Wings:\n  - 4-to-5 storey historic red brick masonry wings with slate hip roofs, dormers, stone belt courses, and classical limestone pedimented porticos.\n- Planar Rectification: True plumb vertical lines enforced on the obelisk shaft and all structural cores; the 3D-photogrammetry noise across the glass-and-mesh museum corona is fully resolved into rigid, laser-straight geometric tiers of laser-cut bronze latticework.",
        "structures": [
          {
            "name": "Primary Facade",
            "storeys": 2,
            "height_m": 7.5,
            "roof_geometry": "pitched / parapet",
            "facade_material": "authentic regional masonry",
            "planar_rectification": "ENFORCED"
          }
        ]
      }
    },
    {
      "type": "Feature",
      "id": "stratum_6_dynamic_elements",
      "geometry": {
        "type": "Point",
        "coordinates": [
          -77.0366860129463,
          38.88670746678647
        ]
      },
      "properties": {
        "stratum": "dynamic_elements",
        "transient_decluttering": "ENFORCED",
        "vehicles": "NONE",
        "pedestrians": "NONE",
        "transient_clutter": "STRIPPED",
        "permanent_civil_fabric": "PRESERVED"
      }
    },
    {
      "type": "Feature",
      "id": "stratum_7_atmospheric_state",
      "geometry": null,
      "properties": {
        "stratum": "atmospheric_state",
        "lighting_rig": "SOLAR_EPHEMERIS",
        "timestamp_utc": "2026-08-25T17:00:00+00:00",
        "weather_state": "SUNNY",
        "temperature_c": 15.0,
        "solar_azimuth_deg": 5.54,
        "solar_elevation_deg": 61.98,
        "shadow_azimuth_deg": 185.5,
        "color_temperature_k": 5800,
        "ambient_illuminance_lux": 85000
      }
    }
  ]
}