{
  "type": "FeatureCollection",
  "properties": {
    "address": "12 Charlotte Square, Edinburgh EH2 4ET, UK",
    "spatial_mode": "3D_TILES",
    "schema_version": "7-Strata-v2.0"
  },
  "features": [
    {
      "type": "Feature",
      "id": "stratum_1_observer_frame",
      "geometry": {
        "type": "Point",
        "coordinates": [
          -3.2071626013510146,
          55.95193940179104
        ]
      },
      "properties": {
        "stratum": "observer_frame",
        "spatial_mode": "3D_TILES",
        "camera": {
          "altitude_m_agl": 1.4,
          "pitch_deg": 4.8,
          "heading_deg": 245.5,
          "fov_deg": 60.0
        }
      }
    },
    {
      "type": "Feature",
      "id": "stratum_2_subterranean_geology",
      "geometry": {
        "type": "Point",
        "coordinates": [
          -3.2071626013510146,
          55.95193940179104
        ]
      },
      "properties": {
        "stratum": "subterranean_geology",
        "foundation_analysis": "Subterranean geology comprises Lower Carboniferous Gullane Formation sedimentary strata (interbedded sandstone, siltstone, and mudstone) situated over the Edinburgh Volcanic Complex basaltic bedrock. Superstructure masonry is predominantly pale buff, quartz-arenite Craigleith sandstone, renowned for high silica content and structural durability. Mortar chemistry consists of traditional non-hydraulic to weakly hydraulic Scottish lime-sand mortar. The central monument plinth is constructed from dense, fine-grained pink Peterhead granite. Ground substrate consists of compacted glaciofluvial till with loamy urban topsoil supporting structured garden turf and perimeter drainage gravels."
      }
    },
    {
      "type": "Feature",
      "id": "stratum_3_ground_surface",
      "geometry": {
        "type": "Point",
        "coordinates": [
          -3.2071626013510146,
          55.95193940179104
        ]
      },
      "properties": {
        "stratum": "ground_surface",
        "primary_surfacing": "Engineered roadway and paved pedestrian curbs",
        "wear_characteristics": "Authentic environmental patina and drainage grading"
      }
    },
    {
      "type": "Feature",
      "id": "stratum_4_landscape_ecology",
      "geometry": {
        "type": "Point",
        "coordinates": [
          -3.2071626013510146,
          55.95193940179104
        ]
      },
      "properties": {
        "stratum": "landscape_ecology",
        "botanical_analysis": "Botanical phenology grounded in late December (winter dormancy):\n- Mature urban canopy species: *Acer pseudoplatanus* (Sycamore), *Tilia \u00d7 europaea* (Common Lime), and *Ulmus glabra* (Wych Elm).\n- Phenological state: Complete winter defoliation; bare, intricate dark-barked branch silhouettes and structural trunk frameworks exhibiting moisture-darkened bark, void of foliage.\n- Turf surface: Dormant, dense, low-cut winter turf layer.",
        "foliage_rectification": "Disambiguated from masonry mesh"
      }
    },
    {
      "type": "Feature",
      "id": "stratum_5_built_environment",
      "geometry": {
        "type": "Point",
        "coordinates": [
          -3.2071626013510146,
          55.95193940179104
        ]
      },
      "properties": {
        "stratum": "built_environment",
        "architectural_summary": "Planar rectified Neoclassical civic and Georgian residential composition:\n- Center Axis: West Register House (formerly St George's Parish Church, Robert Reid, 1811\u20131814). Symmetrical Neoclassical facade featuring a central pedimented hexastyle portico, engaged Corinthian peristyle drum, surmounted by a monumental hemispherical ribbed dome and stone lantern. Planar ashlar walls rectified to strict vertical plumb lines.\n- Flanking Terraces: Robert Adam-designed Georgian palace-front townhouses (3 storeys over basement, continuous rusticated ashlar ground floor, smooth-dressed piano nobile with architraved windows, 6-over-6 timber sash-and-case fenestration grids, dentiled cornice, balustraded parapets, and pitched Scots slate roofs with ashlar chimney stacks).\n- Foreground Monument: Prince Albert Memorial (Sir John Steell, 1876), comprising a bronze equestrian figure set atop a tiered, profiled Peterhead granite pedestal flanked by subsidiary bronze corner groupings and relief friezes.",
        "structures": [
          {
            "name": "Primary Facade",
            "storeys": 2,
            "height_m": 7.5,
            "roof_geometry": "pitched / parapet",
            "facade_material": "authentic regional masonry",
            "planar_rectification": "ENFORCED"
          }
        ]
      }
    },
    {
      "type": "Feature",
      "id": "stratum_6_dynamic_elements",
      "geometry": {
        "type": "Point",
        "coordinates": [
          -3.2071626013510146,
          55.95193940179104
        ]
      },
      "properties": {
        "stratum": "dynamic_elements",
        "transient_decluttering": "ENFORCED",
        "vehicles": "NONE",
        "pedestrians": "NONE",
        "transient_clutter": "STRIPPED",
        "permanent_civil_fabric": "PRESERVED"
      }
    },
    {
      "type": "Feature",
      "id": "stratum_7_atmospheric_state",
      "geometry": null,
      "properties": {
        "stratum": "atmospheric_state",
        "lighting_rig": "SOLAR_EPHEMERIS",
        "timestamp_utc": "2026-12-22T15:21:00+00:00",
        "weather_state": "SNOW",
        "solar_azimuth_deg": 222.54,
        "solar_elevation_deg": 1.03,
        "shadow_azimuth_deg": null,
        "color_temperature_k": 3000,
        "ambient_illuminance_lux": 12000
      }
    }
  ]
}