{
  "type": "FeatureCollection",
  "properties": {
    "address": "Forth House, Edinburgh EH1 2BW, UK",
    "spatial_mode": "3D_TILES",
    "schema_version": "7-Strata-v2.0"
  },
  "features": [
    {
      "type": "Feature",
      "id": "stratum_1_observer_frame",
      "geometry": {
        "type": "Point",
        "coordinates": [
          -3.2092917616902716,
          55.94858189245399
        ]
      },
      "properties": {
        "stratum": "observer_frame",
        "spatial_mode": "3D_TILES",
        "camera": {
          "altitude_m_agl": 162.7,
          "pitch_deg": -11.8,
          "heading_deg": 319.9,
          "fov_deg": 60.0
        }
      }
    },
    {
      "type": "Feature",
      "id": "stratum_2_subterranean_geology",
      "geometry": {
        "type": "Point",
        "coordinates": [
          -3.2092917616902716,
          55.94858189245399
        ]
      },
      "properties": {
        "stratum": "subterranean_geology",
        "foundation_analysis": "The subterranean strata of central Edinburgh and its West End are founded upon the Carboniferous sedimentary sequence (Gullane Formation and Wardie Shales) interspersed with volcanic basalt intrusions and glacial till/boulder clay deposited during Pleistocene glaciations. The structural fabric is constructed from indigenous Lower Carboniferous Scottish sandstones\u2014primarily fine-to-medium-grained quartzose blonde-to-honey Craigleith and Hailes sandstones, celebrated for silica-cemented durability and fine bedded grain. Subterranean moisture is governed by a deep urban water table descending toward the Water of Leith basin, with historic rubble foundations bedded in non-hydraulic to weakly hydraulic lime mortar (quicklime slaked with regional river aggregate), permitting natural vapor transpiration."
      }
    },
    {
      "type": "Feature",
      "id": "stratum_3_ground_surface",
      "geometry": {
        "type": "Point",
        "coordinates": [
          -3.2092917616902716,
          55.94858189245399
        ]
      },
      "properties": {
        "stratum": "ground_surface",
        "primary_surfacing": "Engineered roadway and paved pedestrian curbs",
        "wear_characteristics": "Authentic environmental patina and drainage grading"
      }
    },
    {
      "type": "Feature",
      "id": "stratum_4_landscape_ecology",
      "geometry": {
        "type": "Point",
        "coordinates": [
          -3.2092917616902716,
          55.94858189245399
        ]
      },
      "properties": {
        "stratum": "landscape_ecology",
        "botanical_analysis": "The urban canopy and visible parklands/gardens feature mature deciduous and evergreen specimens:\n- European Sycamore (*Acer pseudoplatanus*) and London Plane (*Platanus x acerifolia*) lining avenues and private back-greens with broad, multi-lobed green foliage.\n- Wych Elm (*Ulmus glabra*), Silver Birch (*Betula pendula*), and mature European Ash (*Fraxinus excelsior*) forming dense, organic green crowns between perimeter blocks and across the distant New Town gardens and Firth of Forth coastal ridges. Foliage is rendered as discrete, fibrous branching and leafy organic canopies, clearly distinct from structural stone.",
        "foliage_rectification": "Disambiguated from masonry mesh"
      }
    },
    {
      "type": "Feature",
      "id": "stratum_5_built_environment",
      "geometry": {
        "type": "Point",
        "coordinates": [
          -3.2092917616902716,
          55.94858189245399
        ]
      },
      "properties": {
        "stratum": "built_environment",
        "architectural_summary": "The scene captures the dense urban morphology of Edinburgh\u2019s West End and New Town. \n- **Centerpiece:** St George's West Church (now Charlotte Chapel, 58 Shandwick Place), a Category A-listed Baroque Revival/Italianate ecclesiastical structure designed by David Bryce (1866\u20131869) with its soaring 56-metre (185-foot) campanile clock tower completed by Robert Rowand Anderson (c. 1881\u20131882). Modeled after Palladio\u2019s campanile of San Giorgio Maggiore in Venice, the tower rises through four distinct registers: a rusticated rectangular base with a prominent pedimented clock dial, a towering sheer shaft with corner pilasters and narrow vertical slits, an open classical belfry loggia with arched multi-columned openings, and a stepped verdigris copper pyramid-topped spire.\n- **Flanking Fabric:** 4-to-5-storey Georgian and Victorian residential/commercial perimeter blocks and tenements (along Stafford Street, Shandwick Place, and Canning Street) featuring classical proportions, laser-straight ashlar band courses, dentiled cornices, rusticated ground-floor plinths, timber sash-and-case fenestration (twelve-pane and four-pane configurations), and hipped/mansard roofscapes punctuated by rhythmic stone chimneystacks, chimney pots, and dormer projections.\n- **Foreground:** Rooftops of proximate tenements showing clean parapet copings, slate pitches, dormers, and a flat lead/felt roof terrace on a brick/rubble rear elevation.\n- **Planar Rectification:** All vertical walls, towers, and chimneystacks are plumbed to true gravity perpendicular; distorted photogrammetry angles are corrected to flat, parallel structural planes and crisp horizontal floor plates.",
        "structures": [
          {
            "name": "Primary Facade",
            "storeys": 2,
            "height_m": 7.5,
            "roof_geometry": "pitched / parapet",
            "facade_material": "authentic regional masonry",
            "planar_rectification": "ENFORCED"
          }
        ]
      }
    },
    {
      "type": "Feature",
      "id": "stratum_6_dynamic_elements",
      "geometry": {
        "type": "Point",
        "coordinates": [
          -3.2092917616902716,
          55.94858189245399
        ]
      },
      "properties": {
        "stratum": "dynamic_elements",
        "transient_decluttering": "ENFORCED",
        "vehicles": "NONE",
        "pedestrians": "NONE",
        "transient_clutter": "STRIPPED",
        "permanent_civil_fabric": "PRESERVED"
      }
    },
    {
      "type": "Feature",
      "id": "stratum_7_atmospheric_state",
      "geometry": null,
      "properties": {
        "stratum": "atmospheric_state",
        "lighting_rig": "SOLAR_EPHEMERIS",
        "timestamp_utc": "2026-08-26T06:54:00+00:00",
        "weather_state": "OVERCAST",
        "temperature_c": 17.7,
        "solar_azimuth_deg": 88.06,
        "solar_elevation_deg": 14.34,
        "shadow_azimuth_deg": 268.1,
        "color_temperature_k": 4500,
        "ambient_illuminance_lux": 35000
      }
    }
  ]
}