{
  "type": "FeatureCollection",
  "properties": {
    "address": "28 & 34 Wright's Houses, Edinburgh EH10 4HR, UK",
    "spatial_mode": "3D_TILES",
    "schema_version": "7-Strata-v2.0"
  },
  "features": [
    {
      "type": "Feature",
      "id": "stratum_1_observer_frame",
      "geometry": {
        "type": "Point",
        "coordinates": [
          -3.2032416565140474,
          55.93925192919587
        ]
      },
      "properties": {
        "stratum": "observer_frame",
        "spatial_mode": "3D_TILES",
        "camera": {
          "altitude_m_agl": 6.1,
          "pitch_deg": -0.5,
          "heading_deg": 352.1,
          "fov_deg": 60.0
        }
      }
    },
    {
      "type": "Feature",
      "id": "stratum_2_subterranean_geology",
      "geometry": {
        "type": "Point",
        "coordinates": [
          -3.2032416565140474,
          55.93925192919587
        ]
      },
      "properties": {
        "stratum": "subterranean_geology",
        "foundation_analysis": "Bedrock comprises Carboniferous sedimentary strata of the Inverclyde and Strathclyde Groups (sandstones, siltstones, and mudstones), punctuated by the distant volcanic plug of Castle Rock (olivine basalt / dolerite crag). Primary building stone consists of blonde and buff Carboniferous sandstones quarried from the Craigleith, Hailes, and Binnie formations. Mortar systems across Victorian masonry feature traditional slaked non-hydraulic and feebly hydraulic lime mortars blended with coarse river sand, contrasted with rigid Portland cement mortars across mid-to-late 20th-century infill blocks. Subterranean hydrological dynamics are defined by gently sloping glacial till over bedrock, draining northward toward the historic Nor Loch basin."
      }
    },
    {
      "type": "Feature",
      "id": "stratum_3_ground_surface",
      "geometry": {
        "type": "Point",
        "coordinates": [
          -3.2032416565140474,
          55.93925192919587
        ]
      },
      "properties": {
        "stratum": "ground_surface",
        "primary_surfacing": "Engineered roadway and paved pedestrian curbs",
        "wear_characteristics": "Authentic environmental patina and drainage grading"
      }
    },
    {
      "type": "Feature",
      "id": "stratum_4_landscape_ecology",
      "geometry": {
        "type": "Point",
        "coordinates": [
          -3.2032416565140474,
          55.93925192919587
        ]
      },
      "properties": {
        "stratum": "landscape_ecology",
        "botanical_analysis": "Urban parkland canopy composed of mature *Ulmus glabra* (Wych Elm), *Acer pseudoplatanus* (Sycamore), and *Tilia \u00d7 europaea* (Common Lime). Mature specimens feature heavy, fluted, dark-barked single trunks dividing into broad, spreading, multi-tiered structural crown architectures, with distinct vertical branching scaffolds anchored into deep turf verges along pathway borders.",
        "foliage_rectification": "Disambiguated from masonry mesh"
      }
    },
    {
      "type": "Feature",
      "id": "stratum_5_built_environment",
      "geometry": {
        "type": "Point",
        "coordinates": [
          -3.2032416565140474,
          55.93925192919587
        ]
      },
      "properties": {
        "stratum": "built_environment",
        "architectural_summary": "Barclay Viewforth Church (Barclay Bruntsfield Church, 1864, architect F.T. Pilkington): High Victorian / Franco-Venetian Gothic ecclesiastical structure featuring an asymmetrical massing, a towering 76-metre octagonal spire with decorative lucarnes and corner pinnacles, complex steeply pitched slate roofscapes, faceted gables, and heavy stone tracery. Wright's Houses and adjacent terrace frontages comprise 4-to-5-storey Scottish tenement blocks alongside late-20th-century flatted infill; detailing includes crow-stepped and steep gables, corbelled corner features, canted bay windows, and timber sash-and-case fenestration patterns (1-over-1 and 2-over-2 configurations). Distant profile includes the crenellated and curtain-wall massing of Edinburgh Castle atop its sheer basalt precipice. All vertical wall planes rectified to true vertical plumb lines.",
        "structures": [
          {
            "name": "Primary Facade",
            "storeys": 2,
            "height_m": 7.5,
            "roof_geometry": "pitched / parapet",
            "facade_material": "authentic regional masonry",
            "planar_rectification": "ENFORCED"
          }
        ]
      }
    },
    {
      "type": "Feature",
      "id": "stratum_6_dynamic_elements",
      "geometry": {
        "type": "Point",
        "coordinates": [
          -3.2032416565140474,
          55.93925192919587
        ]
      },
      "properties": {
        "stratum": "dynamic_elements",
        "transient_decluttering": "ENFORCED",
        "vehicles": "NONE",
        "pedestrians": "NONE",
        "transient_clutter": "STRIPPED",
        "permanent_civil_fabric": "PRESERVED"
      }
    },
    {
      "type": "Feature",
      "id": "stratum_7_atmospheric_state",
      "geometry": null,
      "properties": {
        "stratum": "atmospheric_state",
        "lighting_rig": "SOLAR_EPHEMERIS",
        "timestamp_utc": "2026-12-25T12:00:00+00:00",
        "weather_state": "OVERCAST",
        "solar_azimuth_deg": 177.08,
        "solar_elevation_deg": 10.62,
        "shadow_azimuth_deg": null,
        "color_temperature_k": 4500,
        "ambient_illuminance_lux": 35000
      }
    }
  ]
}