{
  "type": "FeatureCollection",
  "properties": {
    "address": "7 Ainslie Pl, Edinburgh EH3 6AS, UK",
    "spatial_mode": "3D_TILES",
    "schema_version": "7-Strata-v2.0"
  },
  "features": [
    {
      "type": "Feature",
      "id": "stratum_1_observer_frame",
      "geometry": {
        "type": "Point",
        "coordinates": [
          -3.2106998692080797,
          55.95361395987533
        ]
      },
      "properties": {
        "stratum": "observer_frame",
        "spatial_mode": "3D_TILES",
        "camera": {
          "altitude_m_agl": 1.4,
          "pitch_deg": -8.8,
          "heading_deg": 139.9,
          "fov_deg": 60.0
        }
      }
    },
    {
      "type": "Feature",
      "id": "stratum_2_subterranean_geology",
      "geometry": {
        "type": "Point",
        "coordinates": [
          -3.2106998692080797,
          55.95361395987533
        ]
      },
      "properties": {
        "stratum": "subterranean_geology",
        "foundation_analysis": "- Bedrock: Carboniferous sedimentary strata (Calciferous Sandstone Measures) overlaid with glacial till.\n- Lithic Fabric: Local pale buff-grey Craigleith and Hailes Carboniferous quartz-arenite sandstones.\n- Mortar & Drainage: Traditional hot-mixed non-hydraulic lime mortar; free-draining sloping garden topsoil over gravelly subsoil."
      }
    },
    {
      "type": "Feature",
      "id": "stratum_3_ground_surface",
      "geometry": {
        "type": "Point",
        "coordinates": [
          -3.2106998692080797,
          55.95361395987533
        ]
      },
      "properties": {
        "stratum": "ground_surface",
        "primary_surfacing": "Engineered roadway and paved pedestrian curbs",
        "wear_characteristics": "Authentic environmental patina and drainage grading"
      }
    },
    {
      "type": "Feature",
      "id": "stratum_4_landscape_ecology",
      "geometry": {
        "type": "Point",
        "coordinates": [
          -3.2106998692080797,
          55.95361395987533
        ]
      },
      "properties": {
        "stratum": "landscape_ecology",
        "botanical_analysis": "- Urban Canopy: Mature *Acer pseudoplatanus* (Sycamore), *Tilia \u00d7 europaea* (Lime), and *Ulmus glabra* (Wych Elm) specimens within central circus garden.\n- Phenology (December 24): Full winter dormancy; complete deciduous defoliation exhibiting bare, intricate branch architecture over dormant, damp perennial turf.",
        "foliage_rectification": "Disambiguated from masonry mesh"
      }
    },
    {
      "type": "Feature",
      "id": "stratum_5_built_environment",
      "geometry": {
        "type": "Point",
        "coordinates": [
          -3.2106998692080797,
          55.95361395987533
        ]
      },
      "properties": {
        "stratum": "built_environment",
        "architectural_summary": "- Typology: Edinburgh New Town Neoclassical Georgian residential circus (Moray Estate, James Gillespie Graham, c. 1822).\n- Massing & Profile: 3-storey plus attic and rusticated basement terraces arranged in a curved arc; rear distant copper-clad church dome.\n- Facade Grid: Regular multi-bay ashlar facades, 6-over-6 and 12-over-12 timber sash-and-case fenestration, projecting continuous stringcourses, modillion cornices, and pitched Scottish slate roofs punctuated by tall ashlar chimney stacks with terracotta pots.",
        "structures": [
          {
            "name": "Primary Facade",
            "storeys": 2,
            "height_m": 7.5,
            "roof_geometry": "pitched / parapet",
            "facade_material": "authentic regional masonry",
            "planar_rectification": "ENFORCED"
          }
        ]
      }
    },
    {
      "type": "Feature",
      "id": "stratum_6_dynamic_elements",
      "geometry": {
        "type": "Point",
        "coordinates": [
          -3.2106998692080797,
          55.95361395987533
        ]
      },
      "properties": {
        "stratum": "dynamic_elements",
        "transient_decluttering": "ENFORCED",
        "vehicles": "NONE",
        "pedestrians": "NONE",
        "transient_clutter": "STRIPPED",
        "permanent_civil_fabric": "PRESERVED"
      }
    },
    {
      "type": "Feature",
      "id": "stratum_7_atmospheric_state",
      "geometry": null,
      "properties": {
        "stratum": "atmospheric_state",
        "lighting_rig": "SOLAR_EPHEMERIS",
        "timestamp_utc": "2026-12-24T14:03:00+00:00",
        "weather_state": "SNOW",
        "solar_azimuth_deg": 205.49,
        "solar_elevation_deg": 7.21,
        "shadow_azimuth_deg": null,
        "color_temperature_k": 3000,
        "ambient_illuminance_lux": 12000
      }
    }
  ]
}