{
  "type": "FeatureCollection",
  "properties": {
    "address": "1 W Register St, Edinburgh EH2 2AA, UK",
    "spatial_mode": "3D_TILES",
    "schema_version": "7-Strata-v2.0"
  },
  "features": [
    {
      "type": "Feature",
      "id": "stratum_1_observer_frame",
      "geometry": {
        "type": "Point",
        "coordinates": [
          -3.1897379527696796,
          55.95413308385509
        ]
      },
      "properties": {
        "stratum": "observer_frame",
        "spatial_mode": "3D_TILES",
        "camera": {
          "altitude_m_agl": 71.2,
          "pitch_deg": -17.2,
          "heading_deg": 274.1,
          "fov_deg": 60.0
        }
      }
    },
    {
      "type": "Feature",
      "id": "stratum_2_subterranean_geology",
      "geometry": {
        "type": "Point",
        "coordinates": [
          -3.1897379527696796,
          55.95413308385509
        ]
      },
      "properties": {
        "stratum": "subterranean_geology",
        "foundation_analysis": "Bedrock: Early Carboniferous sedimentary strata (Gullane Formation) overlying basaltic volcanic intrusions. \nLithics: Primary structural masonry of Craigleith and Hailes pale buff-to-grey carboniferous sandstone. Hydraulic lime and calcitic bedding mortar."
      }
    },
    {
      "type": "Feature",
      "id": "stratum_3_ground_surface",
      "geometry": {
        "type": "Point",
        "coordinates": [
          -3.1897379527696796,
          55.95413308385509
        ]
      },
      "properties": {
        "stratum": "ground_surface",
        "primary_surfacing": "Engineered roadway and paved pedestrian curbs",
        "wear_characteristics": "Authentic environmental patina and drainage grading"
      }
    },
    {
      "type": "Feature",
      "id": "stratum_4_landscape_ecology",
      "geometry": {
        "type": "Point",
        "coordinates": [
          -3.1897379527696796,
          55.95413308385509
        ]
      },
      "properties": {
        "stratum": "landscape_ecology",
        "botanical_analysis": "Park Enclosure: *Tilia \u00d7 europaea* (Common Lime) and *Acer pseudoplatanus* (Sycamore) ringing the central perimeter; isolated *Betula pendula* specimens.\nPhenology (Late September): Fully developed canopies displaying early-stage autumn senescence, characterized by chlorotic yellowing margins and partial foliar browning across the crowns. Central circular lawn composed of perennial rye-grass (*Lolium perenne*).",
        "foliage_rectification": "Disambiguated from masonry mesh"
      }
    },
    {
      "type": "Feature",
      "id": "stratum_5_built_environment",
      "geometry": {
        "type": "Point",
        "coordinates": [
          -3.1897379527696796,
          55.95413308385509
        ]
      },
      "properties": {
        "stratum": "built_environment",
        "architectural_summary": "Urban Fabric: Symmetrical Georgian New Town layout centered on St Andrew Square, transitioning into linear George Street corridor.\nCentral Feature: Melville Monument; 45-meter fluted Roman Doric column on stepped square pedestal supporting colossal standing stone statuary.\nMassing & Typologies: \n- 4-to-6-storey classical Georgian and Victorian perimeter blocks; ashlar rustication on ground storeys, molded architraves, projecting cornices.\n- Modernist and late-20th-century infill commercial blocks featuring gridded concrete, polished stone panels, and curtain-wall modules.\n- Roofscapes: Pitched Scotch slate roofs with lead-rolled hips, dormer windows, stone parapets, and regular arrays of dressed ashlar chimney stacks.",
        "structures": [
          {
            "name": "Primary Facade",
            "storeys": 2,
            "height_m": 7.5,
            "roof_geometry": "pitched / parapet",
            "facade_material": "authentic regional masonry",
            "planar_rectification": "ENFORCED"
          }
        ]
      }
    },
    {
      "type": "Feature",
      "id": "stratum_6_dynamic_elements",
      "geometry": {
        "type": "Point",
        "coordinates": [
          -3.1897379527696796,
          55.95413308385509
        ]
      },
      "properties": {
        "stratum": "dynamic_elements",
        "transient_decluttering": "ENFORCED",
        "vehicles": "NONE",
        "pedestrians": "NONE",
        "transient_clutter": "STRIPPED",
        "permanent_civil_fabric": "PRESERVED"
      }
    },
    {
      "type": "Feature",
      "id": "stratum_7_atmospheric_state",
      "geometry": null,
      "properties": {
        "stratum": "atmospheric_state",
        "lighting_rig": "SOLAR_EPHEMERIS",
        "timestamp_utc": "2026-09-22T15:30:00+00:00",
        "weather_state": "RAIN",
        "solar_azimuth_deg": 236.56,
        "solar_elevation_deg": 21.08,
        "shadow_azimuth_deg": 56.6,
        "color_temperature_k": 4500,
        "ambient_illuminance_lux": 35000
      }
    }
  ]
}