{
  "type": "FeatureCollection",
  "properties": {
    "address": "9 Belgrave Cres, Edinburgh EH4 3AH, UK",
    "spatial_mode": "3D_TILES",
    "schema_version": "7-Strata-v2.0"
  },
  "features": [
    {
      "type": "Feature",
      "id": "stratum_1_observer_frame",
      "geometry": {
        "type": "Point",
        "coordinates": [
          -3.216766472155142,
          55.953682622313394
        ]
      },
      "properties": {
        "stratum": "observer_frame",
        "spatial_mode": "3D_TILES",
        "camera": {
          "altitude_m_agl": 1.4,
          "pitch_deg": 4.5,
          "heading_deg": 95.8,
          "fov_deg": 60.0
        }
      }
    },
    {
      "type": "Feature",
      "id": "stratum_2_subterranean_geology",
      "geometry": {
        "type": "Point",
        "coordinates": [
          -3.216766472155142,
          55.953682622313394
        ]
      },
      "properties": {
        "stratum": "subterranean_geology",
        "foundation_analysis": "* **Bedrock Stratigraphy:** Carboniferous Lower Oil-Shale Sandstone formation overlain by glacial till.\n* **Lithics & Mortar:** Fine-grained buff Craigleith sandstone and pale carbonaceous Hailes sandstone ashlar; hot-mixed slaked non-hydraulic lime mortar with sharp river sand aggregate.\n* **Hydrology & Drainage:** Sloping topography toward the Water of Leith river basin; subterranean natural spring seepage managed by subsurface stone culverts."
      }
    },
    {
      "type": "Feature",
      "id": "stratum_3_ground_surface",
      "geometry": {
        "type": "Point",
        "coordinates": [
          -3.216766472155142,
          55.953682622313394
        ]
      },
      "properties": {
        "stratum": "ground_surface",
        "primary_surfacing": "Engineered roadway and paved pedestrian curbs",
        "wear_characteristics": "Authentic environmental patina and drainage grading"
      }
    },
    {
      "type": "Feature",
      "id": "stratum_4_landscape_ecology",
      "geometry": {
        "type": "Point",
        "coordinates": [
          -3.216766472155142,
          55.953682622313394
        ]
      },
      "properties": {
        "stratum": "landscape_ecology",
        "botanical_analysis": "* **Species Identification:** *Acer pseudoplatanus* (Sycamore), *Fraxinus excelsior* (European Ash), and *Ulmus glabra* (Wych Elm).\n* **Phenology (September 24):** Dense late-season canopies showing early autumn senescence; marginal foliar chlorosis, patchy yellowing, desiccated leaf margins, and minor early leaf fall along road margins.",
        "foliage_rectification": "Disambiguated from masonry mesh"
      }
    },
    {
      "type": "Feature",
      "id": "stratum_5_built_environment",
      "geometry": {
        "type": "Point",
        "coordinates": [
          -3.216766472155142,
          55.953682622313394
        ]
      },
      "properties": {
        "stratum": "built_environment",
        "architectural_summary": "* **Residential Facades (Foreground/Left):** 3-to-4 storey Victorian/Late Georgian residential townhouse terrace. Dressed ashlar masonry, projecting multi-storey canted window bays, horizontal moulded stringcourses, rusticated base, plumb vertical structural lines, timber sash-and-case fenestration grids.\n* **Ecclesiastical Massing (Center Ground):** Gothic Revival church edifice featuring a square ashlar tower with corner spires and crocketed pinnacles, pointed-arch lancet windows with stone tracery, stepped lateral buttresses, and a steeply pitched Scottish slate gable roof.\n* **Perimeter Infrastructure:** Low coursed rubble sandstone boundary walls capped with dressed stone copings and wrought-iron spearhead railings.\n* **Street Realm:** Asphalt roadway lined with dressed whinstone kerbstones and Caithness stone slab pedestrian footways.",
        "structures": [
          {
            "name": "Primary Facade",
            "storeys": 2,
            "height_m": 7.5,
            "roof_geometry": "pitched / parapet",
            "facade_material": "authentic regional masonry",
            "planar_rectification": "ENFORCED"
          }
        ]
      }
    },
    {
      "type": "Feature",
      "id": "stratum_6_dynamic_elements",
      "geometry": {
        "type": "Point",
        "coordinates": [
          -3.216766472155142,
          55.953682622313394
        ]
      },
      "properties": {
        "stratum": "dynamic_elements",
        "transient_decluttering": "ENFORCED",
        "vehicles": "NONE",
        "pedestrians": "NONE",
        "transient_clutter": "STRIPPED",
        "permanent_civil_fabric": "PRESERVED"
      }
    },
    {
      "type": "Feature",
      "id": "stratum_7_atmospheric_state",
      "geometry": null,
      "properties": {
        "stratum": "atmospheric_state",
        "lighting_rig": "SOLAR_EPHEMERIS",
        "timestamp_utc": "2026-09-24T07:20:59+00:00",
        "weather_state": "OVERCAST",
        "solar_azimuth_deg": 105.97,
        "solar_elevation_deg": 10.45,
        "shadow_azimuth_deg": null,
        "color_temperature_k": 4500,
        "ambient_illuminance_lux": 35000
      }
    }
  ]
}