{
  "type": "FeatureCollection",
  "properties": {
    "address": "14 Queen St, Edinburgh EH2 1LL, UK",
    "spatial_mode": "3D_TILES",
    "schema_version": "7-Strata-v2.0"
  },
  "features": [
    {
      "type": "Feature",
      "id": "stratum_1_observer_frame",
      "geometry": {
        "type": "Point",
        "coordinates": [
          -3.197189045457602,
          55.95527656128912
        ]
      },
      "properties": {
        "stratum": "observer_frame",
        "spatial_mode": "3D_TILES",
        "camera": {
          "altitude_m_agl": 26.8,
          "pitch_deg": -6.7,
          "heading_deg": 227.2,
          "fov_deg": 60.0
        }
      }
    },
    {
      "type": "Feature",
      "id": "stratum_2_subterranean_geology",
      "geometry": {
        "type": "Point",
        "coordinates": [
          -3.197189045457602,
          55.95527656128912
        ]
      },
      "properties": {
        "stratum": "subterranean_geology",
        "foundation_analysis": "Subterranean strata comprise Carboniferous sedimentary sandstones and siltstones of the Gullane Formation, underlain by glacial till and volcanic quartz-dolerite intrusions (Castle Rock crag). Primary masonry lithology consists of local pale-buff Craigleith and Hailes sandstone (calciferous quartz-arenite), bound with historic hydraulic lime mortar."
      }
    },
    {
      "type": "Feature",
      "id": "stratum_3_ground_surface",
      "geometry": {
        "type": "Point",
        "coordinates": [
          -3.197189045457602,
          55.95527656128912
        ]
      },
      "properties": {
        "stratum": "ground_surface",
        "primary_surfacing": "Engineered roadway and paved pedestrian curbs",
        "wear_characteristics": "Authentic environmental patina and drainage grading"
      }
    },
    {
      "type": "Feature",
      "id": "stratum_4_landscape_ecology",
      "geometry": {
        "type": "Point",
        "coordinates": [
          -3.197189045457602,
          55.95527656128912
        ]
      },
      "properties": {
        "stratum": "landscape_ecology",
        "botanical_analysis": "Queen Street Gardens woodland flank containing mature *Acer pseudoplatanus* (Sycamore), *Ulmus glabra* (Wych Elm), *Fagus sylvatica* (Common Beech), and *Tilia \u00d7 europaea* (Common Lime). Late December phenology: complete winter defoliation, bare dark timber canopies, intricate branch silhouettes, and dormant understory turf.",
        "foliage_rectification": "Disambiguated from masonry mesh"
      }
    },
    {
      "type": "Feature",
      "id": "stratum_5_built_environment",
      "geometry": {
        "type": "Point",
        "coordinates": [
          -3.197189045457602,
          55.95527656128912
        ]
      },
      "properties": {
        "stratum": "built_environment",
        "architectural_summary": "Linear Georgian classical terrace row along Queen Street (James Craig New Town plan). Structures feature 3- to 4-storey residential blocks over sunken basement lightwells, accessed via bridging plinths. Vertical load-bearing ashlar envelopes rectified to strict gravity alignment. Pitched rooflines with dormered mansards, prominent masonry chimney stacks with terracotta pots, and regular fenestration grids of 6-over-6 and 12-over-12 timber sash-and-case windows.",
        "structures": [
          {
            "name": "Primary Facade",
            "storeys": 2,
            "height_m": 7.5,
            "roof_geometry": "pitched / parapet",
            "facade_material": "authentic regional masonry",
            "planar_rectification": "ENFORCED"
          }
        ]
      }
    },
    {
      "type": "Feature",
      "id": "stratum_6_dynamic_elements",
      "geometry": {
        "type": "Point",
        "coordinates": [
          -3.197189045457602,
          55.95527656128912
        ]
      },
      "properties": {
        "stratum": "dynamic_elements",
        "transient_decluttering": "ENFORCED",
        "vehicles": "NONE",
        "pedestrians": "NONE",
        "transient_clutter": "STRIPPED",
        "permanent_civil_fabric": "PRESERVED"
      }
    },
    {
      "type": "Feature",
      "id": "stratum_7_atmospheric_state",
      "geometry": null,
      "properties": {
        "stratum": "atmospheric_state",
        "lighting_rig": "SOLAR_EPHEMERIS",
        "timestamp_utc": "2026-12-22T09:15:00+00:00",
        "weather_state": "SNOW",
        "solar_azimuth_deg": 140.36,
        "solar_elevation_deg": 2.3,
        "shadow_azimuth_deg": 320.4,
        "color_temperature_k": 3000,
        "ambient_illuminance_lux": 12000
      }
    }
  ]
}