{
  "type": "FeatureCollection",
  "properties": {
    "address": "12 Charlotte Square, Edinburgh EH2 4ET, UK",
    "spatial_mode": "3D_TILES",
    "schema_version": "7-Strata-v2.0"
  },
  "features": [
    {
      "type": "Feature",
      "id": "stratum_1_observer_frame",
      "geometry": {
        "type": "Point",
        "coordinates": [
          -3.2072049700396352,
          55.951904957281435
        ]
      },
      "properties": {
        "stratum": "observer_frame",
        "spatial_mode": "3D_TILES",
        "camera": {
          "altitude_m_agl": 2.3,
          "pitch_deg": 3.8,
          "heading_deg": 244.4,
          "fov_deg": 60.0
        }
      }
    },
    {
      "type": "Feature",
      "id": "stratum_2_subterranean_geology",
      "geometry": {
        "type": "Point",
        "coordinates": [
          -3.2072049700396352,
          55.951904957281435
        ]
      },
      "properties": {
        "stratum": "subterranean_geology",
        "foundation_analysis": "Subterranean strata composed of Carboniferous sedimentary bedrock of the Inverclyde and Strathclyde Groups, overlain by dense glacial till. Structural masonry dominated by local Craigleith quartzitic sandstone (pale buff-grey, fine-grained, high-silica marine sandstone) alongside Hailes sandstone for structural bedding and foundational footings. Monument base incorporates polished Scottish red and grey granite courses bedded in high-calcium traditional non-hydraulic slaked lime mortar."
      }
    },
    {
      "type": "Feature",
      "id": "stratum_3_ground_surface",
      "geometry": {
        "type": "Point",
        "coordinates": [
          -3.2072049700396352,
          55.951904957281435
        ]
      },
      "properties": {
        "stratum": "ground_surface",
        "primary_surfacing": "Engineered roadway and paved pedestrian curbs",
        "wear_characteristics": "Authentic environmental patina and drainage grading"
      }
    },
    {
      "type": "Feature",
      "id": "stratum_4_landscape_ecology",
      "geometry": {
        "type": "Point",
        "coordinates": [
          -3.2072049700396352,
          55.951904957281435
        ]
      },
      "properties": {
        "stratum": "landscape_ecology",
        "botanical_analysis": "Urban parkland specimens of *Tilia \u00d7 europaea* (Common Lime) and *Acer pseudoplatanus* (Sycamore). Phenological state for late December (winter dormancy): 100% complete defoliation, totally bare branch architecture revealing intricate ramification networks, dark wet bark crusted with dormant nitrophytic lichens (*Xanthoria parietina*), and dormant winter bud clusters.",
        "foliage_rectification": "Disambiguated from masonry mesh"
      }
    },
    {
      "type": "Feature",
      "id": "stratum_5_built_environment",
      "geometry": {
        "type": "Point",
        "coordinates": [
          -3.2072049700396352,
          55.951904957281435
        ]
      },
      "properties": {
        "stratum": "built_environment",
        "architectural_summary": "Neoclassical urban ensemble centered on West Register House (former St George's Church, 1814, Robert Reid). Monumental central frontage features a tetrastyle Ionic portico with pediment, surmounted by an engaged attic stage, a peristyle drum with Corinthian colonnette pilasters, and a ribbed copper dome terminating in an ornate stone lantern. Flanking terraces comprise three-storey plus attic and rusticated basement Georgian townhouses (Robert Adam design, 1791). Elevations display rusticated ground-floor arcades with radial voussoirs, smooth ashlar upper levels ordered by giant-order pilasters, continuous string courses, moulded architraves, balustraded parapets, and timber 6-over-6 sash-and-case windows. In the central green, the Prince Albert Memorial (1876, John Steell) features a monumental bronze equestrian figure atop a stepped, multi-tiered granite pedestal with bronze bas-relief friezes.",
        "structures": [
          {
            "name": "Primary Facade",
            "storeys": 2,
            "height_m": 7.5,
            "roof_geometry": "pitched / parapet",
            "facade_material": "authentic regional masonry",
            "planar_rectification": "ENFORCED"
          }
        ]
      }
    },
    {
      "type": "Feature",
      "id": "stratum_6_dynamic_elements",
      "geometry": {
        "type": "Point",
        "coordinates": [
          -3.2072049700396352,
          55.951904957281435
        ]
      },
      "properties": {
        "stratum": "dynamic_elements",
        "transient_decluttering": "ENFORCED",
        "vehicles": "NONE",
        "pedestrians": "NONE",
        "transient_clutter": "STRIPPED",
        "permanent_civil_fabric": "PRESERVED"
      }
    },
    {
      "type": "Feature",
      "id": "stratum_7_atmospheric_state",
      "geometry": null,
      "properties": {
        "stratum": "atmospheric_state",
        "lighting_rig": "SOLAR_EPHEMERIS",
        "timestamp_utc": "2026-12-22T14:30:00+00:00",
        "weather_state": "SUNNY",
        "solar_azimuth_deg": 211.65,
        "solar_elevation_deg": 5.33,
        "shadow_azimuth_deg": 31.6,
        "color_temperature_k": 3000,
        "ambient_illuminance_lux": 12000
      }
    }
  ]
}