{
  "type": "FeatureCollection",
  "properties": {
    "address": "13 Walker St, Edinburgh EH3 7NE, UK",
    "spatial_mode": "3D_TILES",
    "schema_version": "7-Strata-v2.0"
  },
  "features": [
    {
      "type": "Feature",
      "id": "stratum_1_observer_frame",
      "geometry": {
        "type": "Point",
        "coordinates": [
          -3.2128347806731545,
          55.94940188898314
        ]
      },
      "properties": {
        "stratum": "observer_frame",
        "spatial_mode": "3D_TILES",
        "camera": {
          "altitude_m_agl": 131.5,
          "pitch_deg": 5.5,
          "heading_deg": 100.1,
          "fov_deg": 60.0
        }
      }
    },
    {
      "type": "Feature",
      "id": "stratum_2_subterranean_geology",
      "geometry": {
        "type": "Point",
        "coordinates": [
          -3.2128347806731545,
          55.94940188898314
        ]
      },
      "properties": {
        "stratum": "subterranean_geology",
        "foundation_analysis": "The subterranean substrate consists of Lower Carboniferous sedimentary sequences (sandstones, siltstones, and oil-shales of the Inverclyde and Strathclyde Groups) punctuated by volcanic intrusions\u2014most prominently Castle Rock, an olivine-basalt volcanic plug rising as a crag in the center-left background. The primary structural fabric of the West End Georgian and Victorian tenements, as well as the ecclesiastical architecture, is quarried Carboniferous Craigleith and Hailes sandstone (pale buff, blonde, to cool grey quartz-arenite). Mortar composition across the historic masonry utilizes traditional Scottish non-hydraulic to feebly hydraulic hot-mixed lime mortars with crushed river quartz aggregate. Subterranean moisture regimes are dictated by the natural glacial slope shedding southward towards the Water of Leith and the historic Nor' Loch basin."
      }
    },
    {
      "type": "Feature",
      "id": "stratum_3_ground_surface",
      "geometry": {
        "type": "Point",
        "coordinates": [
          -3.2128347806731545,
          55.94940188898314
        ]
      },
      "properties": {
        "stratum": "ground_surface",
        "primary_surfacing": "Engineered roadway and paved pedestrian curbs",
        "wear_characteristics": "Authentic environmental patina and drainage grading"
      }
    },
    {
      "type": "Feature",
      "id": "stratum_4_landscape_ecology",
      "geometry": {
        "type": "Point",
        "coordinates": [
          -3.2128347806731545,
          55.94940188898314
        ]
      },
      "properties": {
        "stratum": "landscape_ecology",
        "botanical_analysis": "Sparse, mature urban temperate foliage interspersed in private gardens and rear courtyards between tenement plots:\n- *Platanus x acerifolia* (London plane), *Acer pseudoplatanus* (Sycamore), *Fraxinus excelsior* (European ash), and occasional *Tilia x europaea* (Common lime) with dense, broadleaf dark green summer canopies visible between stone chimney clusters and street openings.",
        "foliage_rectification": "Disambiguated from masonry mesh"
      }
    },
    {
      "type": "Feature",
      "id": "stratum_5_built_environment",
      "geometry": {
        "type": "Point",
        "coordinates": [
          -3.2128347806731545,
          55.94940188898314
        ]
      },
      "properties": {
        "stratum": "built_environment",
        "architectural_summary": "A high-angle oblique rooftop vista facing east-southeast (100.1\u00b0 heading) over Edinburgh's West End and New Town fringe:\n- **Foreground (A):** Multiple pitched and mansard rooflines of 3-to-4-storey Georgian and Early Victorian residential tenement blocks (circa 1820\u20131860) along Walker Street and William Street, featuring massive rectangular chimney stacks, stone copings, paired cylindrical terracotta flue pots, and zinc/lead flashing on parapets and valleys.\n- **Center Focus (B):** The prominent 56-metre (184 ft) Venetian Campanile and Roman Baroque church body of St George's West Church (now Charlotte Chapel / former Free St George\u2019s, designed by David Bryce 1867\u201369; tower completed by Sir Robert Rowand Anderson 1879\u201381) on Shandwick Place/Stafford Street. The tower features a four-stage ashlar construction with pilasters, clock faces at the pedimented stage, open round-arched belfry, Corinthian orders, corner stone urns, and a verdigris copper pyramidal spire.\n- **Center-Left Background:** The looming, precipitous basalt crag and massive fortress complex of Edinburgh Castle (Half Moon Battery, Palace Block, Crown Square) perched on its volcanic pedestal.\n- **Midground Flanks (C):** Continuous 4-storey residential ashlar tenement facades with regular vertical bays of timber-framed six-over-six and two-over-two double-hung sash windows, rectified gravity-plumb vertical party walls, and uniform cornice lines.",
        "structures": [
          {
            "name": "Primary Facade",
            "storeys": 2,
            "height_m": 7.5,
            "roof_geometry": "pitched / parapet",
            "facade_material": "authentic regional masonry",
            "planar_rectification": "ENFORCED"
          }
        ]
      }
    },
    {
      "type": "Feature",
      "id": "stratum_6_dynamic_elements",
      "geometry": {
        "type": "Point",
        "coordinates": [
          -3.2128347806731545,
          55.94940188898314
        ]
      },
      "properties": {
        "stratum": "dynamic_elements",
        "transient_decluttering": "ENFORCED",
        "vehicles": "NONE",
        "pedestrians": "NONE",
        "transient_clutter": "STRIPPED",
        "permanent_civil_fabric": "PRESERVED"
      }
    },
    {
      "type": "Feature",
      "id": "stratum_7_atmospheric_state",
      "geometry": null,
      "properties": {
        "stratum": "atmospheric_state",
        "lighting_rig": "SOLAR_EPHEMERIS",
        "timestamp_utc": "2026-08-26T20:42:00.562000+00:00",
        "weather_state": "OVERCAST",
        "temperature_c": 16.4,
        "solar_azimuth_deg": 233.16,
        "solar_elevation_deg": -10.22,
        "shadow_azimuth_deg": 53.2,
        "color_temperature_k": 2000,
        "ambient_illuminance_lux": 5
      }
    }
  ]
}