{
  "type": "FeatureCollection",
  "properties": {
    "address": "12 Marchmont Cres, Edinburgh EH9 1HN, UK",
    "spatial_mode": "3D_TILES",
    "schema_version": "7-Strata-v2.0"
  },
  "features": [
    {
      "type": "Feature",
      "id": "stratum_1_observer_frame",
      "geometry": {
        "type": "Point",
        "coordinates": [
          -3.193655412697171,
          55.93895370071131
        ]
      },
      "properties": {
        "stratum": "observer_frame",
        "spatial_mode": "3D_TILES",
        "camera": {
          "altitude_m_agl": 224.1,
          "pitch_deg": -39.5,
          "heading_deg": 164.2,
          "fov_deg": 60.0
        }
      }
    },
    {
      "type": "Feature",
      "id": "stratum_2_subterranean_geology",
      "geometry": {
        "type": "Point",
        "coordinates": [
          -3.193655412697171,
          55.93895370071131
        ]
      },
      "properties": {
        "stratum": "subterranean_geology",
        "foundation_analysis": "The subterranean geology of Marchmont rests on the Lower Carboniferous Gullane Formation and sedimentary sequences of the Inverclyde and Strathclyde Groups, underlain by glacial till over Devonian sandstone and volcanic basalt intrusions characteristic of the Edinburgh basin. The primary building envelope is constructed from indigenous Scottish Carboniferous blond and buff-grey sandstones, historically quarried from the Hailes, Craigleith, and Clunevar quarries. Ground masonry shows a predominance of course-grained quartz-rich arenite set in traditional lime-based mortar (calcium hydroxide with sharp river sand aggregate), providing natural breathability and moisture transversion through continuous wet-dry atmospheric cycles. Subterranean moisture is directed through historic brick-lined drainage runs and vaulted sub-pavements typical of late Victorian suburban development."
      }
    },
    {
      "type": "Feature",
      "id": "stratum_3_ground_surface",
      "geometry": {
        "type": "Point",
        "coordinates": [
          -3.193655412697171,
          55.93895370071131
        ]
      },
      "properties": {
        "stratum": "ground_surface",
        "primary_surfacing": "Engineered roadway and paved pedestrian curbs",
        "wear_characteristics": "Authentic environmental patina and drainage grading"
      }
    },
    {
      "type": "Feature",
      "id": "stratum_4_landscape_ecology",
      "geometry": {
        "type": "Point",
        "coordinates": [
          -3.193655412697171,
          55.93895370071131
        ]
      },
      "properties": {
        "stratum": "landscape_ecology",
        "botanical_analysis": "Street-level and rear communal garden greenery consists of mature deciduous urban canopy trees:\n- **Species:** Sycamore (*Acer pseudoplatanus*), London Plane (*Platanus x acerifolia*), Common Lime (*Tilia x europaea*), and native Birch (*Betula pendula*).\n- **Botanical Detailing:** Rich, organic, multi-layered broadleaf foliage with distinct branch geometry, leaf clusters, and natural sunlight percolation, fully disambiguated from adjacent masonry.",
        "foliage_rectification": "Disambiguated from masonry mesh"
      }
    },
    {
      "type": "Feature",
      "id": "stratum_5_built_environment",
      "geometry": {
        "type": "Point",
        "coordinates": [
          -3.193655412697171,
          55.93895370071131
        ]
      },
      "properties": {
        "stratum": "built_environment",
        "architectural_summary": "The scene captures a dense urban intersection centered on Marchmont Crescent curving toward Warrender Park and Spottiswoode Street. Typology consists entirely of late Victorian (c. 1876\u20131890) Scots Baronial and 17th-century Scottish vernacular residential tenement blocks.\n- **Centre & Curved Frontages:** 4-storey plus attic/mansard levels (approx. 14\u201316m to wall-head, 18m to ridge lines) featuring full-height canted bay windows, conical-roofed corner bartizans/tourelles, crow-stepped and pedimented gables, corbelled corner transitions, and elaborate dormer projections.\n- **Fenestration & Vertical Plumb:** Rhythms of regular timber-framed 1-over-1 and multi-pane sash and case windows set deeply into chamfered ashlar reveals. Ground floor features traditional recessed timber shopfronts with intact fascia signbands and cast-iron vent grilles.\n- **Roofscape:** Steeply pitched Scottish blue-grey slate roofs with lead ridges, valley flashings, zinc-capped mansard flat decks, glazed rooflights, and massive squared ashlar mutual chimney stacks bearing cylindrical terracotta chimney pots.\n- **Anti-Warp Planar Rectification:** All tenement facades, bay window stacks, and corner towers are restored to absolute plumb verticality, correcting mesh melt and camera pitch distortions. Balcony courses, string courses, and eaves lines form uninterrupted horizontal planes.",
        "structures": [
          {
            "name": "Primary Facade",
            "storeys": 2,
            "height_m": 7.5,
            "roof_geometry": "pitched / parapet",
            "facade_material": "authentic regional masonry",
            "planar_rectification": "ENFORCED"
          }
        ]
      }
    },
    {
      "type": "Feature",
      "id": "stratum_6_dynamic_elements",
      "geometry": {
        "type": "Point",
        "coordinates": [
          -3.193655412697171,
          55.93895370071131
        ]
      },
      "properties": {
        "stratum": "dynamic_elements",
        "transient_decluttering": "ENFORCED",
        "vehicles": "NONE",
        "pedestrians": "NONE",
        "transient_clutter": "STRIPPED",
        "permanent_civil_fabric": "PRESERVED"
      }
    },
    {
      "type": "Feature",
      "id": "stratum_7_atmospheric_state",
      "geometry": null,
      "properties": {
        "stratum": "atmospheric_state",
        "lighting_rig": "SOLAR_EPHEMERIS",
        "timestamp_utc": "2026-11-26T12:53:46.477299+00:00",
        "weather_state": "SUNNY",
        "temperature_c": 15.0,
        "solar_azimuth_deg": 347.24,
        "solar_elevation_deg": 12.42,
        "shadow_azimuth_deg": 167.2,
        "color_temperature_k": 4500,
        "ambient_illuminance_lux": 35000
      }
    }
  ]
}