{
  "type": "FeatureCollection",
  "properties": {
    "address": "1 W Register St, Edinburgh EH2 2AA, UK",
    "spatial_mode": "3D_TILES",
    "schema_version": "7-Strata-v2.0"
  },
  "features": [
    {
      "type": "Feature",
      "id": "stratum_1_observer_frame",
      "geometry": {
        "type": "Point",
        "coordinates": [
          -3.1901169968103114,
          55.954149049306416
        ]
      },
      "properties": {
        "stratum": "observer_frame",
        "spatial_mode": "3D_TILES",
        "camera": {
          "altitude_m_agl": 69.2,
          "pitch_deg": -27.2,
          "heading_deg": 270.5,
          "fov_deg": 60.0
        }
      }
    },
    {
      "type": "Feature",
      "id": "stratum_2_subterranean_geology",
      "geometry": {
        "type": "Point",
        "coordinates": [
          -3.1901169968103114,
          55.954149049306416
        ]
      },
      "properties": {
        "stratum": "subterranean_geology",
        "foundation_analysis": "- Bedrock: Carboniferous sandstones and siltstones of the Inverclyde and Strathclyde Groups, overlain by glacial till.\n- Masonry Lithics: Craigleith and Hailes pale buff-to-grey Carboniferous quartz-arenite sandstone ashlar; secondary Clashach and Blaxter sandstone dressings; Caithness flagstone paving; Scottish whinstone (dolerite) kerbstones.\n- Mortar & Drainage: Traditional hot-mixed non-hydraulic lime mortar; natural westward sloping topography draining toward the Water of Leith basin."
      }
    },
    {
      "type": "Feature",
      "id": "stratum_3_ground_surface",
      "geometry": {
        "type": "Point",
        "coordinates": [
          -3.1901169968103114,
          55.954149049306416
        ]
      },
      "properties": {
        "stratum": "ground_surface",
        "primary_surfacing": "Engineered roadway and paved pedestrian curbs",
        "wear_characteristics": "Authentic environmental patina and drainage grading"
      }
    },
    {
      "type": "Feature",
      "id": "stratum_4_landscape_ecology",
      "geometry": {
        "type": "Point",
        "coordinates": [
          -3.1901169968103114,
          55.954149049306416
        ]
      },
      "properties": {
        "stratum": "landscape_ecology",
        "botanical_analysis": "- Species: *Acer pseudoplatanus* (Sycamore), *Tilia \u00d7 europaea* (Common Lime), *Ulmus glabra* (Wych Elm), and *Betula pendula* (Silver Birch).\n- Phenology (Late September): Fully expanded, mature canopies exhibiting early autumn senescent chlorosis; mottled deep green, dull yellow, and russet foliage with initial canopy thinning.",
        "foliage_rectification": "Disambiguated from masonry mesh"
      }
    },
    {
      "type": "Feature",
      "id": "stratum_5_built_environment",
      "geometry": {
        "type": "Point",
        "coordinates": [
          -3.1901169968103114,
          55.954149049306416
        ]
      },
      "properties": {
        "stratum": "built_environment",
        "architectural_summary": "- Melville Monument: 42-meter fluted Roman Doric column on a stepped rusticated square pedestal, surmounted by a standing stone figure.\n- Surrounding Urban Blocks: 4-to-6-storey Georgian New Town neoclassical terraces, Victorian commercial palazzi, and late-20th/early-21st-century curtain-wall/stone-clad office blocks.\n- Fenestration & Roofs: Regular grids of 6-over-6 timber sash-and-case windows, large modern glazed apertures, pitched Scottish slate roofs, lead-rolled flat roof decks, and parapet balustrades.\n- Rectification: Planar vertical facades rectified to true gravity plumb; orthogonal grid alignments along perimeter thoroughfares.",
        "structures": [
          {
            "name": "Primary Facade",
            "storeys": 2,
            "height_m": 7.5,
            "roof_geometry": "pitched / parapet",
            "facade_material": "authentic regional masonry",
            "planar_rectification": "ENFORCED"
          }
        ]
      }
    },
    {
      "type": "Feature",
      "id": "stratum_6_dynamic_elements",
      "geometry": {
        "type": "Point",
        "coordinates": [
          -3.1901169968103114,
          55.954149049306416
        ]
      },
      "properties": {
        "stratum": "dynamic_elements",
        "transient_decluttering": "ENFORCED",
        "vehicles": "NONE",
        "pedestrians": "NONE",
        "transient_clutter": "STRIPPED",
        "permanent_civil_fabric": "PRESERVED"
      }
    },
    {
      "type": "Feature",
      "id": "stratum_7_atmospheric_state",
      "geometry": null,
      "properties": {
        "stratum": "atmospheric_state",
        "lighting_rig": "SOLAR_EPHEMERIS",
        "timestamp_utc": "2026-09-22T12:30:00+00:00",
        "weather_state": "SUNNY",
        "solar_azimuth_deg": 187.44,
        "solar_elevation_deg": 34.45,
        "shadow_azimuth_deg": 7.4,
        "color_temperature_k": 5400,
        "ambient_illuminance_lux": 60000
      }
    }
  ]
}