{
  "type": "FeatureCollection",
  "properties": {
    "address": "12 Charlotte Square, Edinburgh EH2 4ET, UK",
    "spatial_mode": "3D_TILES",
    "schema_version": "7-Strata-v2.0"
  },
  "features": [
    {
      "type": "Feature",
      "id": "stratum_1_observer_frame",
      "geometry": {
        "type": "Point",
        "coordinates": [
          -3.207133648782487,
          55.951949893257485
        ]
      },
      "properties": {
        "stratum": "observer_frame",
        "spatial_mode": "3D_TILES",
        "camera": {
          "altitude_m_agl": 5.5,
          "pitch_deg": 2.8,
          "heading_deg": 247.2,
          "fov_deg": 60.0
        }
      }
    },
    {
      "type": "Feature",
      "id": "stratum_2_subterranean_geology",
      "geometry": {
        "type": "Point",
        "coordinates": [
          -3.207133648782487,
          55.951949893257485
        ]
      },
      "properties": {
        "stratum": "subterranean_geology",
        "foundation_analysis": "Subterranean strata of Lower Carboniferous sandstone and siltstone (Inverclyde and Strathclyde Groups) overlain by compacted glacial lodgement till. Primary structural masonry comprises fine-grained, pale buff-to-grey quartz-arenite sandstone quarried from local Craigleith and Hailes deposits. Bedding courses bound with traditional hydraulic lime and sharp silica sand mortars."
      }
    },
    {
      "type": "Feature",
      "id": "stratum_3_ground_surface",
      "geometry": {
        "type": "Point",
        "coordinates": [
          -3.207133648782487,
          55.951949893257485
        ]
      },
      "properties": {
        "stratum": "ground_surface",
        "primary_surfacing": "Engineered roadway and paved pedestrian curbs",
        "wear_characteristics": "Authentic environmental patina and drainage grading"
      }
    },
    {
      "type": "Feature",
      "id": "stratum_4_landscape_ecology",
      "geometry": {
        "type": "Point",
        "coordinates": [
          -3.207133648782487,
          55.951949893257485
        ]
      },
      "properties": {
        "stratum": "landscape_ecology",
        "botanical_analysis": "Mature urban parkland specimens of *Acer pseudoplatanus* (Sycamore) and *Tilia \u00d7 europaea* (Common Lime). December winter phenology: completely defoliated, displaying bare dendritic branch architectures, exposed dark bark trunks, dormant terminal buds, and dormant *Lolium perenne* turf groundcover.",
        "foliage_rectification": "Disambiguated from masonry mesh"
      }
    },
    {
      "type": "Feature",
      "id": "stratum_5_built_environment",
      "geometry": {
        "type": "Point",
        "coordinates": [
          -3.207133648782487,
          55.951949893257485
        ]
      },
      "properties": {
        "stratum": "built_environment",
        "architectural_summary": "Neoclassical urban square composition dominated by West Register House (formerly St George's Church). Central monument features a monumental tetrastyle portico, engaged giant order colonnade, square clock-stage attic, and a tiered cylindrical drum supporting a ribbed hemispherical dome with terminal cupola lantern. Flanking Robert Adam-designed terraces form unified multi-bay, three-storey compositions over rusticated basements, featuring planar ashlar facades, string courses, mutule cornices, continuous balustraded parapets, regular 6-over-6 timber sash-and-case fenestration, and steep slate mansards with robust chimney stacks. Central foreground retains the multi-tiered Prince Albert equestrian monument.",
        "structures": [
          {
            "name": "Primary Facade",
            "storeys": 2,
            "height_m": 7.5,
            "roof_geometry": "pitched / parapet",
            "facade_material": "authentic regional masonry",
            "planar_rectification": "ENFORCED"
          }
        ]
      }
    },
    {
      "type": "Feature",
      "id": "stratum_6_dynamic_elements",
      "geometry": {
        "type": "Point",
        "coordinates": [
          -3.207133648782487,
          55.951949893257485
        ]
      },
      "properties": {
        "stratum": "dynamic_elements",
        "transient_decluttering": "ENFORCED",
        "vehicles": "NONE",
        "pedestrians": "NONE",
        "transient_clutter": "STRIPPED",
        "permanent_civil_fabric": "PRESERVED"
      }
    },
    {
      "type": "Feature",
      "id": "stratum_7_atmospheric_state",
      "geometry": null,
      "properties": {
        "stratum": "atmospheric_state",
        "lighting_rig": "SOLAR_EPHEMERIS",
        "timestamp_utc": "2026-12-22T07:20:59+00:00",
        "weather_state": "SNOW",
        "solar_azimuth_deg": 117.27,
        "solar_elevation_deg": -10.08,
        "shadow_azimuth_deg": null,
        "color_temperature_k": 2000,
        "ambient_illuminance_lux": 5
      }
    }
  ]
}