{
  "type": "FeatureCollection",
  "properties": {
    "address": "West End, Atholl Cres, Edinburgh EH3 8HA, UK",
    "spatial_mode": "3D_TILES",
    "schema_version": "7-Strata-v2.0"
  },
  "features": [
    {
      "type": "Feature",
      "id": "stratum_1_observer_frame",
      "geometry": {
        "type": "Point",
        "coordinates": [
          -3.2121984641645454,
          55.948111640159915
        ]
      },
      "properties": {
        "stratum": "observer_frame",
        "spatial_mode": "3D_TILES",
        "camera": {
          "altitude_m_agl": 151.4,
          "pitch_deg": -4.5,
          "heading_deg": 40.7,
          "fov_deg": 60.0
        }
      }
    },
    {
      "type": "Feature",
      "id": "stratum_2_subterranean_geology",
      "geometry": {
        "type": "Point",
        "coordinates": [
          -3.2121984641645454,
          55.948111640159915
        ]
      },
      "properties": {
        "stratum": "subterranean_geology",
        "foundation_analysis": "The terrain sits atop Lower Carboniferous sedimentary formations of the Inverclyde and Strathclyde Groups, characterized by interbedded sandstones, siltstones, and mudstones with underlying volcanic basalt intrusions typical of the Lothian basin. The primary building stone dominating the structural fabric is pale golden-grey Craigleith and Hailes sandstone (quartz-arenite), bedded with traditional non-hydraulic to weakly hydraulic lime mortar (slaked quicklime with sharp silica aggregate). Subterranean moisture is managed through 19th-century subsurface brick and stone-culvert drainage channels directing runoff toward the Water of Leith catchment."
      }
    },
    {
      "type": "Feature",
      "id": "stratum_3_ground_surface",
      "geometry": {
        "type": "Point",
        "coordinates": [
          -3.2121984641645454,
          55.948111640159915
        ]
      },
      "properties": {
        "stratum": "ground_surface",
        "primary_surfacing": "Engineered roadway and paved pedestrian curbs",
        "wear_characteristics": "Authentic environmental patina and drainage grading"
      }
    },
    {
      "type": "Feature",
      "id": "stratum_4_landscape_ecology",
      "geometry": {
        "type": "Point",
        "coordinates": [
          -3.2121984641645454,
          55.948111640159915
        ]
      },
      "properties": {
        "stratum": "landscape_ecology",
        "botanical_analysis": "- Atholl Crescent Gardens (foreground left/center) contains mature broadleaf urban vegetation: European limes (*Tilia \u00d7 europaea*), sycamore maples (*Acer pseudoplatanus*), English elms (*Ulmus minor*), and rowan (*Sorbus aucuparia*), rendered with dense organic leafy canopies, detailed leaf clusters, and natural woody branching, fully disambiguated from adjacent stone walls.",
        "foliage_rectification": "Disambiguated from masonry mesh"
      }
    },
    {
      "type": "Feature",
      "id": "stratum_5_built_environment",
      "geometry": {
        "type": "Point",
        "coordinates": [
          -3.2121984641645454,
          55.948111640159915
        ]
      },
      "properties": {
        "stratum": "built_environment",
        "architectural_summary": "A panoramic streetscape looking northeast down Shandwick Place towards Princes Street and the New Town:\n- Foreground/Left: Neoclassical curved residential terraces of Atholl Crescent (designed by Thomas Bonnar, c. 1825) rising 3 to 4 storeys over raised basement areas with ashlar frontages, horizontal stringcourses, timber-framed multi-pane sash windows, cantilevered stone steps, and continuous mansard slate roofs punctuated by regularly spaced dormer windows and tall stone chimney stacks.\n- Center Midground: The imposing 56-meter Venetian campanile clock tower and Roman Baroque church body of the former St George\u2019s West Church (now Charlotte Chapel, main hall by David Bryce 1866\u201369, tower by Sir Robert Rowand Anderson 1879\u201381). The tower features rusticated and vermiculated base courses, smooth ashlar shaft with slit vents, a square louvered belfry stage with clock dials, and a copper-clad pyramidal spire.\n- Distant Left/Horizon: The elevated copper-domed rotunda of West Register House (former St George's Church, Charlotte Square, by Robert Reid, 1811\u201314) framed against the Firth of Forth.\n- Foreground/Right: Flanking New Town tenements and commercial frontages along Shandwick Place and Atholl Place, exhibiting classical ashlar orders, rusticated ground-floor masonry, regular 4-storey massing, and lead-flashed parapets. All facades are plumbed to true gravitational vertical, with planar balconies and sharp rectilinear fenestration.",
        "structures": [
          {
            "name": "Primary Facade",
            "storeys": 2,
            "height_m": 7.5,
            "roof_geometry": "pitched / parapet",
            "facade_material": "authentic regional masonry",
            "planar_rectification": "ENFORCED"
          }
        ]
      }
    },
    {
      "type": "Feature",
      "id": "stratum_6_dynamic_elements",
      "geometry": {
        "type": "Point",
        "coordinates": [
          -3.2121984641645454,
          55.948111640159915
        ]
      },
      "properties": {
        "stratum": "dynamic_elements",
        "transient_decluttering": "ENFORCED",
        "vehicles": "NONE",
        "pedestrians": "NONE",
        "transient_clutter": "STRIPPED",
        "permanent_civil_fabric": "PRESERVED"
      }
    },
    {
      "type": "Feature",
      "id": "stratum_7_atmospheric_state",
      "geometry": null,
      "properties": {
        "stratum": "atmospheric_state",
        "lighting_rig": "SOLAR_EPHEMERIS",
        "timestamp_utc": "2026-08-27T16:00:50.927631+00:00",
        "weather_state": "OVERCAST",
        "temperature_c": 15.7,
        "solar_azimuth_deg": 293.08,
        "solar_elevation_deg": 26.86,
        "shadow_azimuth_deg": 113.1,
        "color_temperature_k": 5400,
        "ambient_illuminance_lux": 60000
      }
    }
  ]
}