{
  "type": "FeatureCollection",
  "properties": {
    "address": "12 Randolph Cres, Edinburgh EH3 7TT, UK",
    "spatial_mode": "3D_TILES",
    "schema_version": "7-Strata-v2.0"
  },
  "features": [
    {
      "type": "Feature",
      "id": "stratum_1_observer_frame",
      "geometry": {
        "type": "Point",
        "coordinates": [
          -3.212321740118162,
          55.95251079491338
        ]
      },
      "properties": {
        "stratum": "observer_frame",
        "spatial_mode": "3D_TILES",
        "camera": {
          "altitude_m_agl": 136.9,
          "pitch_deg": -10.2,
          "heading_deg": 307.2,
          "fov_deg": 60.0
        }
      }
    },
    {
      "type": "Feature",
      "id": "stratum_2_subterranean_geology",
      "geometry": {
        "type": "Point",
        "coordinates": [
          -3.212321740118162,
          55.95251079491338
        ]
      },
      "properties": {
        "stratum": "subterranean_geology",
        "foundation_analysis": "The deep incised gorge of the Water of Leith is carved into the Carboniferous sedimentary strata of the Lower Oil-Shale Group (specifically Granton Sandstone and Wardie Shales), heavily shaped by post-glacial meltwater erosion. The civil and bridge structures are founded directly on competent sandstone bedrock along the gorge floor and flanks. Primary construction lithics consist of blonde-to-buff, carboniferous Craigleith sandstone ashlar\u2014renowned for its high quartz density and exceptional durability\u2014supplemented by Hailes sandstone for structural backing. Mortar beds utilize traditional Scottish non-hydraulic to feebly hydraulic lime formulations with coarse river aggregates, facilitating breathability across deep load-bearing joints. Subterranean moisture dynamics are dictated by groundwater seepages along fault planes and quartz-dolerite dykes within the gorge walls."
      }
    },
    {
      "type": "Feature",
      "id": "stratum_3_ground_surface",
      "geometry": {
        "type": "Point",
        "coordinates": [
          -3.212321740118162,
          55.95251079491338
        ]
      },
      "properties": {
        "stratum": "ground_surface",
        "primary_surfacing": "Engineered roadway and paved pedestrian curbs",
        "wear_characteristics": "Authentic environmental patina and drainage grading"
      }
    },
    {
      "type": "Feature",
      "id": "stratum_4_landscape_ecology",
      "geometry": {
        "type": "Point",
        "coordinates": [
          -3.212321740118162,
          55.95251079491338
        ]
      },
      "properties": {
        "stratum": "landscape_ecology",
        "botanical_analysis": "The Dean Gorge and Dean Gardens beneath the bridge form a dense, mature riparian urban forest. Canopies are dominated by broadleaf deciduous species:\n- *Acer pseudoplatanus* (Sycamore / Scottish Plane)\n- *Fagus sylvatica* (European Beech)\n- *Fraxinus excelsior* (European Ash)\n- *Ulmus glabra* (Wych Elm)\n- Understorey comprising *Hedera helix* (English Ivy) clambering over natural rock outcrops and lower retaining revetments, riverbank ferns, and wild garlic (*Allium ursinum*) along the Water of Leith riverbed.",
        "foliage_rectification": "Disambiguated from masonry mesh"
      }
    },
    {
      "type": "Feature",
      "id": "stratum_5_built_environment",
      "geometry": {
        "type": "Point",
        "coordinates": [
          -3.212321740118162,
          55.95251079491338
        ]
      },
      "properties": {
        "stratum": "built_environment",
        "architectural_summary": "- **Foreground / Central Span:** Dean Bridge (engineered by Thomas Telford, 1829\u20131831), a Category A listed high-level masonry road bridge carrying the A90. Features four towering semi-circular arches (each spanning 27.4m, rising 32.3m above the riverbed) integrated with projecting outer segmental arches on hollow ashlar piers that support cantilevered pedestrian walkways. Raised stone parapets (retrofitted 1912) cap the rectilinear deck.\n- **Center-Left Background:** Holy Trinity Episcopal Church (Gothic Revival, 1838, John Henderson), exhibiting a multi-tiered square bell tower with pinnacles, crocketed spires, flying buttresses, lancet fenestration, and steep slate pitched gables.\n- **Left & Right Flanking Background:** Georgian New Town / Moray Estate residential terraces (Randolph Crescent, Randolph Cliff, and Dean Terrace), presenting unified 3- to 4-storey Classical palace-front facades with rusticated basements, piano nobile sash windows, entablatures, continuous ashlar band courses, and Scottish slate mansard roofs punctuated by ashlar chimney stacks.",
        "structures": [
          {
            "name": "Primary Facade",
            "storeys": 2,
            "height_m": 7.5,
            "roof_geometry": "pitched / parapet",
            "facade_material": "authentic regional masonry",
            "planar_rectification": "ENFORCED"
          }
        ]
      }
    },
    {
      "type": "Feature",
      "id": "stratum_6_dynamic_elements",
      "geometry": {
        "type": "Point",
        "coordinates": [
          -3.212321740118162,
          55.95251079491338
        ]
      },
      "properties": {
        "stratum": "dynamic_elements",
        "transient_decluttering": "ENFORCED",
        "vehicles": "NONE",
        "pedestrians": "NONE",
        "transient_clutter": "STRIPPED",
        "permanent_civil_fabric": "PRESERVED"
      }
    },
    {
      "type": "Feature",
      "id": "stratum_7_atmospheric_state",
      "geometry": null,
      "properties": {
        "stratum": "atmospheric_state",
        "lighting_rig": "SOLAR_EPHEMERIS",
        "timestamp_utc": "2026-11-11T07:24:50.957218+00:00",
        "weather_state": "FOG",
        "temperature_c": 15.0,
        "solar_azimuth_deg": 62.51,
        "solar_elevation_deg": -2.56,
        "shadow_azimuth_deg": 242.5,
        "color_temperature_k": 2400,
        "ambient_illuminance_lux": 800
      }
    }
  ]
}