{
  "type": "FeatureCollection",
  "properties": {
    "address": "40 Charlotte Square, Edinburgh EH2 4HQ, UK",
    "spatial_mode": "3D_TILES",
    "schema_version": "7-Strata-v2.0"
  },
  "features": [
    {
      "type": "Feature",
      "id": "stratum_1_observer_frame",
      "geometry": {
        "type": "Point",
        "coordinates": [
          -3.206928039539391,
          55.95191750686016
        ]
      },
      "properties": {
        "stratum": "observer_frame",
        "spatial_mode": "3D_TILES",
        "camera": {
          "altitude_m_agl": 6.5,
          "pitch_deg": 0.8,
          "heading_deg": 253.7,
          "fov_deg": 60.0
        }
      }
    },
    {
      "type": "Feature",
      "id": "stratum_2_subterranean_geology",
      "geometry": {
        "type": "Point",
        "coordinates": [
          -3.206928039539391,
          55.95191750686016
        ]
      },
      "properties": {
        "stratum": "subterranean_geology",
        "foundation_analysis": "- **Bedrock**: Carboniferous sedimentary strata (sandstone, siltstone, oil-shale) overlying intrusive volcanic basalt and dolerite sills of the Midland Valley.\n- **Lithics**: Craigleith and Hailes pale buff-to-grey quartzose sandstone ashlar; Peterhead pink and grey granite steps and monument plinths.\n- **Mortar & Ground**: Hydraulic lime-sand mortar with fine aggregate; free-draining urban topsoil over glacial till (boulder clay)."
      }
    },
    {
      "type": "Feature",
      "id": "stratum_3_ground_surface",
      "geometry": {
        "type": "Point",
        "coordinates": [
          -3.206928039539391,
          55.95191750686016
        ]
      },
      "properties": {
        "stratum": "ground_surface",
        "primary_surfacing": "Engineered roadway and paved pedestrian curbs",
        "wear_characteristics": "Authentic environmental patina and drainage grading"
      }
    },
    {
      "type": "Feature",
      "id": "stratum_4_landscape_ecology",
      "geometry": {
        "type": "Point",
        "coordinates": [
          -3.206928039539391,
          55.95191750686016
        ]
      },
      "properties": {
        "stratum": "landscape_ecology",
        "botanical_analysis": "- **Species Composition**: *Tilia \u00d7 europaea* (Common Lime), *Acer pseudoplatanus* (Sycamore), *Platanus \u00d7 acerifolia* (London Plane), and *Ulmus glabra* (Wych Elm).\n- **Phenology (Late September)**: Broad-spreading deciduous canopies in late-season deep green foliage displaying early autumnal chlorosis, patchy yellowing on leaf margins, and minor canopy thinning; mown *Lolium perenne* and *Poa pratensis* turf.",
        "foliage_rectification": "Disambiguated from masonry mesh"
      }
    },
    {
      "type": "Feature",
      "id": "stratum_5_built_environment",
      "geometry": {
        "type": "Point",
        "coordinates": [
          -3.206928039539391,
          55.95191750686016
        ]
      },
      "properties": {
        "stratum": "built_environment",
        "architectural_summary": "- **Central Monumental Structure**: West Register House (former St George's Church, Robert Reid / Robert Adam); Neoclassical Greek-cross plan with four-column Ionic portico, dentiled pediment, cylindrical drum with Corinthian pilasters, and copper-clad hemispherical dome crowned by an octagonal stone lantern.\n- **Flanking Terraces**: Charlotte Square west pavilions; 3-storey plus rusticated basement and attic dormers, classical Georgian New Town palace-front facade design, continuous platbands, moulded eaves cornices, and pitched roofs with lead ridges.\n- **Fenestration**: Rectilinear grids of 12-pane and 6-over-6 timber sash-and-case windows set in rebated stone reveals; recessed basement area wells behind cast-iron spearhead railings.\n- **Central Monument**: Prince Albert Memorial (Sir John Steell, 1876); bronze equestrian statue group on a stepped polished pink granite and sandstone pedestal with subsidiary bronze bronze corner groupings.",
        "structures": [
          {
            "name": "Primary Facade",
            "storeys": 2,
            "height_m": 7.5,
            "roof_geometry": "pitched / parapet",
            "facade_material": "authentic regional masonry",
            "planar_rectification": "ENFORCED"
          }
        ]
      }
    },
    {
      "type": "Feature",
      "id": "stratum_6_dynamic_elements",
      "geometry": {
        "type": "Point",
        "coordinates": [
          -3.206928039539391,
          55.95191750686016
        ]
      },
      "properties": {
        "stratum": "dynamic_elements",
        "transient_decluttering": "ENFORCED",
        "vehicles": "NONE",
        "pedestrians": "NONE",
        "transient_clutter": "STRIPPED",
        "permanent_civil_fabric": "PRESERVED"
      }
    },
    {
      "type": "Feature",
      "id": "stratum_7_atmospheric_state",
      "geometry": null,
      "properties": {
        "stratum": "atmospheric_state",
        "lighting_rig": "SOLAR_EPHEMERIS",
        "timestamp_utc": "2026-09-22T16:30:00+00:00",
        "weather_state": "SNOW",
        "solar_azimuth_deg": 250.17,
        "solar_elevation_deg": 13.58,
        "shadow_azimuth_deg": 70.2,
        "color_temperature_k": 4500,
        "ambient_illuminance_lux": 35000
      }
    }
  ]
}