{
  "type": "FeatureCollection",
  "features": [
    {
      "type": "Feature",
      "geometry": {
        "type": "Point",
        "coordinates": [
          -77.03743,
          38.900306
        ]
      },
      "properties": {
        "stratum": "observer_frame",
        "altitude_agl_m": 255.2,
        "pitch_deg": -60.3,
        "heading_deg": 42.1,
        "fov_deg": 60.0,
        "spatial_mode": "3D_TILES"
      }
    },
    {
      "type": "Feature",
      "geometry": {
        "type": "Polygon",
        "coordinates": [
          [
            [
              -77.04,
              38.898
            ],
            [
              -77.035,
              38.898
            ],
            [
              -77.035,
              38.902
            ],
            [
              -77.04,
              38.902
            ],
            [
              -77.04,
              38.898
            ]
          ]
        ]
      },
      "properties": {
        "stratum": "subterranean_geology",
        "bedrock_type": "Piedmont crystalline metamorphic rock and Atlantic Coastal Plain sediment contact zone",
        "stratigraphy": "Pleistocene fluvial terrace gravels, silts, and clays over deeply weathered crystalline schist",
        "drainage": "Engineered urban storm runoff into subterranean Potomac River basin sewers",
        "local_quarry_lithics": "Indiana limestone, Potomac blue stone, and Maryland sandstone"
      }
    },
    {
      "type": "Feature",
      "geometry": {
        "type": "Polygon",
        "coordinates": [
          [
            [
              -77.0385,
              38.8995
            ],
            [
              -77.0365,
              38.8995
            ],
            [
              -77.0365,
              38.9015
            ],
            [
              -77.0385,
              38.9015
            ],
            [
              -77.0385,
              38.8995
            ]
          ]
        ]
      },
      "properties": {
        "stratum": "ground_surface",
        "primary_surfacing": "Heavy-aggregate asphalt roadbed with yellow mural street text, granite curbing, precast concrete sidewalk pavers",
        "micro_grading": "Engineered urban street grid with standard crown slope and ADA curb cut intersections",
        "wear_patina": "Clean, crisp crosswalk striping, intact surface paint, and well-maintained public sidewalks"
      }
    },
    {
      "type": "Feature",
      "geometry": {
        "type": "MultiPoint",
        "coordinates": [
          [
            -77.0375,
            38.9004
          ],
          [
            -77.0368,
            38.8998
          ],
          [
            -77.0382,
            38.901
          ]
        ]
      },
      "properties": {
        "stratum": "landscape_ecology",
        "canopy_flora_species": [
          "Quercus phellos (Willow Oak)",
          "Ulmus americana (American Elm)",
          "Ginkgo biloba"
        ],
        "understory": "Architectural intensive green roof sedum mats, perimeter boxwood hedges, and manicured street tree tree pits",
        "groundcover": "Engineered sedum green roofs, turf grass sod patches, and mulched root wells"
      }
    },
    {
      "type": "Feature",
      "geometry": {
        "type": "Polygon",
        "coordinates": [
          [
            [
              -77.039,
              38.899
            ],
            [
              -77.036,
              38.899
            ],
            [
              -77.036,
              38.902
            ],
            [
              -77.039,
              38.902
            ],
            [
              -77.039,
              38.899
            ]
          ]
        ]
      },
      "properties": {
        "stratum": "built_environment",
        "typology": "High-density neoclassical and contemporary corporate/institutional commercial urban corridor",
        "structures": [
          {
            "name": "US Chamber of Commerce Headquarters & Flanking Mid-Rise Office Complexes",
            "storeys": 7,
            "height_m": 35.0,
            "roof_geometry": "Flat planar commercial roofs with mechanical penthouses and integrated sedum green roof terraces",
            "facade_material": "Indiana limestone, honed granite spandrels, structural steel, and dark-tinted low-E glass curtain walls",
            "weathering_patina": "Immaculate architectural masonry maintenance with minimal localized urban rain staining"
          },
          {
            "name": "St. John's Episcopal Church",
            "storeys": 2,
            "height_m": 18.5,
            "roof_geometry": "Gabled slate roof with classical domed cupola steeple",
            "facade_material": "Stucco over brick masonry with white-painted wood portico columns and gold-leaf cupola dome",
            "weathering_patina": "Historic preservation grade finish with subtle environmental patina on slate tiles"
          }
        ]
      }
    },
    {
      "type": "Feature",
      "geometry": {
        "type": "Point",
        "coordinates": [
          -77.03743,
          38.900306
        ]
      },
      "properties": {
        "stratum": "dynamic_elements",
        "transient_decluttering": "COMPLETE",
        "vehicles": "NONE",
        "pedestrians": "NONE",
        "street_furniture": "Permanent cast-iron lampposts, granite curbs, and standard traffic signaling fixtures only"
      }
    },
    {
      "type": "Feature",
      "id": "stratum_7_atmospheric_state",
      "properties": {
        "stratum": "atmospheric_state",
        "lighting_rig": "SOLAR_EPHEMERIS",
        "timestamp_utc": "2026-08-21T16:12:17.588999+00:00",
        "solar_azimuth_deg": 30.39,
        "solar_elevation_deg": 60.34,
        "shadow_azimuth_deg": 210.4,
        "color_temperature_k": 5800,
        "ambient_illuminance_lux": 85000,
        "relative_camera_lighting": "Direct front-lighting (Sun behind camera illuminating facades directly)",
        "sky_condition": "High noon harsh clear daylight with short vertical shadows"
      },
      "geometry": null
    }
  ]
}