{
  "type": "FeatureCollection",
  "properties": {
    "address": "x, Shandwick Pl, Edinburgh EH2 4RG, UK",
    "spatial_mode": "3D_TILES",
    "schema_version": "7-Strata-v2.0"
  },
  "features": [
    {
      "type": "Feature",
      "id": "stratum_1_observer_frame",
      "geometry": {
        "type": "Point",
        "coordinates": [
          -3.208714998215679,
          55.949833916796905
        ]
      },
      "properties": {
        "stratum": "observer_frame",
        "spatial_mode": "3D_TILES",
        "camera": {
          "altitude_m_agl": 136.8,
          "pitch_deg": 5.3,
          "heading_deg": 256.8,
          "fov_deg": 60.0
        }
      }
    },
    {
      "type": "Feature",
      "id": "stratum_2_subterranean_geology",
      "geometry": {
        "type": "Point",
        "coordinates": [
          -3.208714998215679,
          55.949833916796905
        ]
      },
      "properties": {
        "stratum": "subterranean_geology",
        "foundation_analysis": "The subterranean geology of Edinburgh's West End is founded on the Dinantian (Lower Carboniferous) sedimentary bedrock of the Strathclyde Group, comprising cyclical sequences of sandstones, siltstones, mudstones, and thin coal seams, overlain by dense Pleistocene glacial till (boulder clay). Primary load-bearing masonry across this urban corridor is dominated by pale honey to buff-grey Craigleith and Hailes sandstones, celebrated for their high quartz content and silica cementation, alongside warm red Ballochmyle/Dumfriesshire Permian sandstones utilized for late Victorian and Edwardian architectural accents. Mortar chemistry across the historic masonry utilizes traditional Scottish non-hydraulic to feebly hydraulic hot-mixed lime mortars blended with coarse, well-graded river sands. Subterranean drainage follows a natural northwest tilt toward the Water of Leith basin, engineered via Victorian subsurface brick culverts and cast-iron storm drains beneath the road prism."
      }
    },
    {
      "type": "Feature",
      "id": "stratum_3_ground_surface",
      "geometry": {
        "type": "Point",
        "coordinates": [
          -3.208714998215679,
          55.949833916796905
        ]
      },
      "properties": {
        "stratum": "ground_surface",
        "primary_surfacing": "Engineered roadway and paved pedestrian curbs",
        "wear_characteristics": "Authentic environmental patina and drainage grading"
      }
    },
    {
      "type": "Feature",
      "id": "stratum_4_landscape_ecology",
      "geometry": {
        "type": "Point",
        "coordinates": [
          -3.208714998215679,
          55.949833916796905
        ]
      },
      "properties": {
        "stratum": "landscape_ecology",
        "botanical_analysis": "Along the distant parkland fringes and garden enclosures (Coates Crescent / West End gardens):\n- Mature deciduous canopy composed of *Ulmus glabra* (Wych elm), *Platanus x acerifolia* (London plane), *Acer pseudoplatanus* (Sycamore), and *Tilia cordata* (Small-leaved lime).\n- Foliage is fully resolved as distinct botanical branch structures with lush green broadleaf canopies, completely disambiguated from adjacent masonry.",
        "foliage_rectification": "Disambiguated from masonry mesh"
      }
    },
    {
      "type": "Feature",
      "id": "stratum_5_built_environment",
      "geometry": {
        "type": "Point",
        "coordinates": [
          -3.208714998215679,
          55.949833916796905
        ]
      },
      "properties": {
        "stratum": "built_environment",
        "architectural_summary": "Looking westward along Shandwick Place (A8 corridor) towards Palmerston Place:\n- **Left Flank (South / South-East):** Continuous Victorian/Georgian revival commercial-residential tenements (4 storeys plus dormered attics) characterized by clean ashlar stringcourses, rectilinear sash fenestration, projecting cornices, and slate mansard rooflines.\n- **Mid-Left Anchor:** The monumental St George's West Church (now Charlotte Baptist Chapel), designed by David Bryce (1867\u201369) with its distinctive 4-stage, 180-foot campanile/clock tower completed by Sir Robert Rowland Anderson (1879\u201381). The campanile features a square ashlar shaft, vermiculated base, Gibbs surrounds, Roman Baroque details, an octagonal open belfry, and a verdigris copper pyramidal spire.\n- **Center Background (West):** The imposing three-spired Gothic Revival silhouette of St Mary's Episcopal Cathedral (Sir George Gilbert Scott, 1874\u20131879; western spires completed 1913\u20131917), featuring a 90m (295 ft) central crossing spire and twin western spires ('Barbara' and 'Mary') constructed with steeply pitched slate nave roofs, flying buttresses, lancet fenestration, and ornate pinnacles.\n- **Foreground / Right Flank (North / North-West):** Grand 4-to-5 storey Victorian commercial street-wall with rusticated ground floors, rhythmically spaced pedimented dormers, solid stone parapets, and regular vertical load-bearing lines. All photogrammetry planar noise, warped dormer ridges, and melted parapet geometry are plumbed to strict 90\u00b0 verticals and laser-straight horizontal lintels.",
        "structures": [
          {
            "name": "Primary Facade",
            "storeys": 2,
            "height_m": 7.5,
            "roof_geometry": "pitched / parapet",
            "facade_material": "authentic regional masonry",
            "planar_rectification": "ENFORCED"
          }
        ]
      }
    },
    {
      "type": "Feature",
      "id": "stratum_6_dynamic_elements",
      "geometry": {
        "type": "Point",
        "coordinates": [
          -3.208714998215679,
          55.949833916796905
        ]
      },
      "properties": {
        "stratum": "dynamic_elements",
        "transient_decluttering": "ENFORCED",
        "vehicles": "NONE",
        "pedestrians": "NONE",
        "transient_clutter": "STRIPPED",
        "permanent_civil_fabric": "PRESERVED"
      }
    },
    {
      "type": "Feature",
      "id": "stratum_7_atmospheric_state",
      "geometry": null,
      "properties": {
        "stratum": "atmospheric_state",
        "lighting_rig": "SOLAR_EPHEMERIS",
        "timestamp_utc": "2026-08-26T15:21:50.091600+00:00",
        "weather_state": "RAIN",
        "temperature_c": 15.0,
        "solar_azimuth_deg": 302.46,
        "solar_elevation_deg": 32.03,
        "shadow_azimuth_deg": 122.5,
        "color_temperature_k": 5400,
        "ambient_illuminance_lux": 60000
      }
    }
  ]
}