{
  "type": "FeatureCollection",
  "properties": {
    "address": "14 Atholl Cres, Edinburgh EH3 8HA, UK",
    "spatial_mode": "3D_TILES",
    "schema_version": "7-Strata-v2.0"
  },
  "features": [
    {
      "type": "Feature",
      "id": "stratum_1_observer_frame",
      "geometry": {
        "type": "Point",
        "coordinates": [
          -3.2123554517181803,
          55.94800515647073
        ]
      },
      "properties": {
        "stratum": "observer_frame",
        "spatial_mode": "3D_TILES",
        "camera": {
          "altitude_m_agl": 154.0,
          "pitch_deg": -5.0,
          "heading_deg": 41.2,
          "fov_deg": 60.0
        }
      }
    },
    {
      "type": "Feature",
      "id": "stratum_2_subterranean_geology",
      "geometry": {
        "type": "Point",
        "coordinates": [
          -3.2123554517181803,
          55.94800515647073
        ]
      },
      "properties": {
        "stratum": "subterranean_geology",
        "foundation_analysis": "The underlying bedrock belongs to the Carboniferous Gullane and Wardie Formations of the Strathclyde Group, comprising interbedded sedimentary sandstone, siltstone, and mudstone sequences overlain by compacted Devensian glacial till. Structural masonry across the terraces is almost exclusively sourced from historical local quarries, dominated by Carboniferous Craigleith and Hailes sandstones\u2014dense, quartz-arenite lithologies noted for low porosity, silty grain matrix, and pale buff to ash-grey hue. Subterranean foundation walls interface with natural sloping drainage towards the Water of Leith basin to the north. Structural mortar consists of traditional non-hydraulic and feebly hydraulic slaked lime (calcium hydroxide) mixed with well-graded local river sand, maintaining vapour-permeable interstitial jointing across all load-bearing ashlar courses."
      }
    },
    {
      "type": "Feature",
      "id": "stratum_3_ground_surface",
      "geometry": {
        "type": "Point",
        "coordinates": [
          -3.2123554517181803,
          55.94800515647073
        ]
      },
      "properties": {
        "stratum": "ground_surface",
        "primary_surfacing": "Engineered roadway and paved pedestrian curbs",
        "wear_characteristics": "Authentic environmental patina and drainage grading"
      }
    },
    {
      "type": "Feature",
      "id": "stratum_4_landscape_ecology",
      "geometry": {
        "type": "Point",
        "coordinates": [
          -3.2123554517181803,
          55.94800515647073
        ]
      },
      "properties": {
        "stratum": "landscape_ecology",
        "botanical_analysis": "Atholl Crescent Gardens and Coates Crescent Gardens feature mature urban broadleaf parkland landscaping. Identified species include mature European Lime (*Tilia x europaea*), London Plane (*Platanus x acerifolia*), Common Ash (*Fraxinus excelsior*), and Sycamore (*Acer pseudoplatanus*). Foliage is represented with dense, organic green leafy canopies, individual leaf cluster textures, and branching hardwood trunks, completely disambiguated from adjacent masonry.",
        "foliage_rectification": "Disambiguated from masonry mesh"
      }
    },
    {
      "type": "Feature",
      "id": "stratum_5_built_environment",
      "geometry": {
        "type": "Point",
        "coordinates": [
          -3.2123554517181803,
          55.94800515647073
        ]
      },
      "properties": {
        "stratum": "built_environment",
        "architectural_summary": "The scene captures the western gateway to Edinburgh's Georgian New Town along Shandwick Place (A8 corridor), flanked symmetrically by Thomas Bonnar\u2019s Neo-Classical curved crescents: Atholl Crescent (southwest) and Coates Crescent (northeast), designed circa 1825. \n- **Atholl & Coates Crescents**: Continuous curved 3-storey plus basement and attic mansard/dormer residential palazzo blocks. Rectilinear, laser-straight floor plates with giant-order shallow Ionic pilasters anchoring the centre and terminal pavilions. Drop-front basement lightwells with perimeter wrought-iron spear-headed railings. Pitched timber roofs clad in Scotch/Welsh slate with repeating ridge-line ashlar chimney stacks and terracotta pots. Windows are strictly timber-framed 12-pane (six-over-six) sash-and-case fenestration.\n- **St George's West Church (Shandwick Place)**: Designed by David Bryce (1866\u20131869), featuring a dominant 4-stage campanile-style clock tower (approx. 50 metres tall) with a rusticated stone base, pedimented clock tier, open columned belfry, and an octagonal pyramidal copper-clad spire.\n- **Distant Landmarks**: To the northeast, the prominent drum and ribbed green copper dome of Robert Reid's West Register House (former St George's Church, Charlotte Square) terminates the lateral vista, with distant views across the Firth of Forth to the Fife coastline. All wobbly photogrammetric mesh artifacts are rectified into true vertical gravity planes, sharp pediments, and plumb street corners.",
        "structures": [
          {
            "name": "Primary Facade",
            "storeys": 2,
            "height_m": 7.5,
            "roof_geometry": "pitched / parapet",
            "facade_material": "authentic regional masonry",
            "planar_rectification": "ENFORCED"
          }
        ]
      }
    },
    {
      "type": "Feature",
      "id": "stratum_6_dynamic_elements",
      "geometry": {
        "type": "Point",
        "coordinates": [
          -3.2123554517181803,
          55.94800515647073
        ]
      },
      "properties": {
        "stratum": "dynamic_elements",
        "transient_decluttering": "ENFORCED",
        "vehicles": "NONE",
        "pedestrians": "NONE",
        "transient_clutter": "STRIPPED",
        "permanent_civil_fabric": "PRESERVED"
      }
    },
    {
      "type": "Feature",
      "id": "stratum_7_atmospheric_state",
      "geometry": null,
      "properties": {
        "stratum": "atmospheric_state",
        "lighting_rig": "SOLAR_EPHEMERIS",
        "timestamp_utc": "2026-08-27T06:15:49.965308+00:00",
        "weather_state": "SUNNY",
        "temperature_c": 15.0,
        "solar_azimuth_deg": 95.69,
        "solar_elevation_deg": 8.76,
        "shadow_azimuth_deg": 275.7,
        "color_temperature_k": 3000,
        "ambient_illuminance_lux": 12000
      }
    }
  ]
}