{
  "type": "FeatureCollection",
  "properties": {
    "address": "West End, Atholl Cres, Edinburgh EH3 8HA, UK",
    "spatial_mode": "3D_TILES",
    "schema_version": "7-Strata-v2.0"
  },
  "features": [
    {
      "type": "Feature",
      "id": "stratum_1_observer_frame",
      "geometry": {
        "type": "Point",
        "coordinates": [
          -3.211351855415459,
          55.94867466728533
        ]
      },
      "properties": {
        "stratum": "observer_frame",
        "spatial_mode": "3D_TILES",
        "camera": {
          "altitude_m_agl": 147.3,
          "pitch_deg": -6.7,
          "heading_deg": 43.6,
          "fov_deg": 60.0
        }
      }
    },
    {
      "type": "Feature",
      "id": "stratum_2_subterranean_geology",
      "geometry": {
        "type": "Point",
        "coordinates": [
          -3.211351855415459,
          55.94867466728533
        ]
      },
      "properties": {
        "stratum": "subterranean_geology",
        "foundation_analysis": "The subterranean bedrock consists of Lower Carboniferous sedimentary formations of the Strathclyde Group (Gullane and Wardie Formations), overlain by stiff glacial till (boulder clay). The dominant structural stone across the entire corridor is Scottish Lower Carboniferous quartzose sandstone, primarily quarried from Craigleith, Hailes, and Binny beds. The masonry employs historic non-hydraulic to weakly hydraulic slaked lime mortar (*Calx*) mixed with coarse river sand, allowing continuous vapor permeability. Subterranean moisture is managed via legacy stone-vaulted coal cellars beneath the sidewalk flagstones and sub-pavement drains leading towards the Water of Leith catchment basin."
      }
    },
    {
      "type": "Feature",
      "id": "stratum_3_ground_surface",
      "geometry": {
        "type": "Point",
        "coordinates": [
          -3.211351855415459,
          55.94867466728533
        ]
      },
      "properties": {
        "stratum": "ground_surface",
        "primary_surfacing": "Engineered roadway and paved pedestrian curbs",
        "wear_characteristics": "Authentic environmental patina and drainage grading"
      }
    },
    {
      "type": "Feature",
      "id": "stratum_4_landscape_ecology",
      "geometry": {
        "type": "Point",
        "coordinates": [
          -3.211351855415459,
          55.94867466728533
        ]
      },
      "properties": {
        "stratum": "landscape_ecology",
        "botanical_analysis": "Along the distant background and fringe urban courtyards, mature urban deciduous tree canopies are present, primarily *Acer pseudoplatanus* (Sycamore), *Fraxinus excelsior* (Common Ash), and *Ulmus glabra* (Wych Elm), featuring dense, organic leafy branch structures and natural summer foliar canopies.",
        "foliage_rectification": "Disambiguated from masonry mesh"
      }
    },
    {
      "type": "Feature",
      "id": "stratum_5_built_environment",
      "geometry": {
        "type": "Point",
        "coordinates": [
          -3.211351855415459,
          55.94867466728533
        ]
      },
      "properties": {
        "stratum": "built_environment",
        "architectural_summary": "A high-angle northeast axial view overlooking Shandwick Place (A8) as it merges into the New Town street grid towards Charlotte Square and George Street.\n- **Foreground / Midground Left (Prominent Landmark):** St George's West Church (now Charlotte Chapel), designed by David Bryce (1866\u20131869) with a towering 56-meter Venetian/Italianate Romanesque campanile tower designed by Sir Robert Rowland Anderson (completed 1881). The church features a multi-tiered ashlar tower with vermiculated base bands, giant-order Corinthian pilasters, pedimented clock dials, an arcaded belfry, and a crowning stone/lead lantern.\n- **Street Flanks (Left & Right):** Classical Georgian and Victorian tenement blocks ranging from 4 to 5 storeys, incorporating ground-floor retail shopfronts beneath rusticated basements, followed by ashlar upper levels with regular fenestration patterns, timber sash-and-case windows (12-pane and 2-over-2 configurations), projecting cornices, parapet gutters, and extensive pitched slate roofs interrupted by dense arrangements of stone chimney stacks with ceramic pots.\n- **Background Vista:** In the far distance to the northeast, the distinct green copper drum and dome of West Register House (formerly St George's Church, Charlotte Square, by Robert Reid / Robert Adam, 1811\u20131814) anchors the horizon. Further east, the street perspective terminates against the massive classical stone blocks of the Caledonian Hotel and Lothian Road intersection.\n- **Planar Rectification:** All vertical load-bearing lines, tower shafts, and tenement elevations are plumbed strictly to gravity vertical (90.0\u00b0 relative to true horizon). All horizontal stringcourses, entablatures, parapet copings, and slate roof ridges are flattened into rectilinear architectural planes.",
        "structures": [
          {
            "name": "Primary Facade",
            "storeys": 2,
            "height_m": 7.5,
            "roof_geometry": "pitched / parapet",
            "facade_material": "authentic regional masonry",
            "planar_rectification": "ENFORCED"
          }
        ]
      }
    },
    {
      "type": "Feature",
      "id": "stratum_6_dynamic_elements",
      "geometry": {
        "type": "Point",
        "coordinates": [
          -3.211351855415459,
          55.94867466728533
        ]
      },
      "properties": {
        "stratum": "dynamic_elements",
        "transient_decluttering": "ENFORCED",
        "vehicles": "NONE",
        "pedestrians": "NONE",
        "transient_clutter": "STRIPPED",
        "permanent_civil_fabric": "PRESERVED"
      }
    },
    {
      "type": "Feature",
      "id": "stratum_7_atmospheric_state",
      "geometry": null,
      "properties": {
        "stratum": "atmospheric_state",
        "lighting_rig": "SOLAR_EPHEMERIS",
        "timestamp_utc": "2026-11-11T14:12:50.724445+00:00",
        "weather_state": "RAIN",
        "temperature_c": 15.0,
        "solar_azimuth_deg": 327.05,
        "solar_elevation_deg": 11.42,
        "shadow_azimuth_deg": 147.1,
        "color_temperature_k": 4500,
        "ambient_illuminance_lux": 35000
      }
    }
  ]
}