{
  "type": "FeatureCollection",
  "properties": {
    "address": "46 Charlotte Square, Edinburgh EH2 4HQ, UK",
    "spatial_mode": "3D_TILES",
    "schema_version": "7-Strata-v2.0"
  },
  "features": [
    {
      "type": "Feature",
      "id": "stratum_1_observer_frame",
      "geometry": {
        "type": "Point",
        "coordinates": [
          -3.207001022445717,
          55.952017638556704
        ]
      },
      "properties": {
        "stratum": "observer_frame",
        "spatial_mode": "3D_TILES",
        "camera": {
          "altitude_m_agl": 10.2,
          "pitch_deg": -0.4,
          "heading_deg": 248.4,
          "fov_deg": 60.0
        }
      }
    },
    {
      "type": "Feature",
      "id": "stratum_2_subterranean_geology",
      "geometry": {
        "type": "Point",
        "coordinates": [
          -3.207001022445717,
          55.952017638556704
        ]
      },
      "properties": {
        "stratum": "subterranean_geology",
        "foundation_analysis": "Subterranean strata comprise Lower Carboniferous sandstones and siltstones of the Inverclyde Group, overlain by dense glacial till. Primary structural lithics consist of pale buff-grey quartz-arenite Craigleith sandstone ashlar, backed with Hailes sandstone rubble masonry. Bedding planes laid on natural quarry beds with non-hydraulic lime mortar pointing."
      }
    },
    {
      "type": "Feature",
      "id": "stratum_3_ground_surface",
      "geometry": {
        "type": "Point",
        "coordinates": [
          -3.207001022445717,
          55.952017638556704
        ]
      },
      "properties": {
        "stratum": "ground_surface",
        "primary_surfacing": "Engineered roadway and paved pedestrian curbs",
        "wear_characteristics": "Authentic environmental patina and drainage grading"
      }
    },
    {
      "type": "Feature",
      "id": "stratum_4_landscape_ecology",
      "geometry": {
        "type": "Point",
        "coordinates": [
          -3.207001022445717,
          55.952017638556704
        ]
      },
      "properties": {
        "stratum": "landscape_ecology",
        "botanical_analysis": "Mature urban parkland specimens: *Platanus \u00d7 acerifolia* (London plane), *Acer pseudoplatanus* (Sycamore), and *Tilia \u00d7 europaea* (Common lime). State for late December: fully defoliated winter dormancy with bare branch ramification and exposed trunk bark.",
        "foliage_rectification": "Disambiguated from masonry mesh"
      }
    },
    {
      "type": "Feature",
      "id": "stratum_5_built_environment",
      "geometry": {
        "type": "Point",
        "coordinates": [
          -3.207001022445717,
          55.952017638556704
        ]
      },
      "properties": {
        "stratum": "built_environment",
        "architectural_summary": "Neoclassical unified civic ensemble. Centerpiece: West Register House (former St George\u2019s Church), featuring an advanced tetrastyle Ionic portico, stepped rusticated base, and a high circular peristyle drum supporting a ribbed copper dome and lantern. Flanked symmetrically by continuous 3-storey plus basement and attic Georgian residential terraces. Ground storeys feature channeled rustication; upper floors display polished ashlar with alternating pedimented and plain 6-over-6 timber sash-and-case windows. Foreground features the central Prince Albert Memorial equestrian bronze atop an elevated multi-tiered ashlar pedestal within an enclosed circular lawn.",
        "structures": [
          {
            "name": "Primary Facade",
            "storeys": 2,
            "height_m": 7.5,
            "roof_geometry": "pitched / parapet",
            "facade_material": "authentic regional masonry",
            "planar_rectification": "ENFORCED"
          }
        ]
      }
    },
    {
      "type": "Feature",
      "id": "stratum_6_dynamic_elements",
      "geometry": {
        "type": "Point",
        "coordinates": [
          -3.207001022445717,
          55.952017638556704
        ]
      },
      "properties": {
        "stratum": "dynamic_elements",
        "transient_decluttering": "ENFORCED",
        "vehicles": "NONE",
        "pedestrians": "NONE",
        "transient_clutter": "STRIPPED",
        "permanent_civil_fabric": "PRESERVED"
      }
    },
    {
      "type": "Feature",
      "id": "stratum_7_atmospheric_state",
      "geometry": null,
      "properties": {
        "stratum": "atmospheric_state",
        "lighting_rig": "SOLAR_EPHEMERIS",
        "timestamp_utc": "2026-12-22T09:15:00+00:00",
        "weather_state": "SNOW",
        "solar_azimuth_deg": 140.35,
        "solar_elevation_deg": 2.29,
        "shadow_azimuth_deg": 320.4,
        "color_temperature_k": 3000,
        "ambient_illuminance_lux": 12000
      }
    }
  ]
}