{
  "type": "FeatureCollection",
  "properties": {
    "address": "17 Grosvenor Cres, Edinburgh EH12 5EL, UK",
    "spatial_mode": "3D_TILES",
    "schema_version": "7-Strata-v2.0"
  },
  "features": [
    {
      "type": "Feature",
      "id": "stratum_1_observer_frame",
      "geometry": {
        "type": "Point",
        "coordinates": [
          -3.2195652983824745,
          55.94767007533221
        ]
      },
      "properties": {
        "stratum": "observer_frame",
        "spatial_mode": "3D_TILES",
        "camera": {
          "altitude_m_agl": 204.7,
          "pitch_deg": -14.2,
          "heading_deg": 61.0,
          "fov_deg": 60.0
        }
      }
    },
    {
      "type": "Feature",
      "id": "stratum_2_subterranean_geology",
      "geometry": {
        "type": "Point",
        "coordinates": [
          -3.2195652983824745,
          55.94767007533221
        ]
      },
      "properties": {
        "stratum": "subterranean_geology",
        "foundation_analysis": "The subterranean foundation is seated upon Lower Carboniferous sedimentary geology belonging to the Inverclyde and Strathclyde Groups, flanked by intrusive igneous dolerite sills and the volcanic plug basalt of Castle Rock in the wider vista. The predominant building stone across the scene is native Carboniferous sandstone\u2014predominantly Craigleith sandstone (a quartzose, silica-cemented, fine-to-medium-grained pale grey to buff sandstone famed for extreme durability) and Hailes/Cullalo sandstone utilized across the West End residential expanses. Subterranean drainage flows along glacial drift till slopes northward towards the Water of Leith basin. Masonry units are set with historic non-hydraulic and feebly hydraulic lime mortars, displaying dense aggregate profiles of crushed local sand."
      }
    },
    {
      "type": "Feature",
      "id": "stratum_3_ground_surface",
      "geometry": {
        "type": "Point",
        "coordinates": [
          -3.2195652983824745,
          55.94767007533221
        ]
      },
      "properties": {
        "stratum": "ground_surface",
        "primary_surfacing": "Engineered roadway and paved pedestrian curbs",
        "wear_characteristics": "Authentic environmental patina and drainage grading"
      }
    },
    {
      "type": "Feature",
      "id": "stratum_4_landscape_ecology",
      "geometry": {
        "type": "Point",
        "coordinates": [
          -3.2195652983824745,
          55.94767007533221
        ]
      },
      "properties": {
        "stratum": "landscape_ecology",
        "botanical_analysis": "The urban garden enclosures (Grosvenor & Lansdowne Crescent Gardens, Cathedral Close) feature mature Scottish urban canopy species:\n- *Acer pseudoplatanus* (Sycamore / Scottish plane) with dense, broad-lobed summer green leaves.\n- *Fagus sylvatica* (European Beech) and *Tilia cordata* (Small-leaved Lime) providing rounded deciduous crowns.\n- Well-manicured perennial ryegrass lawn expanses flanking the cathedral cloister, punctuated by ornamental yew (*Taxus baccata*) and trimmed box privet hedging along stone boundary copings.",
        "foliage_rectification": "Disambiguated from masonry mesh"
      }
    },
    {
      "type": "Feature",
      "id": "stratum_5_built_environment",
      "geometry": {
        "type": "Point",
        "coordinates": [
          -3.2195652983824745,
          55.94767007533221
        ]
      },
      "properties": {
        "stratum": "built_environment",
        "architectural_summary": "- **Centerpiece (St Mary's Episcopal Cathedral & Walpole Hall):** Victorian High Gothic Revival cathedral designed by Sir George Gilbert Scott (consecrated 1879, twin western spires completed 1913\u20131917). Features a monumental 90m (295 ft) central crossing tower with octagonal stone spire and corner spirelets, matched by two ~60m western spires flanking a grand rose-windowed portal and deeply recessed lancet arcades. To its left sits the Gothic Chapter House and the adjacent Old Song School / Walpole Hall with steeply pitched slate dormers and gables.\n- **Foreground / Left & Right Flanks (Grosvenor Crescent, Lansdowne Crescent, Manor Place, Palmerston Place):** Late Georgian and Victorian classical/baroque revival bowed residential terraces (John Chesser, c. 1869\u20131881). Formed of 3 to 4 storeys plus rusticated sunken basements and mansard attics pierced by segmental-arched and tunnel dormers. Linear alignments feature rusticated ashlar basements, polished ashlar upper levels, canted bay windows, projecting modillion cornices, stone balustraded parapets, and rhythmic arrays of ashlar chimney stacks with ceramic pots.\n- **Anti-Warp Planar Rectification:** Strict gravitational verticality applied to all three soaring cathedral spires and flanking tenement ashlar walls; all street axes (Manor Place, Palmerston Place, Melville Street) rectilinear and continuous without mesh distortions.",
        "structures": [
          {
            "name": "Primary Facade",
            "storeys": 2,
            "height_m": 7.5,
            "roof_geometry": "pitched / parapet",
            "facade_material": "authentic regional masonry",
            "planar_rectification": "ENFORCED"
          }
        ]
      }
    },
    {
      "type": "Feature",
      "id": "stratum_6_dynamic_elements",
      "geometry": {
        "type": "Point",
        "coordinates": [
          -3.2195652983824745,
          55.94767007533221
        ]
      },
      "properties": {
        "stratum": "dynamic_elements",
        "transient_decluttering": "ENFORCED",
        "vehicles": "NONE",
        "pedestrians": "NONE",
        "transient_clutter": "STRIPPED",
        "permanent_civil_fabric": "PRESERVED"
      }
    },
    {
      "type": "Feature",
      "id": "stratum_7_atmospheric_state",
      "geometry": null,
      "properties": {
        "stratum": "atmospheric_state",
        "lighting_rig": "SOLAR_EPHEMERIS",
        "timestamp_utc": "2026-08-26T16:02:52.695672+00:00",
        "weather_state": "SUNNY",
        "temperature_c": 15.0,
        "solar_azimuth_deg": 292.47,
        "solar_elevation_deg": 26.94,
        "shadow_azimuth_deg": 112.5,
        "color_temperature_k": 5400,
        "ambient_illuminance_lux": 60000
      }
    }
  ]
}