{
  "type": "FeatureCollection",
  "properties": {
    "address": "1501 Maine Ave SW, Washington, DC 20004, USA",
    "spatial_mode": "3D_TILES",
    "schema_version": "7-Strata-v2.0"
  },
  "features": [
    {
      "type": "Feature",
      "id": "stratum_1_observer_frame",
      "geometry": {
        "type": "Point",
        "coordinates": [
          -77.03545991512316,
          38.88444714325694
        ]
      },
      "properties": {
        "stratum": "observer_frame",
        "spatial_mode": "3D_TILES",
        "camera": {
          "altitude_m_agl": 150.4,
          "pitch_deg": -8.8,
          "heading_deg": 2.9,
          "fov_deg": 60.0
        }
      }
    },
    {
      "type": "Feature",
      "id": "stratum_2_subterranean_geology",
      "geometry": {
        "type": "Point",
        "coordinates": [
          -77.03545991512316,
          38.88444714325694
        ]
      },
      "properties": {
        "stratum": "subterranean_geology",
        "foundation_analysis": "Bedrock lithology and soil stratigraphy verified"
      }
    },
    {
      "type": "Feature",
      "id": "stratum_3_ground_surface",
      "geometry": {
        "type": "Point",
        "coordinates": [
          -77.03545991512316,
          38.88444714325694
        ]
      },
      "properties": {
        "stratum": "ground_surface",
        "primary_surfacing": "Engineered roadway and paved pedestrian curbs",
        "wear_characteristics": "Authentic environmental patina and drainage grading"
      }
    },
    {
      "type": "Feature",
      "id": "stratum_4_landscape_ecology",
      "geometry": {
        "type": "Point",
        "coordinates": [
          -77.03545991512316,
          38.88444714325694
        ]
      },
      "properties": {
        "stratum": "landscape_ecology",
        "botanical_analysis": "- **Canopy Trees:** Dominated by mature American Elm (*Ulmus americana*), London Plane trees (*Platanus \u00d7 acerifolia*), Pin Oaks (*Quercus palustris*), Willow Oaks (*Quercus phellos*), and American Sycamores (*Platanus occidentalis*).\n- **Botanical Detailing:** Deep summer-green, dense deciduous canopies with intricate branching structures, cast-shadow volume, and individual leaf clusters completely separated from architectural planes.\n- **Turfgrass:** Manicured cool-season turf mix consisting of Kentucky bluegrass (*Poa pratensis*) and tall fescue, displaying mown radial maintenance swaths, slight wear along pedestrian pathways, and lush organic variation across the Monument grounds and The Ellipse.",
        "foliage_rectification": "Disambiguated from masonry mesh"
      }
    },
    {
      "type": "Feature",
      "id": "stratum_5_built_environment",
      "geometry": {
        "type": "Point",
        "coordinates": [
          -77.03545991512316,
          38.88444714325694
        ]
      },
      "properties": {
        "stratum": "built_environment",
        "architectural_summary": "- **Centerpiece (Washington Monument):** Pure Neoclassical Egyptian-revival obelisk rising to an exact height of 555 feet 5\u215b inches (169.046 m). Rectified vertical lines taper from a 55-foot 1.5-inch square base to a 34-foot 5.5-inch width beneath the 55-foot pyramidion capstone. Solid aluminum pyramidal apex. Planar lines are aligned to true vertical gravity, eliminating mesh tessellation and elevation wobble.\n- **Center-Right Flank (National Museum of African American History and Culture - NMAAHC):** Contemporary inverted tiered corona architecture designed by Freelon Adjaye Bond/SmithGroup. Three-tiered outward-sloping trapezoidal volumes derived from traditional Yoruban caryatid capitals, wrapped in 3,600 perforated cast-aluminum architectural screens with deep bronze finish. Rectified horizontal band levels and pristine curtain-wall glazing underneath.\n- **Midground / Background Right (Federal Triangle Complex):** Neoclassical and Classical Revival civic massings, notably the Herbert C. Hoover Department of Commerce Building (7 storeys, Doric colonnaded limestone screens, hipped red Spanish clay-tile roofs, multiple internal light courts), the Ronald Reagan Building, and the Internal Revenue Service Building.\n- **Midground / Background Left:** Ellipse grounds leading north to the White House complex, flanked by the Eisenhower Executive Office Building (French Second Empire granite mansard massing) and the Treasury Building (Greek Revival colonnade).\n- **Urban Grid:** Rigid L'Enfant street grid receding toward downtown DC, strictly rectified with uniform horizontal roof parapets governed by the DC Height of Buildings Act.",
        "structures": [
          {
            "name": "Primary Facade",
            "storeys": 2,
            "height_m": 7.5,
            "roof_geometry": "pitched / parapet",
            "facade_material": "authentic regional masonry",
            "planar_rectification": "ENFORCED"
          }
        ]
      }
    },
    {
      "type": "Feature",
      "id": "stratum_6_dynamic_elements",
      "geometry": {
        "type": "Point",
        "coordinates": [
          -77.03545991512316,
          38.88444714325694
        ]
      },
      "properties": {
        "stratum": "dynamic_elements",
        "transient_decluttering": "ENFORCED",
        "vehicles": "NONE",
        "pedestrians": "NONE",
        "transient_clutter": "STRIPPED",
        "permanent_civil_fabric": "PRESERVED"
      }
    },
    {
      "type": "Feature",
      "id": "stratum_7_atmospheric_state",
      "geometry": null,
      "properties": {
        "stratum": "atmospheric_state",
        "lighting_rig": "SOLAR_EPHEMERIS",
        "timestamp_utc": "2026-08-26T18:11:00+00:00",
        "weather_state": "SUNNY",
        "temperature_c": 30.5,
        "solar_azimuth_deg": 330.36,
        "solar_elevation_deg": 58.64,
        "shadow_azimuth_deg": 150.4,
        "color_temperature_k": 5800,
        "ambient_illuminance_lux": 85000
      }
    }
  ]
}