{
  "type": "FeatureCollection",
  "properties": {
    "address": "12 St & CONSTITUTION AVE NW nb, Washington, DC 20004, USA",
    "spatial_mode": "3D_TILES",
    "schema_version": "7-Strata-v2.0"
  },
  "features": [
    {
      "type": "Feature",
      "id": "stratum_1_observer_frame",
      "geometry": {
        "type": "Point",
        "coordinates": [
          -77.0277281952085,
          38.891816888190306
        ]
      },
      "properties": {
        "stratum": "observer_frame",
        "spatial_mode": "3D_TILES",
        "camera": {
          "altitude_m_agl": 153.6,
          "pitch_deg": -10.8,
          "heading_deg": 251.2,
          "fov_deg": 60.0
        }
      }
    },
    {
      "type": "Feature",
      "id": "stratum_2_subterranean_geology",
      "geometry": {
        "type": "Point",
        "coordinates": [
          -77.0277281952085,
          38.891816888190306
        ]
      },
      "properties": {
        "stratum": "subterranean_geology",
        "foundation_analysis": "The subterranean substrate beneath this sector of the National Mall sits along the Atlantic Coastal Plain-Piedmont Fall Line boundary, underlain by Quaternary alluvial silt, sand, gravel, and saturated historical marshlands shaped by the buried paleo-channel of Tiber Creek. Bedrock at depth consists of late Proterozoic to early Paleozoic crystalline schist and Potomac terrane gneiss. \n- **Washington Monument:** Load-bearing masonry comprises an exterior of calcitic Cockeysville/Texas Maryland marble and Massachusetts Lee marble, backed by blue gneiss rubble and massive granite blocks set in hydraulic lime mortar and Portland cement additions. The distinctive tonal shift at the 152-foot datum marks the 1854\u20131879 quarry change from Symington quarry marble to Beaver Dam/Cockeysville marble.\n- **Hardscape & Plinths:** Mesabi Black granite curbings, step units, and retaining seat walls; compacted stabilized gravel and decomposed granite pedestrian paths across the Monument knoll. Subterranean drainage relies on active dewatering sumps and historic groundwater management systems."
      }
    },
    {
      "type": "Feature",
      "id": "stratum_3_ground_surface",
      "geometry": {
        "type": "Point",
        "coordinates": [
          -77.0277281952085,
          38.891816888190306
        ]
      },
      "properties": {
        "stratum": "ground_surface",
        "primary_surfacing": "Engineered roadway and paved pedestrian curbs",
        "wear_characteristics": "Authentic environmental patina and drainage grading"
      }
    },
    {
      "type": "Feature",
      "id": "stratum_4_landscape_ecology",
      "geometry": {
        "type": "Point",
        "coordinates": [
          -77.0277281952085,
          38.891816888190306
        ]
      },
      "properties": {
        "stratum": "landscape_ecology",
        "botanical_analysis": "Lush mid-Atlantic parkland ecology across the National Mall grounds and West Potomac Park:\n- Mature double-avenue plantings of American Elm (*Ulmus americana*) lining the Mall greensward.\n- Canopy groves of London Plane (*Platanus occidentalis \u00d7 acerifolia*), Pin Oak (*Quercus palustris*), Willow Oak (*Quercus phellos*), and Sweetgum (*Liquidambar styraciflua*) surrounding the Washington Monument grounds.\n- Yoshino Cherry (*Prunus \u00d7 yedoensis*) encircling the Tidal Basin visible to the south.\n- Well-maintained, uniform fescue-bluegrass turf lawns displaying clean mechanical mowing striations.",
        "foliage_rectification": "Disambiguated from masonry mesh"
      }
    },
    {
      "type": "Feature",
      "id": "stratum_5_built_environment",
      "geometry": {
        "type": "Point",
        "coordinates": [
          -77.0277281952085,
          38.891816888190306
        ]
      },
      "properties": {
        "stratum": "built_environment",
        "architectural_summary": "- **Washington Monument (Center):** Egyptian-revival/neoclassical obelisk rising to 555 feet 5\u215b inches (169.3 m). Strict plumb vertical massing tapering from 15-foot thick walls at the base to 18 inches beneath the pyramidal aluminum-capped apex. Fifty-six bronze-mounted perimeter flagpoles encircle the granite-edged circular plaza at the summit of the earthwork knoll.\n- **National Museum of African American History and Culture (Foreground Right):** Three-tiered inverted trapezoidal corona envelope inspired by West African Yoruban sculpture capitals. Supported internally on four massive reinforced concrete cores, featuring an asymmetrical projecting ground-level steel porch canopy along the southern facade and an expansive flat roof arrayed with solar photovoltaic panels and high-albedo gravel ballast.\n- **Surrounding Monumental Grid & Flanking Structures:**\n  - *Left Foreground:* Department of Agriculture / Smithsonian Castle perimeter greenery.\n  - *Right Mid-ground:* Federal Triangle neoclassical government offices (Department of Commerce / Herbert C. Hoover Building) featuring limestone trabeated pilasters, red clay barrel-tile mansard profiles, and deep punched rectangular windows.\n  - *Distance / Axis:* Axial vista extending west along the Reflecting Pool toward the Lincoln Memorial (Doric peristyle in Colorado Yule marble), crossing the Arlington Memorial Bridge over the Potomac River toward the Virginia ridgelines.",
        "structures": [
          {
            "name": "Primary Facade",
            "storeys": 2,
            "height_m": 7.5,
            "roof_geometry": "pitched / parapet",
            "facade_material": "authentic regional masonry",
            "planar_rectification": "ENFORCED"
          }
        ]
      }
    },
    {
      "type": "Feature",
      "id": "stratum_6_dynamic_elements",
      "geometry": {
        "type": "Point",
        "coordinates": [
          -77.0277281952085,
          38.891816888190306
        ]
      },
      "properties": {
        "stratum": "dynamic_elements",
        "transient_decluttering": "ENFORCED",
        "vehicles": "NONE",
        "pedestrians": "NONE",
        "transient_clutter": "STRIPPED",
        "permanent_civil_fabric": "PRESERVED"
      }
    },
    {
      "type": "Feature",
      "id": "stratum_7_atmospheric_state",
      "geometry": null,
      "properties": {
        "stratum": "atmospheric_state",
        "lighting_rig": "SOLAR_EPHEMERIS",
        "timestamp_utc": "2026-08-26T21:29:06.654767+00:00",
        "weather_state": "SUNNY",
        "temperature_c": 15.0,
        "solar_azimuth_deg": 277.75,
        "solar_elevation_deg": 26.22,
        "shadow_azimuth_deg": 97.8,
        "color_temperature_k": 5400,
        "ambient_illuminance_lux": 60000
      }
    }
  ]
}