{
  "type": "FeatureCollection",
  "properties": {
    "address": "Forth House, Edinburgh EH1 2BW, UK",
    "spatial_mode": "3D_TILES",
    "schema_version": "7-Strata-v2.0"
  },
  "features": [
    {
      "type": "Feature",
      "id": "stratum_1_observer_frame",
      "geometry": {
        "type": "Point",
        "coordinates": [
          -3.2092917616902716,
          55.94858189245399
        ]
      },
      "properties": {
        "stratum": "observer_frame",
        "spatial_mode": "3D_TILES",
        "camera": {
          "altitude_m_agl": 162.7,
          "pitch_deg": -11.8,
          "heading_deg": 319.9,
          "fov_deg": 60.0
        }
      }
    },
    {
      "type": "Feature",
      "id": "stratum_2_subterranean_geology",
      "geometry": {
        "type": "Point",
        "coordinates": [
          -3.2092917616902716,
          55.94858189245399
        ]
      },
      "properties": {
        "stratum": "subterranean_geology",
        "foundation_analysis": "The subterranean strata beneath Edinburgh\u2019s West End comprise Lower Carboniferous sedimentary formations of the Strathclyde and Inverclyde Groups, dominated by quartzose sandstones interbedded with siltstones and mudstones, situated atop glacial till (boulder clay). \n\nThe above-ground masonry is quarried locally:\n- **Craigleith Sandstone**: A resilient, dense, pale blonde-to-buff quartz arenite defining the ashlar facades of the surrounding Georgian and Victorian tenements and the dominant campanile of St George's West Church.\n- **Hailes Sandstone**: Characteristic dark, carbonaceous-banded sandstone utilized extensively in secondary coursed rubble rear elevations and boundary walls.\n- **Mortar Lithology**: Traditional non-hydraulic and feebly hydraulic lime mortars (`Ca(OH)\u2082`), displaying historic lime leaching, aggregate exposure, and carbonation over successive wet-dry cycles.\n- **Subterranean Drainage**: Natural gravitational runoff slopes northwestward down towards the Water of Leith basin, with groundwater channeled through permeable glacial gravels."
      }
    },
    {
      "type": "Feature",
      "id": "stratum_3_ground_surface",
      "geometry": {
        "type": "Point",
        "coordinates": [
          -3.2092917616902716,
          55.94858189245399
        ]
      },
      "properties": {
        "stratum": "ground_surface",
        "primary_surfacing": "Engineered roadway and paved pedestrian curbs",
        "wear_characteristics": "Authentic environmental patina and drainage grading"
      }
    },
    {
      "type": "Feature",
      "id": "stratum_4_landscape_ecology",
      "geometry": {
        "type": "Point",
        "coordinates": [
          -3.2092917616902716,
          55.94858189245399
        ]
      },
      "properties": {
        "stratum": "landscape_ecology",
        "botanical_analysis": "Urban vegetation interspersed along rear garden plots, shared greens, and distant street corridors:\n- **Canopy Trees**: Mature London Planes (*Platanus x acerifolia*), European Sycamores (*Acer pseudoplatanus*), and Silver Birches (*Betula pendula*) exhibiting full, dense organic leafy branching, textured bark, and natural crown volume\u2014clearly disambiguated from adjacent masonry.\n- **Understory & Distant Parks**: English Ivy (*Hedera helix*) clinging to sheltered courtyard rubble walls, ornamental garden shrubs, and the rolling green drumlins of the distant Lothian hills and the Firth of Forth horizon line.",
        "foliage_rectification": "Disambiguated from masonry mesh"
      }
    },
    {
      "type": "Feature",
      "id": "stratum_5_built_environment",
      "geometry": {
        "type": "Point",
        "coordinates": [
          -3.2092917616902716,
          55.94858189245399
        ]
      },
      "properties": {
        "stratum": "built_environment",
        "architectural_summary": "Looking northwest across Edinburgh's West End (Shandwick Place / Stafford Street axis):\n- **Central Monument**: **St George's West Church (Free Church)**, designed by David Bryce (1866\u20131869) with its landmark 56-metre (184-foot) Italian Romanesque / Venetian-inspired campanile designed by Sir Robert Rowand Anderson (1879\u20131881). The tower features a square ashlar shaft, belfry arcade with triple round-arched louvres, classical clock stage, and a verdigris copper pyramidal spire.\n- **Foreground**: Four-storey Victorian/Georgian red-orange brick and buff sandstone tenement rear blocks with hipped/pitched leaded and slated roof planes, prominent stone chimney stacks, and clay chimneypots.\n- **Flanking Terraces & Tenements**: 3.5 to 5-storey classical Scottish Georgian and Victorian tenement blocks arranged in continuous street grids, characterized by regular rhythms of vertical 2-over-2 and 6-over-6 timber sash-and-case windows, projecting eaves, canted bays, dormered mansard roofs, and heavy dressed ashlar parapets.\n- **Planar Rectification & Anti-Warp Protocol**: All vertical tenement facades, corner quoins, and the soaring church tower are plumbed to absolute gravity-vertical alignment; all slated roof ridges, stringcourses, and cornice lines are rectified into true planar geometries, eliminating photogrammetry tilt and distorted polygon artifacts.",
        "structures": [
          {
            "name": "Primary Facade",
            "storeys": 2,
            "height_m": 7.5,
            "roof_geometry": "pitched / parapet",
            "facade_material": "authentic regional masonry",
            "planar_rectification": "ENFORCED"
          }
        ]
      }
    },
    {
      "type": "Feature",
      "id": "stratum_6_dynamic_elements",
      "geometry": {
        "type": "Point",
        "coordinates": [
          -3.2092917616902716,
          55.94858189245399
        ]
      },
      "properties": {
        "stratum": "dynamic_elements",
        "transient_decluttering": "ENFORCED",
        "vehicles": "NONE",
        "pedestrians": "NONE",
        "transient_clutter": "STRIPPED",
        "permanent_civil_fabric": "PRESERVED"
      }
    },
    {
      "type": "Feature",
      "id": "stratum_7_atmospheric_state",
      "geometry": null,
      "properties": {
        "stratum": "atmospheric_state",
        "lighting_rig": "SOLAR_EPHEMERIS",
        "timestamp_utc": "2026-08-26T04:12:00+00:00",
        "weather_state": "OVERCAST",
        "temperature_c": 17.5,
        "solar_azimuth_deg": 121.72,
        "solar_elevation_deg": -7.25,
        "shadow_azimuth_deg": 301.7,
        "color_temperature_k": 2000,
        "ambient_illuminance_lux": 5
      }
    }
  ]
}