{
  "type": "FeatureCollection",
  "properties": {
    "address": "15 Marchmont Cres, Edinburgh EH9 1HL, UK",
    "spatial_mode": "3D_TILES",
    "schema_version": "7-Strata-v2.0"
  },
  "features": [
    {
      "type": "Feature",
      "id": "stratum_1_observer_frame",
      "geometry": {
        "type": "Point",
        "coordinates": [
          -3.193550291213969,
          55.938847388253635
        ]
      },
      "properties": {
        "stratum": "observer_frame",
        "spatial_mode": "3D_TILES",
        "camera": {
          "altitude_m_agl": 206.4,
          "pitch_deg": -40.1,
          "heading_deg": 168.3,
          "fov_deg": 60.0
        }
      }
    },
    {
      "type": "Feature",
      "id": "stratum_2_subterranean_geology",
      "geometry": {
        "type": "Point",
        "coordinates": [
          -3.193550291213969,
          55.938847388253635
        ]
      },
      "properties": {
        "stratum": "subterranean_geology",
        "foundation_analysis": "The subterranean geology of Marchmont rests upon the Upper Oil-Shale and Gullane Formations of the Carboniferous sedimentary sequence, overlain by dense glacial till. The superstructures are constructed predominantly of indigenous Lower Carboniferous quartz sandstones, featuring pale grey-buff and carbon-flecked laminated stone extracted from Hailes and Craigleith quarries, alongside Permo-Triassic New Red/Locharbriggs sandstones deployed in late Victorian phases. Mortar chemistry consists of traditional lime mortar binders (slaked hydraulic lime with sharp quartz river sand aggregate) providing essential vapor permeability. Natural subterranean drainage flows northwards down the glacial slope toward the historic Burgh Loch basin (The Meadows)."
      }
    },
    {
      "type": "Feature",
      "id": "stratum_3_ground_surface",
      "geometry": {
        "type": "Point",
        "coordinates": [
          -3.193550291213969,
          55.938847388253635
        ]
      },
      "properties": {
        "stratum": "ground_surface",
        "primary_surfacing": "Engineered roadway and paved pedestrian curbs",
        "wear_characteristics": "Authentic environmental patina and drainage grading"
      }
    },
    {
      "type": "Feature",
      "id": "stratum_4_landscape_ecology",
      "geometry": {
        "type": "Point",
        "coordinates": [
          -3.193550291213969,
          55.938847388253635
        ]
      },
      "properties": {
        "stratum": "landscape_ecology",
        "botanical_analysis": "Urban temperate vegetation in rear courtyard plots and sidewalk verges. Mature leafy canopy of *Acer pseudoplatanus* (Sycamore), *Ulmus glabra* (Wych Elm), and *Betula pendula* (Silver Birch), displaying organic deciduous branching, deep green serrated foliage, and natural irregular crowns distinct from building masonry.",
        "foliage_rectification": "Disambiguated from masonry mesh"
      }
    },
    {
      "type": "Feature",
      "id": "stratum_5_built_environment",
      "geometry": {
        "type": "Point",
        "coordinates": [
          -3.193550291213969,
          55.938847388253635
        ]
      },
      "properties": {
        "stratum": "built_environment",
        "architectural_summary": "Classic late-Victorian Scottish Baronial / Renaissance revival tenement blocks (c. 1876\u20131890) flanking the junction of Marchmont Crescent, Roseneath Street, and Warrender Park Road. \n- **Typology & Height:** Solid four-to-five-storey load-bearing masonry blocks (16\u201320m elevation to ridge) above raised plinths and ground-floor commercial units.\n- **Corner Features & Articulation:** Prominent corner conical turrets (tourelles) with corbelled ashlar bases, crow-stepped and pedimented nepus gables, decorative stringcourses, and heavy ashlar wallhead chimney stacks with terracotta chimney pots.\n- **Fenestration:** Rectilinear vertical timber sash-and-case windows (one-over-one and two-over-two patterns) recessed in crisp, roll-moulded stone reveals.\n- **Planar Rectification:** All exterior load-bearing ashlar and snecked rubble walls are plumbed to absolute gravitational vertical; horizontal stringcourses, lead roof valleys, and Ballachulish slate pitched roof planes are rectified into true planar geometries.",
        "structures": [
          {
            "name": "Primary Facade",
            "storeys": 2,
            "height_m": 7.5,
            "roof_geometry": "pitched / parapet",
            "facade_material": "authentic regional masonry",
            "planar_rectification": "ENFORCED"
          }
        ]
      }
    },
    {
      "type": "Feature",
      "id": "stratum_6_dynamic_elements",
      "geometry": {
        "type": "Point",
        "coordinates": [
          -3.193550291213969,
          55.938847388253635
        ]
      },
      "properties": {
        "stratum": "dynamic_elements",
        "transient_decluttering": "ENFORCED",
        "vehicles": "NONE",
        "pedestrians": "NONE",
        "transient_clutter": "STRIPPED",
        "permanent_civil_fabric": "PRESERVED"
      }
    },
    {
      "type": "Feature",
      "id": "stratum_7_atmospheric_state",
      "geometry": null,
      "properties": {
        "stratum": "atmospheric_state",
        "lighting_rig": "SOLAR_EPHEMERIS",
        "timestamp_utc": "2026-11-11T08:12:46.452070+00:00",
        "weather_state": "SUNNY",
        "temperature_c": 15.0,
        "solar_azimuth_deg": 52.54,
        "solar_elevation_deg": 3.1,
        "shadow_azimuth_deg": 232.5,
        "color_temperature_k": 3200,
        "ambient_illuminance_lux": 12000
      }
    }
  ]
}