{
  "type": "FeatureCollection",
  "properties": {
    "address": "1540 Maine Ave SW, Washington, DC 20004, USA",
    "spatial_mode": "3D_TILES",
    "schema_version": "7-Strata-v2.0"
  },
  "features": [
    {
      "type": "Feature",
      "id": "stratum_1_observer_frame",
      "geometry": {
        "type": "Point",
        "coordinates": [
          -77.0366860129463,
          38.88670746678647
        ]
      },
      "properties": {
        "stratum": "observer_frame",
        "spatial_mode": "3D_TILES",
        "camera": {
          "altitude_m_agl": 473.8,
          "pitch_deg": -54.3,
          "heading_deg": 23.3,
          "fov_deg": 60.0
        }
      }
    },
    {
      "type": "Feature",
      "id": "stratum_2_subterranean_geology",
      "geometry": {
        "type": "Point",
        "coordinates": [
          -77.0366860129463,
          38.88670746678647
        ]
      },
      "properties": {
        "stratum": "subterranean_geology",
        "foundation_analysis": "- **Bedrock & Subterranean Foundation**: Underlain by the Atlantic Coastal Plain margin overlapping Piedmont crystalline bedrock (metamorphic schist and gneiss) buried beneath deep Quaternary alluvial deposits and Potomac Formation clay, silt, and gravel. Because the original 19th-century marshland soils had a high water table and low bearing capacity, the Washington Monument rests on an engineered underpinning: a massive subterranean concrete slab and buttress foundation system extending 11.2 m (36.8 ft) deep to stabilize settling.\n- **Lithology & Quarry Provenance**:\n  - *Lower Shaft (0\u201346.3 m / 0\u2013152 ft)*: Coarse-grained white calcitic Cockeysville Marble quarried from the Texas Quarry in Baltimore County, Maryland, backed by blue gneiss and Seneca red sandstone masonry.\n  - *Intermediate Transition (approx. 46\u201349 m)*: Four courses of fine-grained white marble quarried in Lee/Sheffield, Berkshire County, Massachusetts.\n  - *Upper Shaft & Pyramidion (49\u2013169 m)*: Finer-grained dolomitic Cockeysville Marble (Maryland) backed by New England granites and blue gneiss rubble.\n  - *Apex*: 100-ounce cast solid aluminum pyramidion tip.\n  - *Plaza & Curbs*: Fine-to-medium grained grey and charcoal granites (including Mesabi Black and regional Appalachian granites).\n- **Mortar Chemistry**: 19th-century hydraulic lime-sand mortar in the lower tier, transitioning to early Portland cement and natural hydraulic cement blends in the upper sections.\n- **Hydrology**: High water table mitigated by subterranean radial French drains, gravitational sumps, and surface grading that channels storm runoff away from the monument mound into National Mall drainage basins."
      }
    },
    {
      "type": "Feature",
      "id": "stratum_3_ground_surface",
      "geometry": {
        "type": "Point",
        "coordinates": [
          -77.0366860129463,
          38.88670746678647
        ]
      },
      "properties": {
        "stratum": "ground_surface",
        "primary_surfacing": "Engineered roadway and paved pedestrian curbs",
        "wear_characteristics": "Authentic environmental patina and drainage grading"
      }
    },
    {
      "type": "Feature",
      "id": "stratum_4_landscape_ecology",
      "geometry": {
        "type": "Point",
        "coordinates": [
          -77.0366860129463,
          38.88670746678647
        ]
      },
      "properties": {
        "stratum": "landscape_ecology",
        "botanical_analysis": "- **Overstory & Canopy**: Mature deciduous trees forming dense, rounded organic canopies; primary species include American elm (*Ulmus americana*), willow oak (*Quercus phellos*), red oak (*Quercus rubra*), London plane trees (*Platanus \u00d7 acerifolia*), and flowering Yoshino cherry (*Prunus \u00d7 yedoensis*). Canopies exhibit complex branching with dense leafy foliage, distinct from underlying stone/earth textures.\n- **Groundcover**: High-traffic manicured turfgrass lawn (Kentucky bluegrass *Poa pratensis* and turf-type tall fescue *Festuca arundinacea* mix) exhibiting radial mower stripes, subtle compaction wear along footpath margins, and healthy emerald-to-olive green seasonal saturation.",
        "foliage_rectification": "Disambiguated from masonry mesh"
      }
    },
    {
      "type": "Feature",
      "id": "stratum_5_built_environment",
      "geometry": {
        "type": "Point",
        "coordinates": [
          -77.0366860129463,
          38.88670746678647
        ]
      },
      "properties": {
        "stratum": "built_environment",
        "architectural_summary": "- **Typology & Geometric Rectification**: \n  - *Center*: Egyptian-revival hollow load-bearing stone masonry obelisk standing at an official geodetic height of 169.046 m (554 ft 7 11/32 in) with a base width of 16.8 m tapering to 10.5 m below the 55-degree apex pyramidion. The 3D photogrammetric taper is rectified to true planar vertical alignment with laser-straight plumb lines, crisp 90-degree corner arrises, and symmetrical 8-window observation apertures at the pyramidion base.\n  - *Monument Plaza*: Symmetrical circular granite terrace and dual concentric flag rings surrounding the monument base, accessed by rectilinear and arcuate crushed-gravel pathways.\n  - *Northeast Flank (National Museum of African American History and Culture)*: Contemporary 5-storey above-grade civic institutional pavilion featuring an inverted, three-tiered corona profile angled at 17 degrees (mirroring the monument\u2019s pyramidion angle). Rectilinear glass curtain wall beneath a cantilevered, laser-plumbed cast bronze-aluminum screen.\n  - *Southeast Flank (Institutional Buildings)*: Neoclassical/federalist multi-storey administrative brick and limestone ashlar office wings with symmetrical fenestration and flat/mansard rooflines.",
        "structures": [
          {
            "name": "Primary Facade",
            "storeys": 2,
            "height_m": 7.5,
            "roof_geometry": "pitched / parapet",
            "facade_material": "authentic regional masonry",
            "planar_rectification": "ENFORCED"
          }
        ]
      }
    },
    {
      "type": "Feature",
      "id": "stratum_6_dynamic_elements",
      "geometry": {
        "type": "Point",
        "coordinates": [
          -77.0366860129463,
          38.88670746678647
        ]
      },
      "properties": {
        "stratum": "dynamic_elements",
        "transient_decluttering": "ENFORCED",
        "vehicles": "NONE",
        "pedestrians": "NONE",
        "transient_clutter": "STRIPPED",
        "permanent_civil_fabric": "PRESERVED"
      }
    },
    {
      "type": "Feature",
      "id": "stratum_7_atmospheric_state",
      "geometry": null,
      "properties": {
        "stratum": "atmospheric_state",
        "lighting_rig": "SOLAR_EPHEMERIS",
        "timestamp_utc": "2026-08-25T06:00:00+00:00",
        "weather_state": "OVERCAST",
        "temperature_c": 27.6,
        "solar_azimuth_deg": 164.44,
        "solar_elevation_deg": -38.69,
        "shadow_azimuth_deg": 344.4,
        "color_temperature_k": 2000,
        "ambient_illuminance_lux": 5
      }
    }
  ]
}