{
  "type": "FeatureCollection",
  "properties": {
    "address": "Floral Library Park, 1540 Maine Ave SW, Washington, DC 20004, USA",
    "spatial_mode": "3D_TILES",
    "schema_version": "7-Strata-v2.0"
  },
  "features": [
    {
      "type": "Feature",
      "id": "stratum_1_observer_frame",
      "geometry": {
        "type": "Point",
        "coordinates": [
          -77.03616525873205,
          38.88584814664969
        ]
      },
      "properties": {
        "stratum": "observer_frame",
        "spatial_mode": "3D_TILES",
        "camera": {
          "altitude_m_agl": 42.8,
          "pitch_deg": -6.1,
          "heading_deg": 15.3,
          "fov_deg": 60.0
        }
      }
    },
    {
      "type": "Feature",
      "id": "stratum_2_subterranean_geology",
      "geometry": {
        "type": "Point",
        "coordinates": [
          -77.03616525873205,
          38.88584814664969
        ]
      },
      "properties": {
        "stratum": "subterranean_geology",
        "foundation_analysis": "The Washington Monument grounds occupy the transition zone between the Atlantic Coastal Plain sedimentary wedges and the crystalline bedrock of the Piedmont Province. Bedrock beneath this section of the National Mall consists of late Proterozoic to early Paleozoic metamorphic rock (Kensington Tonalite and Potomac Formation saprolites), overlaid by alluvial silt, clay, and historic artificial fill from Potomac River tidal flat reclamations. \n\nThe primary lithic material of the central 555-foot obelisk features three distinct stratifications of ashlar facing:\n1. **Lower Phase (Base to ~150 ft):** Calcitic white marble from the Cockeysville Formation, quarried at Texas, Baltimore County, Maryland.\n2. **Intermediate Beltline (approx. 4 courses at 150\u2013160 ft):** Ordovician Stockbridge Marble from Sheffield/Lee, Berkshire County, Massachusetts, exhibiting distinct brown/grey dolomitic banding and darker oxidation.\n3. **Upper Phase (160 ft to 555 ft apex):** Finer-grained Cockeysville dolomitic metalimestone quarried near Cockeysville, Maryland.\nThe inner masonry core is comprised of crystalline blue gneiss and Maine Dix Island granite bonded with hydraulic lime and early Portland cement mortars. Subterranean drainage around the obelisk knoll is heavily engineered via deep retaining stabilization piles, aggregate drainage layers, and perimeter sump routing to mitigate Potomac tidal groundwater intrusion."
      }
    },
    {
      "type": "Feature",
      "id": "stratum_3_ground_surface",
      "geometry": {
        "type": "Point",
        "coordinates": [
          -77.03616525873205,
          38.88584814664969
        ]
      },
      "properties": {
        "stratum": "ground_surface",
        "primary_surfacing": "Engineered roadway and paved pedestrian curbs",
        "wear_characteristics": "Authentic environmental patina and drainage grading"
      }
    },
    {
      "type": "Feature",
      "id": "stratum_4_landscape_ecology",
      "geometry": {
        "type": "Point",
        "coordinates": [
          -77.03616525873205,
          38.88584814664969
        ]
      },
      "properties": {
        "stratum": "landscape_ecology",
        "botanical_analysis": "The surrounding National Mall and Monument knoll are populated by mature deciduous and mixed broadleaf specimens:\n- *Platanus \u00d7 acerifolia* (London Plane) and *Quercus phellos* (Willow Oak) along outer concentric path rings.\n- *Ulmus americana* (American Elm) groves lining the Mall boulevards, featuring arching vase-shaped canopies.\n- *Prunus serrulata* (Yoshino Cherry) specimens bordering the southern and southwestern aprons.\nAll trees are structurally distinct with intricate, organic branch architecture and lush, leafy summer canopies completely resolved from geometric ground noise.",
        "foliage_rectification": "Disambiguated from masonry mesh"
      }
    },
    {
      "type": "Feature",
      "id": "stratum_5_built_environment",
      "geometry": {
        "type": "Point",
        "coordinates": [
          -77.03616525873205,
          38.88584814664969
        ]
      },
      "properties": {
        "stratum": "built_environment",
        "architectural_summary": "- **A. Foreground & Circular Apron (1540 Maine Ave SW / Monument Grounds):** A gently sloping turf knoll traversed by curvilinear, fine-aggregate crushed-granite pathways and asphalt service loops. The base of the obelisk is circumscribed by a broad, laser-level paved plaza flanked by 56 static stainless-steel flagpoles arranged in an exact circle.\n- **B. Center Structure (Washington Monument):** A 555-foot-5-inch (169.29 m) neo-Egyptian geometric stone obelisk terminating in an unornamented pyramidion capstone with a 17.2\u00b0 slope. Vertical edges plumb directly to true gravity vertical with strict planar rectitude, devoid of photogrammetric mesh skewing or warped seams.\n- **C. Midground & Background Right Structures (Federal Triangle & National Mall):**\n  - *National Museum of African American History and Culture (NMAAHC):* A 5-story above-grade inverted stepped ziggurat (\"Corona\") featuring a three-tiered trapezoidal massing leaning at a ~17\u00b0 outward angle, matching the obelisk capstone angle.\n  - *Federal Triangle / Department of Commerce / Ronald Reagan Building:* Massive 6- to 7-story classical revival and Beaux-Arts limestone colonnades, rusticated bases, and mansard roofs covered in terracotta Spanish-S clay tiles.\n  - *Old Post Office Pavilion (Right Background):* Romanesque Revival granite and limestone clock tower rising to a dominant conical spire.\n- **D. Left Background:** Classical colonnades and white Indiana limestone/marble facades of the White House complex, Executive Office buildings, and downtown DC commercial grid.",
        "structures": [
          {
            "name": "Primary Facade",
            "storeys": 2,
            "height_m": 7.5,
            "roof_geometry": "pitched / parapet",
            "facade_material": "authentic regional masonry",
            "planar_rectification": "ENFORCED"
          }
        ]
      }
    },
    {
      "type": "Feature",
      "id": "stratum_6_dynamic_elements",
      "geometry": {
        "type": "Point",
        "coordinates": [
          -77.03616525873205,
          38.88584814664969
        ]
      },
      "properties": {
        "stratum": "dynamic_elements",
        "transient_decluttering": "ENFORCED",
        "vehicles": "NONE",
        "pedestrians": "NONE",
        "transient_clutter": "STRIPPED",
        "permanent_civil_fabric": "PRESERVED"
      }
    },
    {
      "type": "Feature",
      "id": "stratum_7_atmospheric_state",
      "geometry": null,
      "properties": {
        "stratum": "atmospheric_state",
        "lighting_rig": "SOLAR_EPHEMERIS",
        "timestamp_utc": "2026-08-25T07:35:00+00:00",
        "weather_state": "FOG",
        "temperature_c": 15.0,
        "solar_azimuth_deg": 138.27,
        "solar_elevation_deg": -29.77,
        "shadow_azimuth_deg": 318.3,
        "color_temperature_k": 2000,
        "ambient_illuminance_lux": 5
      }
    }
  ]
}