{
  "type": "FeatureCollection",
  "properties": {
    "address": "13 E Basin Dr SW, Washington, DC 20004, USA",
    "spatial_mode": "3D_TILES",
    "schema_version": "7-Strata-v2.0"
  },
  "features": [
    {
      "type": "Feature",
      "id": "stratum_1_observer_frame",
      "geometry": {
        "type": "Point",
        "coordinates": [
          -77.03653931436824,
          38.87944814120298
        ]
      },
      "properties": {
        "stratum": "observer_frame",
        "spatial_mode": "3D_TILES",
        "camera": {
          "altitude_m_agl": 56.5,
          "pitch_deg": -18.7,
          "heading_deg": 2.5,
          "fov_deg": 60.0
        }
      }
    },
    {
      "type": "Feature",
      "id": "stratum_2_subterranean_geology",
      "geometry": {
        "type": "Point",
        "coordinates": [
          -77.03653931436824,
          38.87944814120298
        ]
      },
      "properties": {
        "stratum": "subterranean_geology",
        "foundation_analysis": "The subterranean foundation rests within the Atlantic Coastal Plain unconsolidated sediments and artificial riverbed fill of the reclaimed Potomac River mudflats. To ensure structural stability across the saturated, dynamic water table adjacent to the Tidal Basin, load-bearing concrete caissons were sunk through alluvial silt and clay down to crystalline metamorphic bedrock (gneiss/schist). \n\nThe superstructure utilizes a diverse palette of North American lithics:\n- Exterior envelope, columns, and stepped drum: Vermont Imperial Danby marble (Lower Ordovician Shelburne Formation calcitic marble).\n- Basement terraces, retention walls, and foundation podium: Fine-to-medium grained Georgia and New England granite.\n- Internal structural elements & backing: Indiana oolitic limestone (Salem Formation) and Portland cement mortar."
      }
    },
    {
      "type": "Feature",
      "id": "stratum_3_ground_surface",
      "geometry": {
        "type": "Point",
        "coordinates": [
          -77.03653931436824,
          38.87944814120298
        ]
      },
      "properties": {
        "stratum": "ground_surface",
        "primary_surfacing": "Engineered roadway and paved pedestrian curbs",
        "wear_characteristics": "Authentic environmental patina and drainage grading"
      }
    },
    {
      "type": "Feature",
      "id": "stratum_4_landscape_ecology",
      "geometry": {
        "type": "Point",
        "coordinates": [
          -77.03653931436824,
          38.87944814120298
        ]
      },
      "properties": {
        "stratum": "landscape_ecology",
        "botanical_analysis": "- Mature urban canopy surrounding the memorial: Deciduous Yoshino cherry trees (*Prunus \u00d7 yedoensis*), Kwanzan cherry (*Prunus serrulata*), American elm (*Ulmus americana*), and pin oaks (*Quercus palustris*).\n- Concentric turf terraces composed of managed Kentucky bluegrass (*Poa pratensis*) and tall fescue turfgrass, divided by manicured boxwood (*Buxus sempervirens*) hedges and low yew shrubbery.",
        "foliage_rectification": "Disambiguated from masonry mesh"
      }
    },
    {
      "type": "Feature",
      "id": "stratum_5_built_environment",
      "geometry": {
        "type": "Point",
        "coordinates": [
          -77.03653931436824,
          38.87944814120298
        ]
      },
      "properties": {
        "stratum": "built_environment",
        "architectural_summary": "- Typology: Neoclassical / Beaux-Arts commemorative rotunda and pantheon-form open-air temple designed by John Russell Pope, Otto R. Eggers, and Daniel P. Higgins (completed 1943).\n- Massing & Layout: Symmetrical, circular open colonnade rotunda measuring 165 feet in diameter, surmounted by a stepped shallow masonry dome.\n- Elevation & Portico: A north-facing octastyle portico with Ionic colonnade and triangular pediment flanked by circular peristyle colonnade of 26 fluted Ionic columns.\n- Planar Rectification: All 26 peristyle columns and 12 portico columns are rectified to plumb vertical alignment. The horizontal entablature, architrave, dentiled cornice, stepped base terraces, and concentric circular parapets are mapped to flat planar geometries without photogrammetry warping.",
        "structures": [
          {
            "name": "Primary Facade",
            "storeys": 2,
            "height_m": 7.5,
            "roof_geometry": "pitched / parapet",
            "facade_material": "authentic regional masonry",
            "planar_rectification": "ENFORCED"
          }
        ]
      }
    },
    {
      "type": "Feature",
      "id": "stratum_6_dynamic_elements",
      "geometry": {
        "type": "Point",
        "coordinates": [
          -77.03653931436824,
          38.87944814120298
        ]
      },
      "properties": {
        "stratum": "dynamic_elements",
        "transient_decluttering": "ENFORCED",
        "vehicles": "NONE",
        "pedestrians": "NONE",
        "transient_clutter": "STRIPPED",
        "permanent_civil_fabric": "PRESERVED"
      }
    },
    {
      "type": "Feature",
      "id": "stratum_7_atmospheric_state",
      "geometry": null,
      "properties": {
        "stratum": "atmospheric_state",
        "lighting_rig": "SOLAR_EPHEMERIS",
        "timestamp_utc": "2026-08-28T00:14:08.769435+00:00",
        "weather_state": "SUNNY",
        "temperature_c": 15.0,
        "solar_azimuth_deg": 251.95,
        "solar_elevation_deg": -5.8,
        "shadow_azimuth_deg": 71.9,
        "color_temperature_k": 2200,
        "ambient_illuminance_lux": 800
      }
    }
  ]
}