{
  "type": "FeatureCollection",
  "properties": {
    "address": "St John's Church, Princes St., Edinburgh EH2 4BJ, UK",
    "spatial_mode": "3D_TILES",
    "schema_version": "7-Strata-v2.0"
  },
  "features": [
    {
      "type": "Feature",
      "id": "stratum_1_observer_frame",
      "geometry": {
        "type": "Point",
        "coordinates": [
          -3.2062540566735325,
          55.95028876388818
        ]
      },
      "properties": {
        "stratum": "observer_frame",
        "spatial_mode": "3D_TILES",
        "camera": {
          "altitude_m_agl": 15.0,
          "pitch_deg": -2.4,
          "heading_deg": 266.9,
          "fov_deg": 60.0
        }
      }
    },
    {
      "type": "Feature",
      "id": "stratum_2_subterranean_geology",
      "geometry": {
        "type": "Point",
        "coordinates": [
          -3.2062540566735325,
          55.95028876388818
        ]
      },
      "properties": {
        "stratum": "subterranean_geology",
        "foundation_analysis": "Subterranean base composed of Lower Carboniferous sedimentary sandstone and volcanic strata draped in dense glacial till. Primary architectural lithics comprise local pale buff-to-grey Craigleith and Hailes Carboniferous sandstones, finely dressed into ashlar masonry. Basal storeys feature polished Peterhead granite and dark igneous plinths. Historic masonry bound with lime-based mortar; road surfaces underlain by crushed basalt aggregate and reinforced concrete sub-bases."
      }
    },
    {
      "type": "Feature",
      "id": "stratum_3_ground_surface",
      "geometry": {
        "type": "Point",
        "coordinates": [
          -3.2062540566735325,
          55.95028876388818
        ]
      },
      "properties": {
        "stratum": "ground_surface",
        "primary_surfacing": "Engineered roadway and paved pedestrian curbs",
        "wear_characteristics": "Authentic environmental patina and drainage grading"
      }
    },
    {
      "type": "Feature",
      "id": "stratum_4_landscape_ecology",
      "geometry": {
        "type": "Point",
        "coordinates": [
          -3.2062540566735325,
          55.95028876388818
        ]
      },
      "properties": {
        "stratum": "landscape_ecology",
        "botanical_analysis": "Date-grounded phenology (September 9, late summer transitioning to early autumn): Distant incidental street trees (*Acer pseudoplatanus* and *Tilia cordata*) retain full, dense canopy volumes in deep forest green, exhibiting initial localized margin chlorosis and dry foliage edges consistent with late-season urban conditions.",
        "foliage_rectification": "Disambiguated from masonry mesh"
      }
    },
    {
      "type": "Feature",
      "id": "stratum_5_built_environment",
      "geometry": {
        "type": "Point",
        "coordinates": [
          -3.2062540566735325,
          55.95028876388818
        ]
      },
      "properties": {
        "stratum": "built_environment",
        "architectural_summary": "Rectified urban intersection at the convergence of Princes Street, Lothian Road, and Shandwick Place. \n- Right frontage: Continuous 4-to-6-storey commercial streetscape. Features early-20th-century Edwardian classical ashlar commercial blocks with giant order fluted pilasters, heavy modillion cornices, balustraded parapets, and attic dormers; adjacent modern infill displaying vertical steel-and-glass curtain walling.\n- Left frontage: 4-storey New Town classical corner block with rusticated ashlar ground floor, regular fenestration grids with timber 2-over-2 and 6-over-6 sash-and-case windows, molded architraves, continuous string courses, and a hipped Scottish slate roof punctuated by dressed ashlar chimney stacks with ceramic pots.\n- Distance skyline: Slender vertical spires and Italianate campaniles rendered in tooled sandstone masonry.\n- Ground plane: Planar asphalt thoroughfare embedded with twin grooved steel tram rails, painted cross-hatched yellow junction markings, edged by straight granite kerbstones and broad Caithness flagstone pedestrian pavements.",
        "structures": [
          {
            "name": "Primary Facade",
            "storeys": 2,
            "height_m": 7.5,
            "roof_geometry": "pitched / parapet",
            "facade_material": "authentic regional masonry",
            "planar_rectification": "ENFORCED"
          }
        ]
      }
    },
    {
      "type": "Feature",
      "id": "stratum_6_dynamic_elements",
      "geometry": {
        "type": "Point",
        "coordinates": [
          -3.2062540566735325,
          55.95028876388818
        ]
      },
      "properties": {
        "stratum": "dynamic_elements",
        "transient_decluttering": "ENFORCED",
        "vehicles": "NONE",
        "pedestrians": "NONE",
        "transient_clutter": "STRIPPED",
        "permanent_civil_fabric": "PRESERVED"
      }
    },
    {
      "type": "Feature",
      "id": "stratum_7_atmospheric_state",
      "geometry": null,
      "properties": {
        "stratum": "atmospheric_state",
        "lighting_rig": "SOLAR_EPHEMERIS",
        "timestamp_utc": "2026-09-09T15:45:00+00:00",
        "weather_state": "RAIN",
        "solar_azimuth_deg": 241.55,
        "solar_elevation_deg": 24.24,
        "shadow_azimuth_deg": 61.6,
        "color_temperature_k": 4500,
        "ambient_illuminance_lux": 35000
      }
    }
  ]
}