{
  "type": "FeatureCollection",
  "properties": {
    "address": "3 Ainslie Pl, Edinburgh EH3 6AR, UK",
    "spatial_mode": "3D_TILES",
    "schema_version": "7-Strata-v2.0"
  },
  "features": [
    {
      "type": "Feature",
      "id": "stratum_1_observer_frame",
      "geometry": {
        "type": "Point",
        "coordinates": [
          -3.2106609045949335,
          55.9540661319504
        ]
      },
      "properties": {
        "stratum": "observer_frame",
        "spatial_mode": "3D_TILES",
        "camera": {
          "altitude_m_agl": 149.8,
          "pitch_deg": -21.1,
          "heading_deg": 157.0,
          "fov_deg": 60.0
        }
      }
    },
    {
      "type": "Feature",
      "id": "stratum_2_subterranean_geology",
      "geometry": {
        "type": "Point",
        "coordinates": [
          -3.2106609045949335,
          55.9540661319504
        ]
      },
      "properties": {
        "stratum": "subterranean_geology",
        "foundation_analysis": "Subterranean formation comprises Lower Carboniferous (Tournaisian\u2013Vis\u00e9an) sedimentary strata of the Strathclyde Group, dominated by interbedded siltstones, sandstones, and volcanic basaltic intrusions characteristic of the Lothian basin. Principal structural masonry is pale blonde-to-grey quartz-arenite Craigleith sandstone, supplemented by carbonaceous Hailes sandstone, bonded with non-hydraulic to weakly hydraulic slaked lime mortar and fine river sand aggregates. Subsurface hydrology slopes northwestward toward the Water of Leith incised gorge, governed by historical French drainage channels beneath cobbled area wells and cellar vaults."
      }
    },
    {
      "type": "Feature",
      "id": "stratum_3_ground_surface",
      "geometry": {
        "type": "Point",
        "coordinates": [
          -3.2106609045949335,
          55.9540661319504
        ]
      },
      "properties": {
        "stratum": "ground_surface",
        "primary_surfacing": "Engineered roadway and paved pedestrian curbs",
        "wear_characteristics": "Authentic environmental patina and drainage grading"
      }
    },
    {
      "type": "Feature",
      "id": "stratum_4_landscape_ecology",
      "geometry": {
        "type": "Point",
        "coordinates": [
          -3.2106609045949335,
          55.9540661319504
        ]
      },
      "properties": {
        "stratum": "landscape_ecology",
        "botanical_analysis": "Ainslie Place Gardens contains mature broadleaf urban canopy specimens:\n- *Acer pseudoplatanus* (Sycamore) and *Ulmus glabra* (Wych Elm), exhibiting massive multi-stem crown spreads with fully developed late-summer deep green foliage, dense branch matrices, and minor leaf-tier chlorosis.\n- *Tilia \u00d7 europaea* (Common Lime) and *Betula pendula* (Silver Birch), displaying upright form, dense leaf distribution, and defined radial root flares anchoring within maintained perennial turf and curved gravel pedestrian circuits.",
        "foliage_rectification": "Disambiguated from masonry mesh"
      }
    },
    {
      "type": "Feature",
      "id": "stratum_5_built_environment",
      "geometry": {
        "type": "Point",
        "coordinates": [
          -3.2106609045949335,
          55.9540661319504
        ]
      },
      "properties": {
        "stratum": "built_environment",
        "architectural_summary": "Neoclassical Greek Revival / Regency urban palace-fronted crescent terraces designed by architect James Gillespie Graham (1822\u20131828) for the Moray Estate. Uniform four-storey elevation profile comprising sunken basement service areas with flagstone bridging, rusticated ashlar ground storeys, two polished ashlar principal storeys, and low-profile slate mansard attic storeys behind stone blocking courses. Facades articulate strict tripartite vertical bay rhythms, channelled ashlar rustication on base courses, molded platbands, classical stringcourses, and dentiled eaves cornices. Symmetrical multi-flue rectangular ashlar chimney stacks with terracotta cylindrical pots crest slate roof ridges. Fenestration is rectified to rigid plumb lines, featuring regular 6-over-6 and 2-over-2 double-hung timber sash-and-case windows set into molded architraves.",
        "structures": [
          {
            "name": "Primary Facade",
            "storeys": 2,
            "height_m": 7.5,
            "roof_geometry": "pitched / parapet",
            "facade_material": "authentic regional masonry",
            "planar_rectification": "ENFORCED"
          }
        ]
      }
    },
    {
      "type": "Feature",
      "id": "stratum_6_dynamic_elements",
      "geometry": {
        "type": "Point",
        "coordinates": [
          -3.2106609045949335,
          55.9540661319504
        ]
      },
      "properties": {
        "stratum": "dynamic_elements",
        "transient_decluttering": "ENFORCED",
        "vehicles": "NONE",
        "pedestrians": "NONE",
        "transient_clutter": "STRIPPED",
        "permanent_civil_fabric": "PRESERVED"
      }
    },
    {
      "type": "Feature",
      "id": "stratum_7_atmospheric_state",
      "geometry": null,
      "properties": {
        "stratum": "atmospheric_state",
        "lighting_rig": "SOLAR_EPHEMERIS",
        "timestamp_utc": "2026-08-28T18:18:50.558617+00:00",
        "weather_state": "OVERCAST",
        "temperature_c": 19.4,
        "solar_azimuth_deg": 263.51,
        "solar_elevation_deg": 7.57,
        "shadow_azimuth_deg": 83.5,
        "color_temperature_k": 3000,
        "ambient_illuminance_lux": 12000
      }
    }
  ]
}