{
  "type": "FeatureCollection",
  "properties": {
    "address": "12 Ainslie Pl, Edinburgh EH3 6AS, UK",
    "spatial_mode": "3D_TILES",
    "schema_version": "7-Strata-v2.0"
  },
  "features": [
    {
      "type": "Feature",
      "id": "stratum_1_observer_frame",
      "geometry": {
        "type": "Point",
        "coordinates": [
          -3.21088646871695,
          55.95318688832975
        ]
      },
      "properties": {
        "stratum": "observer_frame",
        "spatial_mode": "3D_TILES",
        "camera": {
          "altitude_m_agl": 1.7,
          "pitch_deg": -1.1,
          "heading_deg": 29.6,
          "fov_deg": 60.0
        }
      }
    },
    {
      "type": "Feature",
      "id": "stratum_2_subterranean_geology",
      "geometry": {
        "type": "Point",
        "coordinates": [
          -3.21088646871695,
          55.95318688832975
        ]
      },
      "properties": {
        "stratum": "subterranean_geology",
        "foundation_analysis": "The subterranean stratum rests upon Lower Carboniferous sedimentary bedrock of the Strathclyde Group (sandstones, siltstones, and mudstones), overlain by dense Devensian glacial till and boulder clay with natural groundwater migration towards the Water of Leith ravine. Primary structural masonry consists of Craigleith sandstone\u2014a pale buff-grey, silica-cemented quartz arenite renowned for low porosity and immense load strength\u2014paired with Hailes sandstone for subterranean backing. Subterranean basement wells and foundation platts are laid in hydraulic and lime-sand mortars incorporating local volcanic aggregate."
      }
    },
    {
      "type": "Feature",
      "id": "stratum_3_ground_surface",
      "geometry": {
        "type": "Point",
        "coordinates": [
          -3.21088646871695,
          55.95318688832975
        ]
      },
      "properties": {
        "stratum": "ground_surface",
        "primary_surfacing": "Engineered roadway and paved pedestrian curbs",
        "wear_characteristics": "Authentic environmental patina and drainage grading"
      }
    },
    {
      "type": "Feature",
      "id": "stratum_4_landscape_ecology",
      "geometry": {
        "type": "Point",
        "coordinates": [
          -3.21088646871695,
          55.95318688832975
        ]
      },
      "properties": {
        "stratum": "landscape_ecology",
        "botanical_analysis": "The central communal oval garden contains mature broadleaf urban specimens:\n- **Species Composition**: *Acer pseudoplatanus* (Sycamore), *Tilia \u00d7 europaea* (Common Lime), *Ulmus glabra* (Wych Elm), and *Betula pendula* (Silver Birch).\n- **Phenology (September 3)**: Full, heavy late-summer canopy volume showing early signs of apical senescence, subtle leaf-margin chlorosis on lime and birch canopies, deep olive-green maturity across sycamore foliage, and manicured perennial turf understorey bounded by shrub borders.",
        "foliage_rectification": "Disambiguated from masonry mesh"
      }
    },
    {
      "type": "Feature",
      "id": "stratum_5_built_environment",
      "geometry": {
        "type": "Point",
        "coordinates": [
          -3.21088646871695,
          55.95318688832975
        ]
      },
      "properties": {
        "stratum": "built_environment",
        "architectural_summary": "Designed in 1822 by James Gillespie Graham as part of the Moray Estate masterplan, Ainslie Place is a unified, Grade A-listed neoclassical curved crescent block. Massing comprises 3 full storeys over an excavated basement area, topped with an attic and slate roof behind a continuous ashlar parapet and blocking course. The ground floor features crisp, channelled V-jointed rusticated ashlar with round-arched entry doorways and radial glazed fanlights. Upper floors display smooth polished ashlar with continuous projecting string and cill courses, terminal pavilions framed by colossal-order pilasters, and a disciplined grid of 6-over-6 and 2-over-2 timber sash-and-case windows. Droved sandstone steps oversail the basement wells to access principal doors.",
        "structures": [
          {
            "name": "Primary Facade",
            "storeys": 2,
            "height_m": 7.5,
            "roof_geometry": "pitched / parapet",
            "facade_material": "authentic regional masonry",
            "planar_rectification": "ENFORCED"
          }
        ]
      }
    },
    {
      "type": "Feature",
      "id": "stratum_6_dynamic_elements",
      "geometry": {
        "type": "Point",
        "coordinates": [
          -3.21088646871695,
          55.95318688832975
        ]
      },
      "properties": {
        "stratum": "dynamic_elements",
        "transient_decluttering": "ENFORCED",
        "vehicles": "NONE",
        "pedestrians": "NONE",
        "transient_clutter": "STRIPPED",
        "permanent_civil_fabric": "PRESERVED"
      }
    },
    {
      "type": "Feature",
      "id": "stratum_7_atmospheric_state",
      "geometry": null,
      "properties": {
        "stratum": "atmospheric_state",
        "lighting_rig": "SOLAR_EPHEMERIS",
        "timestamp_utc": "2026-09-03T16:23:59+00:00",
        "weather_state": "SUNNY",
        "solar_azimuth_deg": 251.3,
        "solar_elevation_deg": 21.41,
        "shadow_azimuth_deg": 71.3,
        "color_temperature_k": 4500,
        "ambient_illuminance_lux": 35000
      }
    }
  ]
}