{
  "type": "FeatureCollection",
  "properties": {
    "address": "6 Rothesay Pl, Edinburgh EH3 7SL, UK",
    "spatial_mode": "3D_TILES",
    "schema_version": "7-Strata-v2.0"
  },
  "features": [
    {
      "type": "Feature",
      "id": "stratum_1_observer_frame",
      "geometry": {
        "type": "Point",
        "coordinates": [
          -3.217123020332324,
          55.951067652043314
        ]
      },
      "properties": {
        "stratum": "observer_frame",
        "spatial_mode": "3D_TILES",
        "camera": {
          "altitude_m_agl": 1.6,
          "pitch_deg": -22.7,
          "heading_deg": 321.0,
          "fov_deg": 60.0
        }
      }
    },
    {
      "type": "Feature",
      "id": "stratum_2_subterranean_geology",
      "geometry": {
        "type": "Point",
        "coordinates": [
          -3.217123020332324,
          55.951067652043314
        ]
      },
      "properties": {
        "stratum": "subterranean_geology",
        "foundation_analysis": "The site occupies the incised gorge of the Water of Leith, founded upon Lower Carboniferous sedimentary bedrock of the Strathclyde Group (sandstone, siltstone, and mudstone formations interspersed with volcanic dolerite sills). Historic structural masonry comprises local Carboniferous Craigleith and Hailes pale buff-to-grey quartzose sandstone ashlar alongside imported Permian red sandstone (Corsehill / Dumfriesshire origin) for decorative relief and lintels. Bedding mortars consist of historic non-hydraulic and feebly hydraulic lime-sand compositions, transitioning to Portland-cement-modified mortars on mid-to-late 20th-century peripheral works. Subterranean moisture dynamics are heavily dictated by the alluvial river corridor and steep valley-wall groundwater seepage."
      }
    },
    {
      "type": "Feature",
      "id": "stratum_3_ground_surface",
      "geometry": {
        "type": "Point",
        "coordinates": [
          -3.217123020332324,
          55.951067652043314
        ]
      },
      "properties": {
        "stratum": "ground_surface",
        "primary_surfacing": "Engineered roadway and paved pedestrian curbs",
        "wear_characteristics": "Authentic environmental patina and drainage grading"
      }
    },
    {
      "type": "Feature",
      "id": "stratum_4_landscape_ecology",
      "geometry": {
        "type": "Point",
        "coordinates": [
          -3.217123020332324,
          55.951067652043314
        ]
      },
      "properties": {
        "stratum": "landscape_ecology",
        "botanical_analysis": "Mature riparian and valley-slope woodland belt dominated by *Acer pseudoplatanus* (Sycamore), *Fraxinus excelsior* (European Ash), *Ulmus glabra* (Wych Elm), *Salix fragilis* (Crack Willow), and *Alnus glutinosa* (Common Alder). Canopy state for early September corresponds to full, mature late-summer foliar volume, displaying deep-green hues transitioning to subtle early chlorosis and muted yellowing on peripheral upper crown foliage, with dense understory vegetation lining the steep embankment.",
        "foliage_rectification": "Disambiguated from masonry mesh"
      }
    },
    {
      "type": "Feature",
      "id": "stratum_5_built_environment",
      "geometry": {
        "type": "Point",
        "coordinates": [
          -3.217123020332324,
          55.951067652043314
        ]
      },
      "properties": {
        "stratum": "built_environment",
        "architectural_summary": "A dense, multi-era village enclave characterized by steep vertical topography and complex roofscapes:\n- **Historic Core (Well Court Complex, 1883\u20131886, Sydney Mitchell):** 3- to 4-storey Arts and Crafts / Scottish Baronial tenement blocks featuring prominent crow-stepped and steep-pitched gables, conical-capped stair turrets, a clock tower with pyramidal timber fleche, multiple pitched-roof dormers with timber-framed casement fenestration, and timber sash-and-case configurations (predominantly 6-over-6 and 8-over-8 patterns).\n- **Valley-Floor & Flank Infill Developments (Late 20th Century):** 2- to 4-storey terraced and staggered residential blocks exhibiting continuous pitched rooflines, gabled wallhead projections, regularly spaced timber and UPVC casement windows, and integrated ground-level garage bays.\n- **Perimeter Upper Tenements:** 4-storey classic Victorian Scottish tenements with vertical timber sash-and-case windows, vertical chimney stacks with clay pots, and slate mansard attic storeys.\n- **Geometric Rectification:** All wall planes rectified to true gravitational vertical; dormer cheeks, gable ridges, roof valleys, and chimney alignments straightened into crisp, coplanar linear geometry.",
        "structures": [
          {
            "name": "Primary Facade",
            "storeys": 2,
            "height_m": 7.5,
            "roof_geometry": "pitched / parapet",
            "facade_material": "authentic regional masonry",
            "planar_rectification": "ENFORCED"
          }
        ]
      }
    },
    {
      "type": "Feature",
      "id": "stratum_6_dynamic_elements",
      "geometry": {
        "type": "Point",
        "coordinates": [
          -3.217123020332324,
          55.951067652043314
        ]
      },
      "properties": {
        "stratum": "dynamic_elements",
        "transient_decluttering": "ENFORCED",
        "vehicles": "NONE",
        "pedestrians": "NONE",
        "transient_clutter": "STRIPPED",
        "permanent_civil_fabric": "PRESERVED"
      }
    },
    {
      "type": "Feature",
      "id": "stratum_7_atmospheric_state",
      "geometry": null,
      "properties": {
        "stratum": "atmospheric_state",
        "lighting_rig": "SOLAR_EPHEMERIS",
        "timestamp_utc": "2026-09-09T16:00:00+00:00",
        "weather_state": "OVERCAST",
        "solar_azimuth_deg": 245.05,
        "solar_elevation_deg": 22.36,
        "shadow_azimuth_deg": 65.1,
        "color_temperature_k": 4500,
        "ambient_illuminance_lux": 35000
      }
    }
  ]
}