{
  "type": "FeatureCollection",
  "properties": {
    "address": "301 14th St SW, Washington, DC 20228, USA",
    "spatial_mode": "3D_TILES",
    "schema_version": "7-Strata-v2.0"
  },
  "features": [
    {
      "type": "Feature",
      "id": "stratum_1_observer_frame",
      "geometry": {
        "type": "Point",
        "coordinates": [
          -77.03430929678842,
          38.885929304077415
        ]
      },
      "properties": {
        "stratum": "observer_frame",
        "spatial_mode": "3D_TILES",
        "camera": {
          "altitude_m_agl": 726.8,
          "pitch_deg": -58.2,
          "heading_deg": 0.3,
          "fov_deg": 60.0
        }
      }
    },
    {
      "type": "Feature",
      "id": "stratum_2_subterranean_geology",
      "geometry": {
        "type": "Point",
        "coordinates": [
          -77.03430929678842,
          38.885929304077415
        ]
      },
      "properties": {
        "stratum": "subterranean_geology",
        "foundation_analysis": "- **Bedrock Lithology & Subterranean Stratigraphy**: The site straddles the boundary of the Atlantic Coastal Plain and the Piedmont physiographic province. Underneath the surficial fill sits a succession of Pleistocene river terrace deposits (silty/sandy clays and gravels), underlain by the Cretaceous Potomac Formation (dense clays and compact sands), resting on deeply weathered crystalline Precambrian/Early Cambrian metamorphic bedrock (Wissahickon Schist and Sykesville Formation gneiss).\n- **Masonry Lithics & Indigenous Stone Sourcing**:\n  - *Washington Monument*: Tripartite marble cladding comprising Texas (Cockeysville, Baltimore County, Maryland) calcitic marble for the lower 152 feet (1848\u20131854); a thin transitional band of Sheffield, Massachusetts dolomitic marble; and upper elevation Beaver Dam (Cockeysville, Maryland) marble (1879\u20131884). Backed with granite rubble from the Little Falls Quarry on the Potomac and blue gneiss rubble.\n  - *Federal Triangle & Smithsonian Flanking Blocks*: Primary cladding consists of Salem Formation oolitic limestone (Indiana Limestone), Deer Isle / Stony Creek pink and gray granites at the plinths, and buff-hued architectural cast stone.\n- **Mortar Chemistry & Subterranean Drainage**: High-density historic hydraulic lime-sand mortar in the lower monument core, transitioned to Portland-pozzolan hydraulic cements in the late-19th-century underpinning and upper shaft; modern subterranean retaining walls feature continuous slurry cutoffs and deep pile stabilization to resist high water-table hydrostatic pressure from the Potomac tidal basin."
      }
    },
    {
      "type": "Feature",
      "id": "stratum_3_ground_surface",
      "geometry": {
        "type": "Point",
        "coordinates": [
          -77.03430929678842,
          38.885929304077415
        ]
      },
      "properties": {
        "stratum": "ground_surface",
        "primary_surfacing": "Engineered roadway and paved pedestrian curbs",
        "wear_characteristics": "Authentic environmental patina and drainage grading"
      }
    },
    {
      "type": "Feature",
      "id": "stratum_4_landscape_ecology",
      "geometry": {
        "type": "Point",
        "coordinates": [
          -77.03430929678842,
          38.885929304077415
        ]
      },
      "properties": {
        "stratum": "landscape_ecology",
        "botanical_analysis": "- **Mature Deciduous & Coniferous Canopy**: Disambiguated organic tree groves, cleanly differentiated from masonry and civil surfaces.\n- **Botanical Identifiers**:\n  - American Elm (*Ulmus americana*) lining the primary formal all\u00e9es with high arching vase-shaped canopies.\n  - London Plane (*Platanus occidentalis \u00d7 orientalis*) and American Sycamore along roadway margins, displaying mottled olive-and-cream exfoliating bark.\n  - Willow Oak (*Quercus phellos*), Pin Oak (*Quercus palustris*), and Red Maple (*Acer rubrum*) populating the rolling lawn clusters.\n  - Manicured turfgrass matrix comprising Kentucky Bluegrass (*Poa pratensis*) and Tall Fescue (*Festuca arundinacea*) exhibiting distinct circular and radial mown striping patterns.",
        "foliage_rectification": "Disambiguated from masonry mesh"
      }
    },
    {
      "type": "Feature",
      "id": "stratum_5_built_environment",
      "geometry": {
        "type": "Point",
        "coordinates": [
          -77.03430929678842,
          38.885929304077415
        ]
      },
      "properties": {
        "stratum": "built_environment",
        "architectural_summary": "- **Typologies & Massing**:\n  - *Center Axis*: Egyptian Revival monumental obelisk (Washington Monument), towering at a verified civil height of 555 feet 5\u215b inches (169.29 m), with a 15-foot-square base plaza surrounded by a circular granite terrace and geometric serpentine pedestrian rings.\n  - *Northeast Quadrant (Center-Right)*: Contemporary Neo-African / Deconstructivist Corona (Smithsonian National Museum of African American History and Culture - NMAAHC), designed by Freelon Adjaye Bond/SmithGroup, featuring a 5-storey inverted three-tiered stepped corona over an expansive sunken plinth with a southern cantilevered entry \"Porch\".\n  - *East Flank (Right)*: Mid-Century Formalist/Modernist institutional block (National Museum of American History, Kenneth E. Behring Center, McKim Mead & White, 1964), configured as a 5-storey rectangular pavilion with recessed central bay and stripped classical marble/limestone pilasters.\n  - *North Quadrant (Top Background)*: Classical Revival / Beaux-Arts Federal Triangle civic megastructures (Department of Commerce / Herbert C. Hoover Building and Internal Revenue Service), displaying monumental colonnades, rusticated bases, and classical pedimented terra cotta tile hipped roofs.\n- **Planar Rectification & Anti-Warp Protocol**: The central obelisk is rectified to absolute gravitational vertical with crisp, razor-sharp tapering planar facets converging to its pyramidion cap. All rectilinear parapets, flat gravel-and-PV museum roofs, columned porticos, and horizontal floor plates of the flanking Federal Triangle and Smithsonian complexes are plumbed, eliminating any photogrammetric melt, jagged edges, or polygon distortion.",
        "structures": [
          {
            "name": "Primary Facade",
            "storeys": 2,
            "height_m": 7.5,
            "roof_geometry": "pitched / parapet",
            "facade_material": "authentic regional masonry",
            "planar_rectification": "ENFORCED"
          }
        ]
      }
    },
    {
      "type": "Feature",
      "id": "stratum_6_dynamic_elements",
      "geometry": {
        "type": "Point",
        "coordinates": [
          -77.03430929678842,
          38.885929304077415
        ]
      },
      "properties": {
        "stratum": "dynamic_elements",
        "transient_decluttering": "ENFORCED",
        "vehicles": "NONE",
        "pedestrians": "NONE",
        "transient_clutter": "STRIPPED",
        "permanent_civil_fabric": "PRESERVED"
      }
    },
    {
      "type": "Feature",
      "id": "stratum_7_atmospheric_state",
      "geometry": null,
      "properties": {
        "stratum": "atmospheric_state",
        "lighting_rig": "SOLAR_EPHEMERIS",
        "timestamp_utc": "2026-08-25T06:54:00+00:00",
        "weather_state": "FOG",
        "temperature_c": 15.0,
        "solar_azimuth_deg": 148.75,
        "solar_elevation_deg": -34.51,
        "shadow_azimuth_deg": 328.8,
        "color_temperature_k": 2000,
        "ambient_illuminance_lux": 5
      }
    }
  ]
}