{
  "type": "FeatureCollection",
  "properties": {
    "address": "VXP6+69 Washington, DC, USA",
    "spatial_mode": "3D_TILES",
    "schema_version": "7-Strata-v2.0"
  },
  "features": [
    {
      "type": "Feature",
      "id": "stratum_1_observer_frame",
      "geometry": {
        "type": "Point",
        "coordinates": [
          -77.03910195986349,
          38.88552668163355
        ]
      },
      "properties": {
        "stratum": "observer_frame",
        "spatial_mode": "3D_TILES",
        "camera": {
          "altitude_m_agl": 87.7,
          "pitch_deg": -4.9,
          "heading_deg": 39.5,
          "fov_deg": 60.0
        }
      }
    },
    {
      "type": "Feature",
      "id": "stratum_2_subterranean_geology",
      "geometry": {
        "type": "Point",
        "coordinates": [
          -77.03910195986349,
          38.88552668163355
        ]
      },
      "properties": {
        "stratum": "subterranean_geology",
        "foundation_analysis": "- **Subterranean Bedrock & Subsurface Dynamics:** The site occupies alluvial terrace deposits of the Atlantic Coastal Plain overlying crystalline metamorphic bedrock (gneiss/schist) of the Piedmont Fall Zone. The foundation rests on massive stepped bluestone gneiss masonry reinforced with concrete sub-footings to stabilize the weight above high Potomac River alluvial water tables.\n- **Indigenous Masonry Lithics:**\n  - *Washington Monument:* Three distinct lithic strata across its vertical rise. The lower ~152 feet (1848\u20131854) is faced with coarse-grained calcitic marble quarried from Texas, Baltimore County, Maryland. Above a distinct horizontal shift line, four transitional courses consist of fine Stockbridge dolomitic marble from Sheffield/Lee, Massachusetts. The upper two-thirds (1879\u20131884 completion) is faced with fine-grained dolomitic Cockeysville marble (Beaver Dam Quarry, Maryland), backed by Maine granite and Seneca red sandstone.\n  - *Federal Triangle & Background Civic Buildings:* Clad extensively in Salem Formation Indiana oolitic limestone, with lower rusticated basements set in gray crystalline granite.\n- **Mortar Chemistry:** Traditional non-hydraulic to semi-hydraulic high-calcium lime mortar in the historic masonry seams, with repointed elastomeric and natural cementitious formulations at high-exposure joints."
      }
    },
    {
      "type": "Feature",
      "id": "stratum_3_ground_surface",
      "geometry": {
        "type": "Point",
        "coordinates": [
          -77.03910195986349,
          38.88552668163355
        ]
      },
      "properties": {
        "stratum": "ground_surface",
        "primary_surfacing": "Engineered roadway and paved pedestrian curbs",
        "wear_characteristics": "Authentic environmental patina and drainage grading"
      }
    },
    {
      "type": "Feature",
      "id": "stratum_4_landscape_ecology",
      "geometry": {
        "type": "Point",
        "coordinates": [
          -77.03910195986349,
          38.88552668163355
        ]
      },
      "properties": {
        "stratum": "landscape_ecology",
        "botanical_analysis": "- **Vegetative Canvas & Canopy Structure:**\n  - The Monument Grounds and Mall are blanketed in dense, manicured Kentucky bluegrass and tall fescue turfgrass, traced by packed decomposed granite/gravel pedestrian pathways.\n  - Surrounding mature tree clusters disambiguated from built forms: American Elm (*Ulmus americana*), Pin Oak (*Quercus palustris*), Willow Oak (*Quercus phellos*), London Plane (*Platanus occidentalis x acerifolia*), and Yoshino Cherry (*Prunus x yedoensis*), displaying dense, multi-tonal green organic leaf foliage and natural branch architecture.",
        "foliage_rectification": "Disambiguated from masonry mesh"
      }
    },
    {
      "type": "Feature",
      "id": "stratum_5_built_environment",
      "geometry": {
        "type": "Point",
        "coordinates": [
          -77.03910195986349,
          38.88552668163355
        ]
      },
      "properties": {
        "stratum": "built_environment",
        "architectural_summary": "- **Typologies & Massing:**\n  - *Center Obelisk:* Free-standing stone masonry Egyptian Revival/Classical obelisk rising to an exact height of 554 ft 7+11\u204432 in (169.05 m), tapering to an acute 55-foot pyramidion capped with an aluminum apex.\n  - *Center-Right Middleground (NMAAHC):* National Museum of African American History and Culture featuring a three-tiered inverted ziggurat/corona structure wrapped in bronze-colored cast-aluminum latticework.\n  - *Background Civic Core (Federal Triangle / Constitution Ave):* Neoclassical and Beaux-Arts monumental office blocks (Herbert C. Hoover / Department of Commerce, Ronald Reagan Building, EPA/Clinton Building) characterized by colossal multi-column colonnades, pedimented porticos, denticulated friezes, and low-pitch red-orange Spanish terra-cotta tile hip roofs.\n- **Planar Rectification & Geometric Orthogonality:** Absolute true vertical alignment applied to the 555-foot obelisk shaft. Middleground and background facades rectified to plumb 90-degree lines; terra-cotta roof ridgelines and horizontal cornices aligned across the entire urban horizon.",
        "structures": [
          {
            "name": "Primary Facade",
            "storeys": 2,
            "height_m": 7.5,
            "roof_geometry": "pitched / parapet",
            "facade_material": "authentic regional masonry",
            "planar_rectification": "ENFORCED"
          }
        ]
      }
    },
    {
      "type": "Feature",
      "id": "stratum_6_dynamic_elements",
      "geometry": {
        "type": "Point",
        "coordinates": [
          -77.03910195986349,
          38.88552668163355
        ]
      },
      "properties": {
        "stratum": "dynamic_elements",
        "transient_decluttering": "ENFORCED",
        "vehicles": "NONE",
        "pedestrians": "NONE",
        "transient_clutter": "STRIPPED",
        "permanent_civil_fabric": "PRESERVED"
      }
    },
    {
      "type": "Feature",
      "id": "stratum_7_atmospheric_state",
      "geometry": null,
      "properties": {
        "stratum": "atmospheric_state",
        "lighting_rig": "SOLAR_EPHEMERIS",
        "timestamp_utc": "2026-08-27T00:04:09.384470+00:00",
        "weather_state": "SUNNY",
        "temperature_c": 15.0,
        "solar_azimuth_deg": 253.35,
        "solar_elevation_deg": -3.66,
        "shadow_azimuth_deg": 73.4,
        "color_temperature_k": 2400,
        "ambient_illuminance_lux": 800
      }
    }
  ]
}