{
  "type": "FeatureCollection",
  "properties": {
    "address": "1 W Register St, Edinburgh EH2 2AA, UK",
    "spatial_mode": "3D_TILES",
    "schema_version": "7-Strata-v2.0"
  },
  "features": [
    {
      "type": "Feature",
      "id": "stratum_1_observer_frame",
      "geometry": {
        "type": "Point",
        "coordinates": [
          -3.1897379527696796,
          55.95413308385509
        ]
      },
      "properties": {
        "stratum": "observer_frame",
        "spatial_mode": "3D_TILES",
        "camera": {
          "altitude_m_agl": 71.2,
          "pitch_deg": -17.2,
          "heading_deg": 274.1,
          "fov_deg": 60.0
        }
      }
    },
    {
      "type": "Feature",
      "id": "stratum_2_subterranean_geology",
      "geometry": {
        "type": "Point",
        "coordinates": [
          -3.1897379527696796,
          55.95413308385509
        ]
      },
      "properties": {
        "stratum": "subterranean_geology",
        "foundation_analysis": "Bedrock: Carboniferous sedimentary strata of the Inverclyde and Strathclyde Groups, featuring Calciferous Sandstone measures overlain by glacial till. Primary architectural lithics: pale carboniferous Craigleith and Hailes sandstones (fine-to-medium quartz arenite), with Cullalo and Clashach sandstone in restorative phases. Mortar: historic non-hydraulic lime-sand mixes with carbonaceous particulate inclusions."
      }
    },
    {
      "type": "Feature",
      "id": "stratum_3_ground_surface",
      "geometry": {
        "type": "Point",
        "coordinates": [
          -3.1897379527696796,
          55.95413308385509
        ]
      },
      "properties": {
        "stratum": "ground_surface",
        "primary_surfacing": "Engineered roadway and paved pedestrian curbs",
        "wear_characteristics": "Authentic environmental patina and drainage grading"
      }
    },
    {
      "type": "Feature",
      "id": "stratum_4_landscape_ecology",
      "geometry": {
        "type": "Point",
        "coordinates": [
          -3.1897379527696796,
          55.95413308385509
        ]
      },
      "properties": {
        "stratum": "landscape_ecology",
        "botanical_analysis": "Mature urban civic parkland containing *Acer pseudoplatanus* (sycamore), *Tilia cordata* (small-leaved lime), and *Ulmus glabra* (wych elm). Late September phenology: dense canopies exhibiting early foliar chlorosis, patchy yellowing, and minor outer-canopy defoliation. Interior central lawn composed of perennial *Lolium perenne* and *Poa pratensis* turf.",
        "foliage_rectification": "Disambiguated from masonry mesh"
      }
    },
    {
      "type": "Feature",
      "id": "stratum_5_built_environment",
      "geometry": {
        "type": "Point",
        "coordinates": [
          -3.1897379527696796,
          55.95413308385509
        ]
      },
      "properties": {
        "stratum": "built_environment",
        "architectural_summary": "Georgian New Town urban plan centered on an elliptical garden enclosure. Centerpiece: Melville Monument (42-metre fluted Roman Doric column atop a rusticated square plinth). Surrounding perimeter: 4-to-6-storey Georgian Classical and Victorian Palazzo-style ashlar commercial frontages, punctuated by late-20th-century concrete frame and modern glass-and-steel commercial infill. Roofscapes feature timber rafter profiles, Ballachulish slate pitches, lead-dressed dormers, and ashlar chimney stacks. Fenestration: 6-over-6 and 2-over-2 timber sash-and-case grids alongside modern planar curtain-wall glazing.",
        "structures": [
          {
            "name": "Primary Facade",
            "storeys": 2,
            "height_m": 7.5,
            "roof_geometry": "pitched / parapet",
            "facade_material": "authentic regional masonry",
            "planar_rectification": "ENFORCED"
          }
        ]
      }
    },
    {
      "type": "Feature",
      "id": "stratum_6_dynamic_elements",
      "geometry": {
        "type": "Point",
        "coordinates": [
          -3.1897379527696796,
          55.95413308385509
        ]
      },
      "properties": {
        "stratum": "dynamic_elements",
        "transient_decluttering": "ENFORCED",
        "vehicles": "NONE",
        "pedestrians": "NONE",
        "transient_clutter": "STRIPPED",
        "permanent_civil_fabric": "PRESERVED"
      }
    },
    {
      "type": "Feature",
      "id": "stratum_7_atmospheric_state",
      "geometry": null,
      "properties": {
        "stratum": "atmospheric_state",
        "lighting_rig": "SOLAR_EPHEMERIS",
        "timestamp_utc": "2026-09-22T17:45:00+00:00",
        "weather_state": "SUNNY",
        "solar_azimuth_deg": 266.08,
        "solar_elevation_deg": 3.3,
        "shadow_azimuth_deg": 86.1,
        "color_temperature_k": 3000,
        "ambient_illuminance_lux": 12000
      }
    }
  ]
}