{
  "type": "FeatureCollection",
  "properties": {
    "address": "4 Glenfinlas St, Edinburgh EH3 6AQ, UK",
    "spatial_mode": "3D_TILES",
    "schema_version": "7-Strata-v2.0"
  },
  "features": [
    {
      "type": "Feature",
      "id": "stratum_1_observer_frame",
      "geometry": {
        "type": "Point",
        "coordinates": [
          -3.209751244696227,
          55.9524164186605
        ]
      },
      "properties": {
        "stratum": "observer_frame",
        "spatial_mode": "3D_TILES",
        "camera": {
          "altitude_m_agl": 146.6,
          "pitch_deg": -2.5,
          "heading_deg": 161.8,
          "fov_deg": 60.0
        }
      }
    },
    {
      "type": "Feature",
      "id": "stratum_2_subterranean_geology",
      "geometry": {
        "type": "Point",
        "coordinates": [
          -3.209751244696227,
          55.9524164186605
        ]
      },
      "properties": {
        "stratum": "subterranean_geology",
        "foundation_analysis": "- Bedrock Lithology: Subterranean foundation situated on Lower Carboniferous sedimentary formations of the Strathclyde Group (sandstones, siltstones, and mudstones), punctuated by regional volcanic intrusions (dolerite sills).\n- Indigenous Masonry Lithics: Polished Craigleith and Hailes cream-to-honey fine-grained quartzose sandstone ashlar, characterized by high silica content, hard calciferous cementation, and horizontal bedding planes.\n- Mortar Chemistry: Traditional non-hydraulic to weakly hydraulic slaked lime mortar blended with sharp local sand, exhibiting clean, fine-tooled ashlar joints.\n- Subterranean Drainage Dynamics: Natural south/southwest slope runoff across the New Town ridge, drained through underlying permeable till layers above impermeable bedrock strata."
      }
    },
    {
      "type": "Feature",
      "id": "stratum_3_ground_surface",
      "geometry": {
        "type": "Point",
        "coordinates": [
          -3.209751244696227,
          55.9524164186605
        ]
      },
      "properties": {
        "stratum": "ground_surface",
        "primary_surfacing": "Engineered roadway and paved pedestrian curbs",
        "wear_characteristics": "Authentic environmental patina and drainage grading"
      }
    },
    {
      "type": "Feature",
      "id": "stratum_4_landscape_ecology",
      "geometry": {
        "type": "Point",
        "coordinates": [
          -3.209751244696227,
          55.9524164186605
        ]
      },
      "properties": {
        "stratum": "landscape_ecology",
        "botanical_analysis": "- Canopy & Tree Species: Mature broadleaf urban trees in the Charlotte Square gardens, including European Elm (*Ulmus glabra*), Sycamore (*Acer pseudoplatanus*), and English Oak (*Quercus robur*).\n- Botanical State: Rich green, leafy organic branching canopies with deeply textured bark, fully disambiguated from adjacent masonry.",
        "foliage_rectification": "Disambiguated from masonry mesh"
      }
    },
    {
      "type": "Feature",
      "id": "stratum_5_built_environment",
      "geometry": {
        "type": "Point",
        "coordinates": [
          -3.209751244696227,
          55.9524164186605
        ]
      },
      "properties": {
        "stratum": "built_environment",
        "architectural_summary": "- Typology: Category A listed Neoclassical monumental civic/ecclesiastical architecture (West Register House, formerly St George\u2019s Church, 1811\u20131814, designed by Robert Reid after Robert Adam), flanked by continuous Georgian residential and commercial ashlar terraces.\n- Structural Massing & Storey Counts:\n  - Central Monument: Symmetrical square-plan pavilion block rising 5 levels in massing, anchored by a prominent central copper-clad ribbed dome mounted on a massive rusticated base and tall peristyle circular drum (height approximately 49 m / 160 ft to the summit) crowned with an open lantern cupola and gilded finial.\n  - Flanking New Town Terraces: 3 to 4 storeys over raised basements with rusticated ground floors, smooth ashlar upper levels, dentiled cornices, and panelled parapets.\n- Roof & Fenestration Geometry:\n  - Slender ribbed hemispherical dome surrounded by an attic drum balustrade.\n  - Symmetrical timber-sash multi-pane fenestration (6-over-6 and 8-over-8 patterns), round-arched recesses, rectangular bays, and classical pediments along the roofline.\n- Planar Vertical Rectification: Complete anti-warp alignment rectifying all vertical drum colonnades, pavilion corners, stringcourses, and horizontal entablatures to true planar plumb.",
        "structures": [
          {
            "name": "Primary Facade",
            "storeys": 2,
            "height_m": 7.5,
            "roof_geometry": "pitched / parapet",
            "facade_material": "authentic regional masonry",
            "planar_rectification": "ENFORCED"
          }
        ]
      }
    },
    {
      "type": "Feature",
      "id": "stratum_6_dynamic_elements",
      "geometry": {
        "type": "Point",
        "coordinates": [
          -3.209751244696227,
          55.9524164186605
        ]
      },
      "properties": {
        "stratum": "dynamic_elements",
        "transient_decluttering": "ENFORCED",
        "vehicles": "NONE",
        "pedestrians": "NONE",
        "transient_clutter": "STRIPPED",
        "permanent_civil_fabric": "PRESERVED"
      }
    },
    {
      "type": "Feature",
      "id": "stratum_7_atmospheric_state",
      "geometry": null,
      "properties": {
        "stratum": "atmospheric_state",
        "lighting_rig": "SOLAR_EPHEMERIS",
        "timestamp_utc": "2026-08-27T19:42:50.340299+00:00",
        "weather_state": "SUNNY",
        "temperature_c": 15.0,
        "solar_azimuth_deg": 246.04,
        "solar_elevation_deg": -3.41,
        "shadow_azimuth_deg": null,
        "color_temperature_k": 2200,
        "ambient_illuminance_lux": 800
      }
    }
  ]
}