{
  "type": "FeatureCollection",
  "properties": {
    "address": "10 Eton Terrace, Edinburgh EH4 1QD, UK",
    "spatial_mode": "3D_TILES",
    "schema_version": "7-Strata-v2.0"
  },
  "features": [
    {
      "type": "Feature",
      "id": "stratum_1_observer_frame",
      "geometry": {
        "type": "Point",
        "coordinates": [
          -3.21129321357239,
          55.95562973580179
        ]
      },
      "properties": {
        "stratum": "observer_frame",
        "spatial_mode": "3D_TILES",
        "camera": {
          "altitude_m_agl": 3.8,
          "pitch_deg": 0.3,
          "heading_deg": 203.4,
          "fov_deg": 60.0
        }
      }
    },
    {
      "type": "Feature",
      "id": "stratum_2_subterranean_geology",
      "geometry": {
        "type": "Point",
        "coordinates": [
          -3.21129321357239,
          55.95562973580179
        ]
      },
      "properties": {
        "stratum": "subterranean_geology",
        "foundation_analysis": "Lower Carboniferous sedimentary strata of the Lothian Basin, featuring interbedded Calciferous Sandstone Series, siltstones, and doleritic intrusion outcrops along the incised Water of Leith gorge. Architectural and civil lithics comprise pale buff-to-grey Craigleith and Hailes sandstone in fine-grained quartzose ashlar, accompanied by igneous whinstone (dolerite) rubble underpinning retaining embankments. Mortar consists of traditional slaked non-hydraulic to hydraulic lime with coarse river sand aggregate, exhibiting deep carbonate leaching and minor lime stalactite efflorescence in damp retaining wall weep holes."
      }
    },
    {
      "type": "Feature",
      "id": "stratum_3_ground_surface",
      "geometry": {
        "type": "Point",
        "coordinates": [
          -3.21129321357239,
          55.95562973580179
        ]
      },
      "properties": {
        "stratum": "ground_surface",
        "primary_surfacing": "Engineered roadway and paved pedestrian curbs",
        "wear_characteristics": "Authentic environmental patina and drainage grading"
      }
    },
    {
      "type": "Feature",
      "id": "stratum_4_landscape_ecology",
      "geometry": {
        "type": "Point",
        "coordinates": [
          -3.21129321357239,
          55.95562973580179
        ]
      },
      "properties": {
        "stratum": "landscape_ecology",
        "botanical_analysis": "Riparian deciduous gorge woodland. Dominated by mature specimens of *Acer pseudoplatanus* (Sycamore), *Ulmus glabra* (Wych Elm), *Fraxinus excelsior* (Ash), and *Alnus glutinosa* (Alder). December winter phenology: fully defoliated canopies with bare, intricate branch architecture, dark damp bark colonized by epiphytic lichens, and a dormant ground layer of leaf litter, ivy (*Hedera helix*), and winter mosses.",
        "foliage_rectification": "Disambiguated from masonry mesh"
      }
    },
    {
      "type": "Feature",
      "id": "stratum_5_built_environment",
      "geometry": {
        "type": "Point",
        "coordinates": [
          -3.21129321357239,
          55.95562973580179
        ]
      },
      "properties": {
        "stratum": "built_environment",
        "architectural_summary": "Incised river gorge civil infrastructure and elevated residential terrace boundary fabric. River valley walkway bounded by coursed squared-rubble retaining revetments, dressed sandstone terminal piers, and coped parapets. Upper slopes reveal rear elevations of 19th-century Georgian and early Victorian terraced townhouses constructed in regular ashlar courses with timber sash-and-case fenestration patterns (4-over-4 and 6-over-6 profiles). Pitched timber roofs clad in dark grey Scottish and Westmorland slate with lead-rolled valleys and dressed stone chimney stacks with ceramic pots. All vertical wall planes plumbed to true gravity vertical.",
        "structures": [
          {
            "name": "Primary Facade",
            "storeys": 2,
            "height_m": 7.5,
            "roof_geometry": "pitched / parapet",
            "facade_material": "authentic regional masonry",
            "planar_rectification": "ENFORCED"
          }
        ]
      }
    },
    {
      "type": "Feature",
      "id": "stratum_6_dynamic_elements",
      "geometry": {
        "type": "Point",
        "coordinates": [
          -3.21129321357239,
          55.95562973580179
        ]
      },
      "properties": {
        "stratum": "dynamic_elements",
        "transient_decluttering": "ENFORCED",
        "vehicles": "NONE",
        "pedestrians": "NONE",
        "transient_clutter": "STRIPPED",
        "permanent_civil_fabric": "PRESERVED"
      }
    },
    {
      "type": "Feature",
      "id": "stratum_7_atmospheric_state",
      "geometry": null,
      "properties": {
        "stratum": "atmospheric_state",
        "lighting_rig": "SOLAR_EPHEMERIS",
        "timestamp_utc": "2026-12-25T10:24:00+00:00",
        "weather_state": "SNOW",
        "solar_azimuth_deg": 155.04,
        "solar_elevation_deg": 7.37,
        "shadow_azimuth_deg": null,
        "color_temperature_k": 3000,
        "ambient_illuminance_lux": 12000
      }
    }
  ]
}