{
  "type": "FeatureCollection",
  "properties": {
    "address": "14 Atholl Cres, Edinburgh EH3 8HA, UK",
    "spatial_mode": "3D_TILES",
    "schema_version": "7-Strata-v2.0"
  },
  "features": [
    {
      "type": "Feature",
      "id": "stratum_1_observer_frame",
      "geometry": {
        "type": "Point",
        "coordinates": [
          -3.2123554517181803,
          55.94800515647073
        ]
      },
      "properties": {
        "stratum": "observer_frame",
        "spatial_mode": "3D_TILES",
        "camera": {
          "altitude_m_agl": 154.0,
          "pitch_deg": -5.0,
          "heading_deg": 41.2,
          "fov_deg": 60.0
        }
      }
    },
    {
      "type": "Feature",
      "id": "stratum_2_subterranean_geology",
      "geometry": {
        "type": "Point",
        "coordinates": [
          -3.2123554517181803,
          55.94800515647073
        ]
      },
      "properties": {
        "stratum": "subterranean_geology",
        "foundation_analysis": "The subterranean foundation consists of Lower Carboniferous sedimentary bedrock belonging to the Strathclyde and Inverclyde groups, characterized by interbedded sandstones, siltstones, and mudstones with nearby igneous intrusions associated with the volcanic origins of the Edinburgh basin. The predominant structural lithics are pale grey to buff-tinted Carboniferous sandstones quarried from the historical Craigleith, Hailes, and Binny beds. These quartz-rich, silica-cemented sandstones provide high structural durability and resistance to deep granular disaggregation. Masonry courses are bedded in traditional Scottish hot-mixed lime mortars utilizing locally sourced hydraulic and non-hydraulic limes with sharp fluvial aggregate. Subterranean drainage follows the natural northwestern gravitational gradient discharging toward the Water of Leith basin."
      }
    },
    {
      "type": "Feature",
      "id": "stratum_3_ground_surface",
      "geometry": {
        "type": "Point",
        "coordinates": [
          -3.2123554517181803,
          55.94800515647073
        ]
      },
      "properties": {
        "stratum": "ground_surface",
        "primary_surfacing": "Engineered roadway and paved pedestrian curbs",
        "wear_characteristics": "Authentic environmental patina and drainage grading"
      }
    },
    {
      "type": "Feature",
      "id": "stratum_4_landscape_ecology",
      "geometry": {
        "type": "Point",
        "coordinates": [
          -3.2123554517181803,
          55.94800515647073
        ]
      },
      "properties": {
        "stratum": "landscape_ecology",
        "botanical_analysis": "Mature broadleaf deciduous parkland trees occupy the enclosed garden enclosures of Atholl Crescent and Coates Crescent. Discernible species include:\n- *Ulmus glabra* (Wych Elm) and *Acer pseudoplatanus* (Sycamore) exhibiting mature branching frameworks with full, irregular crown silhouettes and dense green foliage.\n- *Tilia cordata* (Small-leaved Lime) planted along perimeter curbs, displaying rounded, leafy crowns.\n- Understory consisting of manicured turf, clipped privet hedging (*Ligustrum ovalifolium*), and perimeter shrub beds. All botanical elements are resolved as organic, branching, leafy canopies, distinct from surrounding stonework.",
        "foliage_rectification": "Disambiguated from masonry mesh"
      }
    },
    {
      "type": "Feature",
      "id": "stratum_5_built_environment",
      "geometry": {
        "type": "Point",
        "coordinates": [
          -3.2123554517181803,
          55.94800515647073
        ]
      },
      "properties": {
        "stratum": "built_environment",
        "architectural_summary": "- **Focal Tower & Ecclesiastical Massing (Center):** The campanile of St George's West Church (Charlotte Chapel) on Shandwick Place rises 56 metres, designed by Sir Robert Rowand Anderson (1879\u20131881) in the Venetian Romanesque style after San Giorgio Maggiore, surmounting the earlier 1866\u20131869 nave designed by David Bryce. The tower exhibits a massive rusticated ashlar base, planar shaft with vertical pilaster strips, clock chamber with circular dials, an open columnar belfry loggia with rounded Romanesque arches, and a pyramidal/conical lantern cap.\n- **Crescent Terraces (Left and Right Fore-to-Midground):** Atholl Crescent (left) and Coates Crescent (right), designed by Thomas Bonnar (c. 1825). These Georgian/Regency residential blocks feature 3 storeys plus continuous basement lightwells and slate-clad mansard attic levels with timber-framed sash dormer windows. Facades exhibit strict horizontal rustication at the ground level, smooth dressed ashlar upper storeys, continuous string courses, moulded architraves, terminal pavilions with shallow Ionic pilasters, and uniform parapet copings. \n- **Street Axis & Planar Geometry:** Shandwick Place extends diagonally along heading 41.2\u00b0, anchored by embedded steel twin tram tracks flush with the tarmac. All structural vertical lines are plumbed perpendicular to the horizon; roof pitches, parapets, floor plates, and window mullions are rectified into planar alignment without photogrammetric deformation.\n- **Distant Background:** Dense low-rise Georgian New Town tenement grid, punctuated to the northeast by the neoclassical green copper dome of West Register House (formerly St George's Church, Charlotte Square), receding toward the distant Firth of Forth coastline.",
        "structures": [
          {
            "name": "Primary Facade",
            "storeys": 2,
            "height_m": 7.5,
            "roof_geometry": "pitched / parapet",
            "facade_material": "authentic regional masonry",
            "planar_rectification": "ENFORCED"
          }
        ]
      }
    },
    {
      "type": "Feature",
      "id": "stratum_6_dynamic_elements",
      "geometry": {
        "type": "Point",
        "coordinates": [
          -3.2123554517181803,
          55.94800515647073
        ]
      },
      "properties": {
        "stratum": "dynamic_elements",
        "transient_decluttering": "ENFORCED",
        "vehicles": "NONE",
        "pedestrians": "NONE",
        "transient_clutter": "STRIPPED",
        "permanent_civil_fabric": "PRESERVED"
      }
    },
    {
      "type": "Feature",
      "id": "stratum_7_atmospheric_state",
      "geometry": null,
      "properties": {
        "stratum": "atmospheric_state",
        "lighting_rig": "SOLAR_EPHEMERIS",
        "timestamp_utc": "2026-08-27T18:45:50.965308+00:00",
        "weather_state": "SUNNY",
        "temperature_c": 15.0,
        "solar_azimuth_deg": 257.84,
        "solar_elevation_deg": 4.17,
        "shadow_azimuth_deg": 77.8,
        "color_temperature_k": 3000,
        "ambient_illuminance_lux": 12000
      }
    }
  ]
}