{
  "type": "FeatureCollection",
  "properties": {
    "address": "9 Belgrave Cres, Edinburgh EH4 3AH, UK",
    "spatial_mode": "3D_TILES",
    "schema_version": "7-Strata-v2.0"
  },
  "features": [
    {
      "type": "Feature",
      "id": "stratum_1_observer_frame",
      "geometry": {
        "type": "Point",
        "coordinates": [
          -3.216766472155142,
          55.953682622313394
        ]
      },
      "properties": {
        "stratum": "observer_frame",
        "spatial_mode": "3D_TILES",
        "camera": {
          "altitude_m_agl": 1.4,
          "pitch_deg": 4.5,
          "heading_deg": 95.8,
          "fov_deg": 60.0
        }
      }
    },
    {
      "type": "Feature",
      "id": "stratum_2_subterranean_geology",
      "geometry": {
        "type": "Point",
        "coordinates": [
          -3.216766472155142,
          55.953682622313394
        ]
      },
      "properties": {
        "stratum": "subterranean_geology",
        "foundation_analysis": "Subterranean Carboniferous sedimentary strata of the Edinburgh Midland Valley. Superstructure built from regional calciferous sandstone (primarily Craigleith and Hailes quarry beds). Slaked hot-lime mortar joints. Free-draining sloping ground toward the Water of Leith gorge."
      }
    },
    {
      "type": "Feature",
      "id": "stratum_3_ground_surface",
      "geometry": {
        "type": "Point",
        "coordinates": [
          -3.216766472155142,
          55.953682622313394
        ]
      },
      "properties": {
        "stratum": "ground_surface",
        "primary_surfacing": "Engineered roadway and paved pedestrian curbs",
        "wear_characteristics": "Authentic environmental patina and drainage grading"
      }
    },
    {
      "type": "Feature",
      "id": "stratum_4_landscape_ecology",
      "geometry": {
        "type": "Point",
        "coordinates": [
          -3.216766472155142,
          55.953682622313394
        ]
      },
      "properties": {
        "stratum": "landscape_ecology",
        "botanical_analysis": "Bordering mature urban woodland strip comprising *Acer pseudoplatanus* (sycamore) and *Tilia x europaea* (common lime). Dense branching habit with full crown volume, deep green broadleaf foliage, and organic understorey shrub layer anchoring the soil bank.",
        "foliage_rectification": "Disambiguated from masonry mesh"
      }
    },
    {
      "type": "Feature",
      "id": "stratum_5_built_environment",
      "geometry": {
        "type": "Point",
        "coordinates": [
          -3.216766472155142,
          55.953682622313394
        ]
      },
      "properties": {
        "stratum": "built_environment",
        "architectural_summary": "Left: Multi-storey late-Victorian residential terrace (c. 1870s) featuring canted bay projections, dressed ashlar margins, moulded stringcourses, and timber sash-and-case fenestration. Straight vertical load-bearing lines with planar facades. Center distance: Neo-Gothic ecclesiastical structure featuring a rectilinear masonry tower, crocketed corner pinnacles, belfry louvres, and pointed-arch lancet windows. Boundary: Low-profile coursed-rubble retaining wall with weathered coping stones.",
        "structures": [
          {
            "name": "Primary Facade",
            "storeys": 2,
            "height_m": 7.5,
            "roof_geometry": "pitched / parapet",
            "facade_material": "authentic regional masonry",
            "planar_rectification": "ENFORCED"
          }
        ]
      }
    },
    {
      "type": "Feature",
      "id": "stratum_6_dynamic_elements",
      "geometry": {
        "type": "Point",
        "coordinates": [
          -3.216766472155142,
          55.953682622313394
        ]
      },
      "properties": {
        "stratum": "dynamic_elements",
        "transient_decluttering": "ENFORCED",
        "vehicles": "NONE",
        "pedestrians": "NONE",
        "transient_clutter": "STRIPPED",
        "permanent_civil_fabric": "PRESERVED"
      }
    },
    {
      "type": "Feature",
      "id": "stratum_7_atmospheric_state",
      "geometry": null,
      "properties": {
        "stratum": "atmospheric_state",
        "lighting_rig": "SOLAR_EPHEMERIS",
        "timestamp_utc": "2026-09-24T19:09:41.308000+00:00",
        "weather_state": "SUNNY",
        "solar_azimuth_deg": 283.42,
        "solar_elevation_deg": -9.22,
        "shadow_azimuth_deg": null,
        "color_temperature_k": 2000,
        "ambient_illuminance_lux": 5
      }
    }
  ]
}