{
  "type": "FeatureCollection",
  "properties": {
    "address": "12 Charlotte Square, Edinburgh EH2 4ET, UK",
    "spatial_mode": "3D_TILES",
    "schema_version": "7-Strata-v2.0"
  },
  "features": [
    {
      "type": "Feature",
      "id": "stratum_1_observer_frame",
      "geometry": {
        "type": "Point",
        "coordinates": [
          -3.2071626013510146,
          55.95193940179104
        ]
      },
      "properties": {
        "stratum": "observer_frame",
        "spatial_mode": "3D_TILES",
        "camera": {
          "altitude_m_agl": 1.4,
          "pitch_deg": 4.8,
          "heading_deg": 245.5,
          "fov_deg": 60.0
        }
      }
    },
    {
      "type": "Feature",
      "id": "stratum_2_subterranean_geology",
      "geometry": {
        "type": "Point",
        "coordinates": [
          -3.2071626013510146,
          55.95193940179104
        ]
      },
      "properties": {
        "stratum": "subterranean_geology",
        "foundation_analysis": "The subterranean stratigraphy consists of Carboniferous sedimentary bedrock of the Strathclyde Group (Gullane Formation sandstone and siltstone) mantled by stiff lodgement till. Structural lithics are dominated by pale cream-to-buff Craigleith sandstone\u2014a dense, highly siliceous Carboniferous quartz-arenite\u2014interspersed with Hailes and Cullalo sandstone for rear courses and basements. Structural joints are pointed with traditional natural hydraulic lime (NHL 2/3.5) and sharp quartz sand. The Prince Albert Memorial sits on a monumental tiered plinth of igneous Peterhead pink granite. The undulating topography slopes gently north-northwest toward the Water of Leith, facilitating natural subsurface gravity drainage across glacial drift."
      }
    },
    {
      "type": "Feature",
      "id": "stratum_3_ground_surface",
      "geometry": {
        "type": "Point",
        "coordinates": [
          -3.2071626013510146,
          55.95193940179104
        ]
      },
      "properties": {
        "stratum": "ground_surface",
        "primary_surfacing": "Engineered roadway and paved pedestrian curbs",
        "wear_characteristics": "Authentic environmental patina and drainage grading"
      }
    },
    {
      "type": "Feature",
      "id": "stratum_4_landscape_ecology",
      "geometry": {
        "type": "Point",
        "coordinates": [
          -3.2071626013510146,
          55.95193940179104
        ]
      },
      "properties": {
        "stratum": "landscape_ecology",
        "botanical_analysis": "Parkland garden trees inside the square comprise mature deciduous specimens of *Acer pseudoplatanus* (Sycamore), *Ulmus glabra* (Wych Elm), and *Tilia \u00d7 europaea* (Common Lime). Grounded in late-December winter phenology, all canopies exhibit complete defoliation, revealing intricate bare branch networks, dark wet bark, dormant terminal buds, and exposed skeletal silhouettes.",
        "foliage_rectification": "Disambiguated from masonry mesh"
      }
    },
    {
      "type": "Feature",
      "id": "stratum_5_built_environment",
      "geometry": {
        "type": "Point",
        "coordinates": [
          -3.2071626013510146,
          55.95193940179104
        ]
      },
      "properties": {
        "stratum": "built_environment",
        "architectural_summary": "A formal Georgian urban composition terminating the western vista of George Street. In the immediate center stands the Prince Albert Memorial (1876, Sir John Steell), featuring a monumental bronze equestrian figure atop a multi-tiered polished granite plinth with projecting stepped pedestals bearing subsidiary bronze figure groups. The architectural backdrop is dominated by West Register House (formerly St George's Church, 1811\u20131814, Robert Adam / Robert Reid), defined by a monumental Neoclassical front with a colossal Greek-order portico, projecting entablature, and an elevated circular colonnaded peristyle drum supporting a ribbed hemispherical copper cupola crowned by a stone lantern and finial. Flanking the central civic core are symmetrical Georgian terraced wings (Charlotte Square west facade), unified as palatial pavilions: three principal storeys over a rusticated basement and attic with pitched dormered roofs, rigorous 6-over-6 timber sash-and-case fenestration grids, modillioned cornices, and planar ashlar frontages.",
        "structures": [
          {
            "name": "Primary Facade",
            "storeys": 2,
            "height_m": 7.5,
            "roof_geometry": "pitched / parapet",
            "facade_material": "authentic regional masonry",
            "planar_rectification": "ENFORCED"
          }
        ]
      }
    },
    {
      "type": "Feature",
      "id": "stratum_6_dynamic_elements",
      "geometry": {
        "type": "Point",
        "coordinates": [
          -3.2071626013510146,
          55.95193940179104
        ]
      },
      "properties": {
        "stratum": "dynamic_elements",
        "transient_decluttering": "ENFORCED",
        "vehicles": "NONE",
        "pedestrians": "NONE",
        "transient_clutter": "STRIPPED",
        "permanent_civil_fabric": "PRESERVED"
      }
    },
    {
      "type": "Feature",
      "id": "stratum_7_atmospheric_state",
      "geometry": null,
      "properties": {
        "stratum": "atmospheric_state",
        "lighting_rig": "SOLAR_EPHEMERIS",
        "timestamp_utc": "2026-12-22T15:21:00+00:00",
        "weather_state": "RAIN",
        "solar_azimuth_deg": 222.54,
        "solar_elevation_deg": 1.03,
        "shadow_azimuth_deg": null,
        "color_temperature_k": 3000,
        "ambient_illuminance_lux": 12000
      }
    }
  ]
}