{
  "type": "FeatureCollection",
  "properties": {
    "address": "8 Ainslie Pl, Edinburgh EH3 6AS, UK",
    "spatial_mode": "3D_TILES",
    "schema_version": "7-Strata-v2.0"
  },
  "features": [
    {
      "type": "Feature",
      "id": "stratum_1_observer_frame",
      "geometry": {
        "type": "Point",
        "coordinates": [
          -3.2101492786067856,
          55.953365569624125
        ]
      },
      "properties": {
        "stratum": "observer_frame",
        "spatial_mode": "3D_TILES",
        "camera": {
          "altitude_m_agl": 2.1,
          "pitch_deg": 5.5,
          "heading_deg": 290.5,
          "fov_deg": 60.0
        }
      }
    },
    {
      "type": "Feature",
      "id": "stratum_2_subterranean_geology",
      "geometry": {
        "type": "Point",
        "coordinates": [
          -3.2101492786067856,
          55.953365569624125
        ]
      },
      "properties": {
        "stratum": "subterranean_geology",
        "foundation_analysis": "Subterranean foundation: Carboniferous sedimentary bedrock sequence of the Calciferous Sandstone Measure, overlain by dense Devensian glacial lodgement till. \nStructural lithics: Fine-grained, silica-cemented pale buff and grey Craigleith quartz-arenite sandstone and Hailes micaceous sandstone, quarried locally for high compressive strength and low porosity.\nPaving and kerbing: Basalt and quartz-dolerite (Scottish whinstone) street kerbstones with fissile Caithness flagstone pedestrian footways.\nMortar chemistry: Traditional hot-mixed feebly hydraulic slaked high-calcium lime binder with sharp, graded quartz river aggregate and crushed sandstone fines."
      }
    },
    {
      "type": "Feature",
      "id": "stratum_3_ground_surface",
      "geometry": {
        "type": "Point",
        "coordinates": [
          -3.2101492786067856,
          55.953365569624125
        ]
      },
      "properties": {
        "stratum": "ground_surface",
        "primary_surfacing": "Engineered roadway and paved pedestrian curbs",
        "wear_characteristics": "Authentic environmental patina and drainage grading"
      }
    },
    {
      "type": "Feature",
      "id": "stratum_4_landscape_ecology",
      "geometry": {
        "type": "Point",
        "coordinates": [
          -3.2101492786067856,
          55.953365569624125
        ]
      },
      "properties": {
        "stratum": "landscape_ecology",
        "botanical_analysis": "Central garden parkland: Mature specimen trees within Ainslie Place Gardens.\nDominant species: *Ulmus glabra* (Wych elm) exhibiting high-domed open crowns with robust, twisting primary boughs and deeply furrowed bark; *Acer pseudoplatanus* (Sycamore) displaying massive single trunks, wide-spreading horizontal branch structure, and dense rounded crown architecture; *Tilia \u00d7 europaea* (Common lime) with vertical branching, heavy trunk burrs, and high-volume ascending canopies.\nSub-canopy: *Taxus baccata* (European yew) and *Prunus laurocerasus* dense branching framework forming clipped boundary hedgerows inside the perimeter enclosure.",
        "foliage_rectification": "Disambiguated from masonry mesh"
      }
    },
    {
      "type": "Feature",
      "id": "stratum_5_built_environment",
      "geometry": {
        "type": "Point",
        "coordinates": [
          -3.2101492786067856,
          55.953365569624125
        ]
      },
      "properties": {
        "stratum": "built_environment",
        "architectural_summary": "Typology: Late Georgian / Regency Neoclassical residential circus crescent designed by James Gillespie Graham (Moray Estate, c. 1822\u20131824).\nPlanar massing: Multi-bay curving ashlar facade arranged across 3 primary storeys, plus a continuous sunk basement lightwell and continuous attic floor behind an ashlar blocking course. Vertical planes rectified to gravity plumb.\nGround floor: Channelled V-jointed ashlar rustication, segmental and round-arched entryways with fanlights, radiated voussoirs, and droved stone platts crossing the lightwells.\nPiano nobile (First floor): Tall rectilinear window openings framed by architraved surrounds, supported by a continuous projecting cantilevered stone band course; central bays flanked by engaged fluted Ionic/Doric pilasters.\nSecond floor and Attic: Diminished-height rectilinear fenestration, crowned by a continuous entablature with moulded architrave, plain frieze, projecting modillion cornice, and stone parapet.\nRoof & Chimneys: Double-pitched timber roof structures clad in dark Scottish and Westmorland slates; uniform transverse ashlar masonry party-wall chimney stacks fitted with cylindrical ceramic chimneypots.\nBasement lightwell: Continuous dry area retaining wall lined with droved sandstone ashlar, enclosed by cast-iron spear-headed railings with urn-capped standards.",
        "structures": [
          {
            "name": "Primary Facade",
            "storeys": 2,
            "height_m": 7.5,
            "roof_geometry": "pitched / parapet",
            "facade_material": "authentic regional masonry",
            "planar_rectification": "ENFORCED"
          }
        ]
      }
    },
    {
      "type": "Feature",
      "id": "stratum_6_dynamic_elements",
      "geometry": {
        "type": "Point",
        "coordinates": [
          -3.2101492786067856,
          55.953365569624125
        ]
      },
      "properties": {
        "stratum": "dynamic_elements",
        "transient_decluttering": "ENFORCED",
        "vehicles": "NONE",
        "pedestrians": "NONE",
        "transient_clutter": "STRIPPED",
        "permanent_civil_fabric": "PRESERVED"
      }
    },
    {
      "type": "Feature",
      "id": "stratum_7_atmospheric_state",
      "geometry": null,
      "properties": {
        "stratum": "atmospheric_state",
        "lighting_rig": "SOLAR_EPHEMERIS",
        "timestamp_utc": "2026-12-25T14:45:00+00:00",
        "weather_state": "PARTLY",
        "solar_azimuth_deg": 214.61,
        "solar_elevation_deg": 4.32,
        "shadow_azimuth_deg": 34.6,
        "color_temperature_k": 3000,
        "ambient_illuminance_lux": 12000
      }
    }
  ]
}