{
  "type": "FeatureCollection",
  "properties": {
    "address": "15 Queen St, Edinburgh EH2 1JE, UK",
    "spatial_mode": "3D_TILES",
    "schema_version": "7-Strata-v2.0"
  },
  "features": [
    {
      "type": "Feature",
      "id": "stratum_1_observer_frame",
      "geometry": {
        "type": "Point",
        "coordinates": [
          -3.197555419885586,
          55.955218689217205
        ]
      },
      "properties": {
        "stratum": "observer_frame",
        "spatial_mode": "3D_TILES",
        "camera": {
          "altitude_m_agl": 22.8,
          "pitch_deg": -10.1,
          "heading_deg": 227.4,
          "fov_deg": 60.0
        }
      }
    },
    {
      "type": "Feature",
      "id": "stratum_2_subterranean_geology",
      "geometry": {
        "type": "Point",
        "coordinates": [
          -3.197555419885586,
          55.955218689217205
        ]
      },
      "properties": {
        "stratum": "subterranean_geology",
        "foundation_analysis": "- **Bedrock**: Carboniferous sedimentary sequence (Gullane Formation, Strathclyde Group) over volcanic basalt sill base.\n- **Lithics**: Tooled Craigleith and Hailes quartzose sandstone (buff to pale grey).\n- **Mortar & Foundation**: Traditional non-hydraulic lime-sand mortar; glacial till substrate with natural gravity drainage."
      }
    },
    {
      "type": "Feature",
      "id": "stratum_3_ground_surface",
      "geometry": {
        "type": "Point",
        "coordinates": [
          -3.197555419885586,
          55.955218689217205
        ]
      },
      "properties": {
        "stratum": "ground_surface",
        "primary_surfacing": "Engineered roadway and paved pedestrian curbs",
        "wear_characteristics": "Authentic environmental patina and drainage grading"
      }
    },
    {
      "type": "Feature",
      "id": "stratum_4_landscape_ecology",
      "geometry": {
        "type": "Point",
        "coordinates": [
          -3.197555419885586,
          55.955218689217205
        ]
      },
      "properties": {
        "stratum": "landscape_ecology",
        "botanical_analysis": "- **Canopy Species**: *Acer pseudoplatanus* (Sycamore), *Tilia \u00d7 europaea* (Common Lime), and *Ulmus glabra* (Wych Elm).\n- **Phenology (Late September)**: Mature canopies showing early autumn chlorosis, mixed muted green, ochre, and gold foliage, minimal branch bareness.",
        "foliage_rectification": "Disambiguated from masonry mesh"
      }
    },
    {
      "type": "Feature",
      "id": "stratum_5_built_environment",
      "geometry": {
        "type": "Point",
        "coordinates": [
          -3.197555419885586,
          55.955218689217205
        ]
      },
      "properties": {
        "stratum": "built_environment",
        "architectural_summary": "- **Typology**: Classical Georgian New Town continuous terraced townhouses (c. 1780\u20131820).\n- **Massing & Height**: 3 storeys plus rusticated basements with sunken lightwells and dormered attic floors.\n- **Planar Rectification**: Facades plumbed to vertical planes; continuous horizontal stringcourses, eaves, and stone band courses.\n- **Fenestration**: Regular rhythmic grid of 6-over-6 and 12-pane timber sash-and-case windows.\n- **Roofs**: Pitched roofs clad in Scottish slate, stone-built chimney stacks with cylindrical terracotta pots, lead-dressed dormers.\n- **Skyline Context**: Distant Old Town volcanic ridge skyline featuring masonry tenements and spires.",
        "structures": [
          {
            "name": "Primary Facade",
            "storeys": 2,
            "height_m": 7.5,
            "roof_geometry": "pitched / parapet",
            "facade_material": "authentic regional masonry",
            "planar_rectification": "ENFORCED"
          }
        ]
      }
    },
    {
      "type": "Feature",
      "id": "stratum_6_dynamic_elements",
      "geometry": {
        "type": "Point",
        "coordinates": [
          -3.197555419885586,
          55.955218689217205
        ]
      },
      "properties": {
        "stratum": "dynamic_elements",
        "transient_decluttering": "ENFORCED",
        "vehicles": "NONE",
        "pedestrians": "NONE",
        "transient_clutter": "STRIPPED",
        "permanent_civil_fabric": "PRESERVED"
      }
    },
    {
      "type": "Feature",
      "id": "stratum_7_atmospheric_state",
      "geometry": null,
      "properties": {
        "stratum": "atmospheric_state",
        "lighting_rig": "SOLAR_EPHEMERIS",
        "timestamp_utc": "2026-09-22T06:12:00+00:00",
        "weather_state": "SUNNY",
        "solar_azimuth_deg": 90.91,
        "solar_elevation_deg": 1.5,
        "shadow_azimuth_deg": 270.9,
        "color_temperature_k": 3000,
        "ambient_illuminance_lux": 12000
      }
    }
  ]
}