{
  "type": "FeatureCollection",
  "properties": {
    "address": "1 W Register St, Edinburgh EH2 2AA, UK",
    "spatial_mode": "3D_TILES",
    "schema_version": "7-Strata-v2.0"
  },
  "features": [
    {
      "type": "Feature",
      "id": "stratum_1_observer_frame",
      "geometry": {
        "type": "Point",
        "coordinates": [
          -3.1897379527696796,
          55.95413308385509
        ]
      },
      "properties": {
        "stratum": "observer_frame",
        "spatial_mode": "3D_TILES",
        "camera": {
          "altitude_m_agl": 71.2,
          "pitch_deg": -17.2,
          "heading_deg": 274.1,
          "fov_deg": 60.0
        }
      }
    },
    {
      "type": "Feature",
      "id": "stratum_2_subterranean_geology",
      "geometry": {
        "type": "Point",
        "coordinates": [
          -3.1897379527696796,
          55.95413308385509
        ]
      },
      "properties": {
        "stratum": "subterranean_geology",
        "foundation_analysis": "- Bedrock: Carboniferous sedimentary sequences (calciferous sandstone series) overlain by volcanic basalt intrusions.\n- Lithic Provenance: Craigleith and Hailes pale blonde-to-buff Carboniferous sandstones, polished Peterhead red granite accents, slate roofing from Ballachulish.\n- Mortar & Subterranean Dynamics: Non-hydraulic to feebly hydraulic hot-mixed lime mortars with crushed river quartz aggregate; glacial till drainage beneath urban garden subsoils."
      }
    },
    {
      "type": "Feature",
      "id": "stratum_3_ground_surface",
      "geometry": {
        "type": "Point",
        "coordinates": [
          -3.1897379527696796,
          55.95413308385509
        ]
      },
      "properties": {
        "stratum": "ground_surface",
        "primary_surfacing": "Engineered roadway and paved pedestrian curbs",
        "wear_characteristics": "Authentic environmental patina and drainage grading"
      }
    },
    {
      "type": "Feature",
      "id": "stratum_4_landscape_ecology",
      "geometry": {
        "type": "Point",
        "coordinates": [
          -3.1897379527696796,
          55.95413308385509
        ]
      },
      "properties": {
        "stratum": "landscape_ecology",
        "botanical_analysis": "- Dominant Taxa: *Acer pseudoplatanus* (Sycamore), *Tilia cordata* (Small-leaved lime), *Ulmus glabra* (Wych elm), *Betula pendula* (Silver birch).\n- Phenology (Late September): Fully expanded, mature summer canopies displaying early senescence with localized chlorosis, edge-browning, and minor leaflet drop; mown perennial rye-grass (*Lolium perenne*) lawn.",
        "foliage_rectification": "Disambiguated from masonry mesh"
      }
    },
    {
      "type": "Feature",
      "id": "stratum_5_built_environment",
      "geometry": {
        "type": "Point",
        "coordinates": [
          -3.1897379527696796,
          55.95413308385509
        ]
      },
      "properties": {
        "stratum": "built_environment",
        "architectural_summary": "- Core Monument: Fluted Roman Doric column (Melville Monument) on a square rusticated pedestal base surmounted by stone heroic statuary.\n- Urban Fabric: Georgian Classical New Town terraces (3-to-4 storeys, rusticated ground tiers, ashlar piano nobiles, continuous horizontal string courses) interspersed with late Victorian/Edwardian commercial blocks and late-20th-century framed infill.\n- Roofscapes: Pitched and mansard slate roofs, straight-edge lead gutters, dormers, and ashlar chimneystacks.\n- Rectification: True-plumb vertical facade lines, rectilinear fenestration grids with 6-over-6 and 2-over-2 timber sash-and-case windows, flat structural floorplates.",
        "structures": [
          {
            "name": "Primary Facade",
            "storeys": 2,
            "height_m": 7.5,
            "roof_geometry": "pitched / parapet",
            "facade_material": "authentic regional masonry",
            "planar_rectification": "ENFORCED"
          }
        ]
      }
    },
    {
      "type": "Feature",
      "id": "stratum_6_dynamic_elements",
      "geometry": {
        "type": "Point",
        "coordinates": [
          -3.1897379527696796,
          55.95413308385509
        ]
      },
      "properties": {
        "stratum": "dynamic_elements",
        "transient_decluttering": "ENFORCED",
        "vehicles": "NONE",
        "pedestrians": "NONE",
        "transient_clutter": "STRIPPED",
        "permanent_civil_fabric": "PRESERVED"
      }
    },
    {
      "type": "Feature",
      "id": "stratum_7_atmospheric_state",
      "geometry": null,
      "properties": {
        "stratum": "atmospheric_state",
        "lighting_rig": "SOLAR_EPHEMERIS",
        "timestamp_utc": "2026-09-22T06:02:59+00:00",
        "weather_state": "SUNNY",
        "solar_azimuth_deg": 89.05,
        "solar_elevation_deg": 0.24,
        "shadow_azimuth_deg": 269.1,
        "color_temperature_k": 2200,
        "ambient_illuminance_lux": 800
      }
    }
  ]
}