{
  "type": "FeatureCollection",
  "properties": {
    "address": "17 Charlotte Square, Edinburgh EH2 4DJ, UK",
    "spatial_mode": "3D_TILES",
    "schema_version": "7-Strata-v2.0"
  },
  "features": [
    {
      "type": "Feature",
      "id": "stratum_1_observer_frame",
      "geometry": {
        "type": "Point",
        "coordinates": [
          -3.206784589026718,
          55.95176812129627
        ]
      },
      "properties": {
        "stratum": "observer_frame",
        "spatial_mode": "3D_TILES",
        "camera": {
          "altitude_m_agl": 1.2,
          "pitch_deg": 6.1,
          "heading_deg": 265.3,
          "fov_deg": 60.0
        }
      }
    },
    {
      "type": "Feature",
      "id": "stratum_2_subterranean_geology",
      "geometry": {
        "type": "Point",
        "coordinates": [
          -3.206784589026718,
          55.95176812129627
        ]
      },
      "properties": {
        "stratum": "subterranean_geology",
        "foundation_analysis": "Subterranean foundation consists of Early Carboniferous sedimentary bedrock interbedded with volcanic basalt and dolerite intrusions of the Midland Valley basin. Superstructure lithics are predominantly local Craigleith and Hailes sandstone, characterized by fine-to-medium grained quartz arenite bound with silica and minor iron oxides, yielding high compressive strength and buff-grey coloration. Historic bedding joints utilize hot-mixed non-hydraulic slaked lime and coarse volcanic sand mortars. Subsurface drainage directs into modified urban culverts overlying glacial till."
      }
    },
    {
      "type": "Feature",
      "id": "stratum_3_ground_surface",
      "geometry": {
        "type": "Point",
        "coordinates": [
          -3.206784589026718,
          55.95176812129627
        ]
      },
      "properties": {
        "stratum": "ground_surface",
        "primary_surfacing": "Engineered roadway and paved pedestrian curbs",
        "wear_characteristics": "Authentic environmental patina and drainage grading"
      }
    },
    {
      "type": "Feature",
      "id": "stratum_4_landscape_ecology",
      "geometry": {
        "type": "Point",
        "coordinates": [
          -3.206784589026718,
          55.95176812129627
        ]
      },
      "properties": {
        "stratum": "landscape_ecology",
        "botanical_analysis": "Mature urban parkland specimens dispersed across the garden perimeter: *Platanus \u00d7 acerifolia* (London plane), *Acer pseudoplatanus* (sycamore), and *Tilia \u00d7 europaea* (common lime). Late September phenology (2026-09-23): Dense canopies showing early autumn senescence, leaf margins exhibiting pale chlorosis, yellow-ochre tipping on lime and sycamore branches, minimal canopy thinning, and sparse early leaf scatter on turf beneath drip lines.",
        "foliage_rectification": "Disambiguated from masonry mesh"
      }
    },
    {
      "type": "Feature",
      "id": "stratum_5_built_environment",
      "geometry": {
        "type": "Point",
        "coordinates": [
          -3.206784589026718,
          55.95176812129627
        ]
      },
      "properties": {
        "stratum": "built_environment",
        "architectural_summary": "Central civic focal point is West Register House (formerly St George's Church, 1811\u20131814, designed by Robert Reid after Robert Adam), featuring a monumental Neoclassical temple front with an Ionic portico, dentiled pediment, elevated cylindrical drum surrounded by paired Corinthian column pairs, and a ribbed hemispherical dome terminating in an octagonal lantern cupola. Flanking wings comprise continuous three-storey plus attic and rusticated basement Georgian palace-front terraced townhouses (Adam New Town scheme) characterized by rigorous vertical bay alignments, 6-over-6 timber sash-and-case fenestration, rusticated ground-floor masonry, projecting continuous stringcourses, and pitched roofs clad in Scottish slate with heavy ashlar chimneystacks. In the garden foreground stands the 1876 Prince Albert Memorial, featuring an equestrian bronze figure atop a multi-tiered polished granite pedestal with secondary sculptural bronze groupings at the corners.",
        "structures": [
          {
            "name": "Primary Facade",
            "storeys": 2,
            "height_m": 7.5,
            "roof_geometry": "pitched / parapet",
            "facade_material": "authentic regional masonry",
            "planar_rectification": "ENFORCED"
          }
        ]
      }
    },
    {
      "type": "Feature",
      "id": "stratum_6_dynamic_elements",
      "geometry": {
        "type": "Point",
        "coordinates": [
          -3.206784589026718,
          55.95176812129627
        ]
      },
      "properties": {
        "stratum": "dynamic_elements",
        "transient_decluttering": "ENFORCED",
        "vehicles": "NONE",
        "pedestrians": "NONE",
        "transient_clutter": "STRIPPED",
        "permanent_civil_fabric": "PRESERVED"
      }
    },
    {
      "type": "Feature",
      "id": "stratum_7_atmospheric_state",
      "geometry": null,
      "properties": {
        "stratum": "atmospheric_state",
        "lighting_rig": "SOLAR_EPHEMERIS",
        "timestamp_utc": "2026-09-23T17:06:00+00:00",
        "weather_state": "RAIN",
        "solar_azimuth_deg": 257.76,
        "solar_elevation_deg": 8.35,
        "shadow_azimuth_deg": null,
        "color_temperature_k": 3000,
        "ambient_illuminance_lux": 12000
      }
    }
  ]
}