{
  "type": "FeatureCollection",
  "properties": {
    "address": "40 Charlotte Square, Edinburgh EH2 4HQ, UK",
    "spatial_mode": "3D_TILES",
    "schema_version": "7-Strata-v2.0"
  },
  "features": [
    {
      "type": "Feature",
      "id": "stratum_1_observer_frame",
      "geometry": {
        "type": "Point",
        "coordinates": [
          -3.206928039539391,
          55.95191750686016
        ]
      },
      "properties": {
        "stratum": "observer_frame",
        "spatial_mode": "3D_TILES",
        "camera": {
          "altitude_m_agl": 6.5,
          "pitch_deg": 0.8,
          "heading_deg": 253.7,
          "fov_deg": 60.0
        }
      }
    },
    {
      "type": "Feature",
      "id": "stratum_2_subterranean_geology",
      "geometry": {
        "type": "Point",
        "coordinates": [
          -3.206928039539391,
          55.95191750686016
        ]
      },
      "properties": {
        "stratum": "subterranean_geology",
        "foundation_analysis": "Subterranean foundation composed of Carboniferous sedimentary sequences (Gullane Formation sandstones and shales) overlying volcanic dolerite sills and basaltic bedrock of the Edinburgh central volcanic complex. Superstructure masonry comprises fine-grained, silica-cemented pale buff-grey Craigleith sandstone ashlar and Hailes/Ravelston sandstone rubble backing, bonded with non-hydraulic lime and sharp sand mortar. The monument plinth incorporates polished grey and pink Peterhead granite blocks."
      }
    },
    {
      "type": "Feature",
      "id": "stratum_3_ground_surface",
      "geometry": {
        "type": "Point",
        "coordinates": [
          -3.206928039539391,
          55.95191750686016
        ]
      },
      "properties": {
        "stratum": "ground_surface",
        "primary_surfacing": "Engineered roadway and paved pedestrian curbs",
        "wear_characteristics": "Authentic environmental patina and drainage grading"
      }
    },
    {
      "type": "Feature",
      "id": "stratum_4_landscape_ecology",
      "geometry": {
        "type": "Point",
        "coordinates": [
          -3.206928039539391,
          55.95191750686016
        ]
      },
      "properties": {
        "stratum": "landscape_ecology",
        "botanical_analysis": "Mature urban parkland specimens within Charlotte Square Gardens: *Acer pseudoplatanus* (Sycamore), *Ulmus glabra* (Wych elm), and *Tilia cordata* (Small-leaved lime). Late September phenology: dense broadleaf canopies exhibiting early autumn chlorosis (mottled yellowing and pale olive-brown margins) with localized crown thinning and early leaf senescence.",
        "foliage_rectification": "Disambiguated from masonry mesh"
      }
    },
    {
      "type": "Feature",
      "id": "stratum_5_built_environment",
      "geometry": {
        "type": "Point",
        "coordinates": [
          -3.206928039539391,
          55.95191750686016
        ]
      },
      "properties": {
        "stratum": "built_environment",
        "architectural_summary": "Neoclassical civic and Georgian residential square ensemble:\n- Central background: West Register House (former St George's Church, Robert Reid, 1811\u20131814) featuring a monumental Greek-cross central block, tetrastyle portico, square clock-tower attic, cylindrical peristyle drum with Corinthian pilasters, and a massive copper-clad ribbed dome terminating in an octagonal stone lantern and gilded cross.\n- Flanking wings: Robert Adam-designed neoclassical terraced townhouses (3 storeys over rusticated basements with attic dormers), channelled rustication to ground floor, polished ashlar upper floors, ionic pilastered end/centre bays, 6-over-6 and 12-pane timber sash-and-case fenestration, and pitched Scottish slate roofs with regular stone ashlar chimney stacks.\n- Foreground: Prince Albert Memorial (Sir John Steell, 1876), stepped stepped granite pedestal surmounted by a bronze equestrian statue flanked by bronze corner sculptural groupings. All facade planes and vertical colonnade lines plumbed to true gravity vertical.",
        "structures": [
          {
            "name": "Primary Facade",
            "storeys": 2,
            "height_m": 7.5,
            "roof_geometry": "pitched / parapet",
            "facade_material": "authentic regional masonry",
            "planar_rectification": "ENFORCED"
          }
        ]
      }
    },
    {
      "type": "Feature",
      "id": "stratum_6_dynamic_elements",
      "geometry": {
        "type": "Point",
        "coordinates": [
          -3.206928039539391,
          55.95191750686016
        ]
      },
      "properties": {
        "stratum": "dynamic_elements",
        "transient_decluttering": "ENFORCED",
        "vehicles": "NONE",
        "pedestrians": "NONE",
        "transient_clutter": "STRIPPED",
        "permanent_civil_fabric": "PRESERVED"
      }
    },
    {
      "type": "Feature",
      "id": "stratum_7_atmospheric_state",
      "geometry": null,
      "properties": {
        "stratum": "atmospheric_state",
        "lighting_rig": "SOLAR_EPHEMERIS",
        "timestamp_utc": "2026-09-22T16:30:00+00:00",
        "weather_state": "SUNNY",
        "solar_azimuth_deg": 250.17,
        "solar_elevation_deg": 13.58,
        "shadow_azimuth_deg": 70.2,
        "color_temperature_k": 4500,
        "ambient_illuminance_lux": 35000
      }
    }
  ]
}