{
  "type": "FeatureCollection",
  "properties": {
    "address": "15B London St, Edinburgh EH3 6LY, UK",
    "spatial_mode": "3D_TILES",
    "schema_version": "7-Strata-v2.0"
  },
  "features": [
    {
      "type": "Feature",
      "id": "stratum_1_observer_frame",
      "geometry": {
        "type": "Point",
        "coordinates": [
          -3.1925331553858087,
          55.95898649745983
        ]
      },
      "properties": {
        "stratum": "observer_frame",
        "spatial_mode": "3D_TILES",
        "camera": {
          "altitude_m_agl": 112.2,
          "pitch_deg": -13.5,
          "heading_deg": 255.2,
          "fov_deg": 60.0
        }
      }
    },
    {
      "type": "Feature",
      "id": "stratum_2_subterranean_geology",
      "geometry": {
        "type": "Point",
        "coordinates": [
          -3.1925331553858087,
          55.95898649745983
        ]
      },
      "properties": {
        "stratum": "subterranean_geology",
        "foundation_analysis": "- Subterranean Bedrock: Carboniferous Lower Oil-Shale formation (sandstone, siltstone, and mudstone sequences) overlain by stiff, overconsolidated Pleistocene glacial till (boulder clay).\n- Dimension Stone Lithics: Fine-to-medium-grained Carboniferous Craigleith quartz arenite sandstone (pale buff to light olive-grey siliceous matrix) utilized for polished ashlar and decorative dressings; Hailes and Ravelston sandstone used in backing rubble and basements.\n- Pavement Lithics: Quartz-dolerite (Midland Valley Whinstone) setts for carriageways; fissile Devonian Caithness flagstone paving slabs and polished granite kerbstones on footways.\n- Mortar Chemistry: Historical hot-mixed slaked non-hydraulic to weakly hydraulic lime mortar ($Ca(OH)_2$) paired with coarse, sharp quartz river sand aggregate.\n- Hydrogeology: Subsurface drainage gradients descending northward toward the Water of Leith basin."
      }
    },
    {
      "type": "Feature",
      "id": "stratum_3_ground_surface",
      "geometry": {
        "type": "Point",
        "coordinates": [
          -3.1925331553858087,
          55.95898649745983
        ]
      },
      "properties": {
        "stratum": "ground_surface",
        "primary_surfacing": "Engineered roadway and paved pedestrian curbs",
        "wear_characteristics": "Authentic environmental patina and drainage grading"
      }
    },
    {
      "type": "Feature",
      "id": "stratum_4_landscape_ecology",
      "geometry": {
        "type": "Point",
        "coordinates": [
          -3.1925331553858087,
          55.95898649745983
        ]
      },
      "properties": {
        "stratum": "landscape_ecology",
        "botanical_analysis": "- Drummond Place Enclosure Canopy: Dense mature urban canopy comprising *Ulmus glabra* (Wych Elm), *Acer pseudoplatanus* (Sycamore), *Fagus sylvatica* (Common and Copper Beech), *Tilia \u00d7 europaea* (Common Lime), and *Aesculus hippocastanum* (Horse Chestnut).\n- Phenology (Late Summer / August): Dense, fully expanded deep-green mature canopies displaying high foliar density, continuous interlocking crowns, and subtle localized leaf chlorosis on lower branch tiers prior to autumnal senescence.",
        "foliage_rectification": "Disambiguated from masonry mesh"
      }
    },
    {
      "type": "Feature",
      "id": "stratum_5_built_environment",
      "geometry": {
        "type": "Point",
        "coordinates": [
          -3.1925331553858087,
          55.95898649745983
        ]
      },
      "properties": {
        "stratum": "built_environment",
        "architectural_summary": "- Typology: Edinburgh New Town (Reid and Sibbald Second New Town Plan, c. 1820s) Category A and B listed classical Georgian residential terraces.\n- Massing & Storeys: Symmetrical 3-storey plus attic and sunken basement terraces flank the axial approach of London Street, curving into the drum-ended perimeter of Drummond Place.\n- Facade Articulation: Channelled/rusticated ground floor ashlar, smooth droved and polished ashlar upper storeys, continuous horizontal platbands/string courses, moulded eaves cornices with blocking courses, and stone chimney stacks crowned with terracotta cylindrical pots.\n- Fenestration: Vertical 6-over-6 and 2-over-2 timber double-hung sash-and-case windows set in clean, dressed stone reveals with stone cills.\n- Roof Geometry: Pitched slate roofs clad in Scottish Ballachulish slate in diminishing courses, broken by lead-cheeked pitched dormer windows and stone skews.\n- Boundaries: Sunken area lightwells enclosed by black painted cast-iron spearhead balustrades with urn-finial newels.",
        "structures": [
          {
            "name": "Primary Facade",
            "storeys": 2,
            "height_m": 7.5,
            "roof_geometry": "pitched / parapet",
            "facade_material": "authentic regional masonry",
            "planar_rectification": "ENFORCED"
          }
        ]
      }
    },
    {
      "type": "Feature",
      "id": "stratum_6_dynamic_elements",
      "geometry": {
        "type": "Point",
        "coordinates": [
          -3.1925331553858087,
          55.95898649745983
        ]
      },
      "properties": {
        "stratum": "dynamic_elements",
        "transient_decluttering": "ENFORCED",
        "vehicles": "NONE",
        "pedestrians": "NONE",
        "transient_clutter": "STRIPPED",
        "permanent_civil_fabric": "PRESERVED"
      }
    },
    {
      "type": "Feature",
      "id": "stratum_7_atmospheric_state",
      "geometry": null,
      "properties": {
        "stratum": "atmospheric_state",
        "lighting_rig": "SOLAR_EPHEMERIS",
        "timestamp_utc": "2026-08-28T16:03:45.207957+00:00",
        "weather_state": "OVERCAST",
        "temperature_c": 19.4,
        "solar_azimuth_deg": 292.52,
        "solar_elevation_deg": 26.13,
        "shadow_azimuth_deg": 112.5,
        "color_temperature_k": 5400,
        "ambient_illuminance_lux": 60000
      }
    }
  ]
}