{
  "type": "FeatureCollection",
  "properties": {
    "address": "45 Independence Ave SW, Washington, DC 20515, USA",
    "spatial_mode": "3D_TILES",
    "schema_version": "7-Strata-v2.0"
  },
  "features": [
    {
      "type": "Feature",
      "id": "stratum_1_observer_frame",
      "geometry": {
        "type": "Point",
        "coordinates": [
          -77.0111260940831,
          38.88716206057707
        ]
      },
      "properties": {
        "stratum": "observer_frame",
        "spatial_mode": "3D_TILES",
        "camera": {
          "altitude_m_agl": 44.8,
          "pitch_deg": -3.0,
          "heading_deg": 34.9,
          "fov_deg": 60.0
        }
      }
    },
    {
      "type": "Feature",
      "id": "stratum_2_subterranean_geology",
      "geometry": {
        "type": "Point",
        "coordinates": [
          -77.0111260940831,
          38.88716206057707
        ]
      },
      "properties": {
        "stratum": "subterranean_geology",
        "foundation_analysis": "The site occupies Jenkins Hill (Capitol Hill), situated immediately along the Atlantic Seaboard Fall Line. Subterranean stratigraphy consists of unconsolidated Cretaceous fluvial-marine deposits of the Potomac Formation (dense clays, gravel lenses, and quartz sands) resting unconformably atop late Precambrian to early Paleozoic crystalline metamorphic Piedmont basement rocks. \n\nThe primary above-ground structural lithics comprise:\n- **Central Core:** Historic Aquia Creek Cretaceous sandstone from Stafford County, Virginia, coated in preservation whitewash/paint coats to mitigate porous freestone spalling.\n- **North & South Senate/House Wings:** Fine-grained crystalline Cockeysville/Texas marble and Lee (Massachusetts) dolomitic marble ashlar blocks with fine-tooled lime-putty mortar joints.\n- **Plinths and Subterranean Retaining Foundations:** Load-bearing Wissahickon schist rubble footings and dense granite sub-plinths.\n- **Superstructure Dome:** Structural cast iron (aggregate ~8.9 million lbs) bolted and riveted to internal load-bearing masonry piers and brick core vaults."
      }
    },
    {
      "type": "Feature",
      "id": "stratum_3_ground_surface",
      "geometry": {
        "type": "Point",
        "coordinates": [
          -77.0111260940831,
          38.88716206057707
        ]
      },
      "properties": {
        "stratum": "ground_surface",
        "primary_surfacing": "Engineered roadway and paved pedestrian curbs",
        "wear_characteristics": "Authentic environmental patina and drainage grading"
      }
    },
    {
      "type": "Feature",
      "id": "stratum_4_landscape_ecology",
      "geometry": {
        "type": "Point",
        "coordinates": [
          -77.0111260940831,
          38.88716206057707
        ]
      },
      "properties": {
        "stratum": "landscape_ecology",
        "botanical_analysis": "The surrounding Capitol Grounds (Olmsted landscape design) feature mature, multi-layered temperate urban arboriculture:\n- **Deciduous Overstory:** Towering *Platanus occidentalis* (American sycamore), *Quercus alba* (White oak), *Quercus phellos* (Willow oak), *Liriodendron tulipifera* (Tulip tree), and *Ginkgo biloba*.\n- **Midstory & Buffers:** Dense broadleaf canopies of *Celtis occidentalis* (Hackberry), *Tilia americana* (American basswood), and pruned *Buxus sempervirens* (English boxwood) parterres bordering the paved plazas.\n- **Ground Cover:** Manicured *Poa pratensis* (Kentucky bluegrass) turf lawns presenting deep emerald saturation, fully disambiguated from solid stonework.",
        "foliage_rectification": "Disambiguated from masonry mesh"
      }
    },
    {
      "type": "Feature",
      "id": "stratum_5_built_environment",
      "geometry": {
        "type": "Point",
        "coordinates": [
          -77.0111260940831,
          38.88716206057707
        ]
      },
      "properties": {
        "stratum": "built_environment",
        "architectural_summary": "- **Typology:** Neoclassical civic monumentalism (Greek Revival and Roman Classicism).\n- **Massing & Structural Hierarchy:** \n  - **Center:** Central rotunda drum flanked by the historic sandstone core, surmounted by Thomas U. Walter\u2019s two-tier cast-iron peristyle dome, ribbed tholos, lantern cupola, and Thomas Crawford's bronze *Statue of Freedom* (apex elevation ~88 m / 288 ft).\n  - **South Flank (Foreground Right):** The House Wing, a rectangular 3-storey plus rusticated English basement block featuring colossal Corinthian order colonnades, pedimented window aedicules, and horizontal entablatures terminating in dentiled modillion cornices.\n  - **North Flank (Distant Left):** Senate Wing, mirroring the symmetrical footprint of the House Wing.\n  - **West Front (Left/Center Facing the Mall):** Stepped Olmsted marble terraces with formal dual-flight balustraded staircases descending to the West Mall lawns.\n- **Planar Rectification & Geometric Truth:** All colonnade shafts plumbed to true gravitational vertical (90.0\u00b0). Elimination of photogrammetry skew across horizontal architraves, balustrade copings, and flat standing-seam copper terrace roofs. Complete unwarping of fenestration grids and rusticated basement arcades.",
        "structures": [
          {
            "name": "Primary Facade",
            "storeys": 2,
            "height_m": 7.5,
            "roof_geometry": "pitched / parapet",
            "facade_material": "authentic regional masonry",
            "planar_rectification": "ENFORCED"
          }
        ]
      }
    },
    {
      "type": "Feature",
      "id": "stratum_6_dynamic_elements",
      "geometry": {
        "type": "Point",
        "coordinates": [
          -77.0111260940831,
          38.88716206057707
        ]
      },
      "properties": {
        "stratum": "dynamic_elements",
        "transient_decluttering": "ENFORCED",
        "vehicles": "NONE",
        "pedestrians": "NONE",
        "transient_clutter": "STRIPPED",
        "permanent_civil_fabric": "PRESERVED"
      }
    },
    {
      "type": "Feature",
      "id": "stratum_7_atmospheric_state",
      "geometry": null,
      "properties": {
        "stratum": "atmospheric_state",
        "lighting_rig": "SOLAR_EPHEMERIS",
        "timestamp_utc": "2026-08-26T18:11:00+00:00",
        "weather_state": "SUNNY",
        "temperature_c": 30.4,
        "solar_azimuth_deg": 330.32,
        "solar_elevation_deg": 58.63,
        "shadow_azimuth_deg": 150.3,
        "color_temperature_k": 5800,
        "ambient_illuminance_lux": 85000
      }
    }
  ]
}