{
  "type": "FeatureCollection",
  "properties": {
    "address": "23 Dublin St Ln N, Edinburgh EH3 6NT, UK",
    "spatial_mode": "3D_TILES",
    "schema_version": "7-Strata-v2.0"
  },
  "features": [
    {
      "type": "Feature",
      "id": "stratum_1_observer_frame",
      "geometry": {
        "type": "Point",
        "coordinates": [
          -3.192823445069596,
          55.957949805125686
        ]
      },
      "properties": {
        "stratum": "observer_frame",
        "spatial_mode": "3D_TILES",
        "camera": {
          "altitude_m_agl": 153.1,
          "pitch_deg": -25.5,
          "heading_deg": 303.5,
          "fov_deg": 60.0
        }
      }
    },
    {
      "type": "Feature",
      "id": "stratum_2_subterranean_geology",
      "geometry": {
        "type": "Point",
        "coordinates": [
          -3.192823445069596,
          55.957949805125686
        ]
      },
      "properties": {
        "stratum": "subterranean_geology",
        "foundation_analysis": "Subterranean strata comprise Lower Carboniferous (Tournaisian/Vis\u00e9an) sedimentary sequences of the Gullane Formation and Strathclyde Group (pale quartz-arenite sandstones, mudstones, and siltstones) mantled by stiff Devensian glacial till. Primary structural lithic is pale buff-to-grey Craigleith sandstone, a fine-grained, silica-bound quartzose freestone characterized by high compressive strength and low porosity, supplemented with Hailes sandstone for foundation plinths. Mortar chemistry consists of historic non-hydraulic slaked lime putty with coarse river sand and crushed sandstone aggregate, finished in flush or neat penciled lime joints. Hydrogeological flow follows the north-dipping glacial drumlin gradient towards the Water of Leith."
      }
    },
    {
      "type": "Feature",
      "id": "stratum_3_ground_surface",
      "geometry": {
        "type": "Point",
        "coordinates": [
          -3.192823445069596,
          55.957949805125686
        ]
      },
      "properties": {
        "stratum": "ground_surface",
        "primary_surfacing": "Engineered roadway and paved pedestrian curbs",
        "wear_characteristics": "Authentic environmental patina and drainage grading"
      }
    },
    {
      "type": "Feature",
      "id": "stratum_4_landscape_ecology",
      "geometry": {
        "type": "Point",
        "coordinates": [
          -3.192823445069596,
          55.957949805125686
        ]
      },
      "properties": {
        "stratum": "landscape_ecology",
        "botanical_analysis": "Mature urban woodland within Drummond Place Gardens. Overstory dominated by *Acer pseudoplatanus* (Sycamore), *Ulmus glabra* (Wych Elm), *Tilia \u00d7 europaea* (Common Lime), and *Fagus sylvatica* (European Beech). Phenological state for November 11 (late autumn): advanced senescence with 75\u201385% defoliation; remaining foliage displays dull russet, ochre, and golden-brown tones; stark silhouette of bare scaffold limbs and intricate branch tracery; deep organic mulch and fallen leaf litter distributed across enclosed central lawn and gravel walks.",
        "foliage_rectification": "Disambiguated from masonry mesh"
      }
    },
    {
      "type": "Feature",
      "id": "stratum_5_built_environment",
      "geometry": {
        "type": "Point",
        "coordinates": [
          -3.192823445069596,
          55.957949805125686
        ]
      },
      "properties": {
        "stratum": "built_environment",
        "architectural_summary": "Neoclassical Regency/Georgian residential crescent and garden square urbanism (Drummond Place, Second New Town, Reid & Sibbald layout, c. 1802\u20131823). Continuous perimeter terraces standing 3 to 4 storeys over sunk basement areaways with retaining walls. Channelled ashlar rustication across ground storeys, droved and polished ashlar on piano nobile and upper floors, articulated by continuous stringcourses, molded band cornices, and parapets. Symmetrical fenestration grids with recessed timber sash-and-case windows (6-over-6 and 12-over-12 configurations). Double-pitch roofs clad in Scottish and Welsh slates, punctuated by ashlar chimney stacks with clay chimney cans and timber-framed dormers. Rectified vertical plumb lines across all curved circus geometry.",
        "structures": [
          {
            "name": "Primary Facade",
            "storeys": 2,
            "height_m": 7.5,
            "roof_geometry": "pitched / parapet",
            "facade_material": "authentic regional masonry",
            "planar_rectification": "ENFORCED"
          }
        ]
      }
    },
    {
      "type": "Feature",
      "id": "stratum_6_dynamic_elements",
      "geometry": {
        "type": "Point",
        "coordinates": [
          -3.192823445069596,
          55.957949805125686
        ]
      },
      "properties": {
        "stratum": "dynamic_elements",
        "transient_decluttering": "ENFORCED",
        "vehicles": "NONE",
        "pedestrians": "NONE",
        "transient_clutter": "STRIPPED",
        "permanent_civil_fabric": "PRESERVED"
      }
    },
    {
      "type": "Feature",
      "id": "stratum_7_atmospheric_state",
      "geometry": null,
      "properties": {
        "stratum": "atmospheric_state",
        "lighting_rig": "SOLAR_EPHEMERIS",
        "timestamp_utc": "2026-11-11T12:30:00+00:00",
        "weather_state": "OVERCAST",
        "solar_azimuth_deg": 351.78,
        "solar_elevation_deg": 16.48,
        "shadow_azimuth_deg": 171.8,
        "color_temperature_k": 4500,
        "ambient_illuminance_lux": 35000
      }
    }
  ]
}