{
  "type": "FeatureCollection",
  "properties": {
    "address": "32 Charlotte Square, Edinburgh EH2 4ET, UK",
    "spatial_mode": "3D_TILES",
    "schema_version": "7-Strata-v2.0"
  },
  "features": [
    {
      "type": "Feature",
      "id": "stratum_1_observer_frame",
      "geometry": {
        "type": "Point",
        "coordinates": [
          -3.206212816853934,
          55.95132051387233
        ]
      },
      "properties": {
        "stratum": "observer_frame",
        "spatial_mode": "3D_TILES",
        "camera": {
          "altitude_m_agl": 3.1,
          "pitch_deg": 7.8,
          "heading_deg": 287.6,
          "fov_deg": 60.0
        }
      }
    },
    {
      "type": "Feature",
      "id": "stratum_2_subterranean_geology",
      "geometry": {
        "type": "Point",
        "coordinates": [
          -3.206212816853934,
          55.95132051387233
        ]
      },
      "properties": {
        "stratum": "subterranean_geology",
        "foundation_analysis": "Bedrock: Calders Member sedimentary siltstone and sandstone overlain by glacial till. Masonry lithics: Pale buff-grey Craigleith and Hailes sandstone (carboniferous quartz-arenite). Mortar: Traditional hot-mixed hydraulic lime with graded quartz sand. Natural sub-surface drainage toward the Water of Leith basin."
      }
    },
    {
      "type": "Feature",
      "id": "stratum_3_ground_surface",
      "geometry": {
        "type": "Point",
        "coordinates": [
          -3.206212816853934,
          55.95132051387233
        ]
      },
      "properties": {
        "stratum": "ground_surface",
        "primary_surfacing": "Engineered roadway and paved pedestrian curbs",
        "wear_characteristics": "Authentic environmental patina and drainage grading"
      }
    },
    {
      "type": "Feature",
      "id": "stratum_4_landscape_ecology",
      "geometry": {
        "type": "Point",
        "coordinates": [
          -3.206212816853934,
          55.95132051387233
        ]
      },
      "properties": {
        "stratum": "landscape_ecology",
        "botanical_analysis": "Species: *Tilia \u00d7 europaea* (Common Lime) and *Acer pseudoplatanus* (Sycamore) within Charlotte Square Gardens. Phenology (late December): Complete winter defoliation, fully exposed ramified branch scaffolding, bare structural silhouettes, and dormant terminal buds.",
        "foliage_rectification": "Disambiguated from masonry mesh"
      }
    },
    {
      "type": "Feature",
      "id": "stratum_5_built_environment",
      "geometry": {
        "type": "Point",
        "coordinates": [
          -3.206212816853934,
          55.95132051387233
        ]
      },
      "properties": {
        "stratum": "built_environment",
        "architectural_summary": "Neoclassical public monument and Georgian residential square. Centerpiece: West Register House (former St George's Church, Robert Reid, 1814) featuring a monumental tetrastyle Ionic portico, rusticated podium, square clock tower, and a ribbed circular copper dome on a stepped drum. Flanking: Four-storey Georgian terraced townhouses (Robert Adam design) featuring rusticated ground floors, smooth ashlar upper levels, continuous stringcourses, modillioned cornices, pitched slate roofs with dormers, and regular 6-over-6 timber sash-and-case windows.",
        "structures": [
          {
            "name": "Primary Facade",
            "storeys": 2,
            "height_m": 7.5,
            "roof_geometry": "pitched / parapet",
            "facade_material": "authentic regional masonry",
            "planar_rectification": "ENFORCED"
          }
        ]
      }
    },
    {
      "type": "Feature",
      "id": "stratum_6_dynamic_elements",
      "geometry": {
        "type": "Point",
        "coordinates": [
          -3.206212816853934,
          55.95132051387233
        ]
      },
      "properties": {
        "stratum": "dynamic_elements",
        "transient_decluttering": "ENFORCED",
        "vehicles": "NONE",
        "pedestrians": "NONE",
        "transient_clutter": "STRIPPED",
        "permanent_civil_fabric": "PRESERVED"
      }
    },
    {
      "type": "Feature",
      "id": "stratum_7_atmospheric_state",
      "geometry": null,
      "properties": {
        "stratum": "atmospheric_state",
        "lighting_rig": "SOLAR_EPHEMERIS",
        "timestamp_utc": "2026-12-23T15:35:59+00:00",
        "weather_state": "SNOW",
        "solar_azimuth_deg": 225.56,
        "solar_elevation_deg": -0.38,
        "shadow_azimuth_deg": null,
        "color_temperature_k": 2200,
        "ambient_illuminance_lux": 800
      }
    }
  ]
}