{
  "type": "FeatureCollection",
  "properties": {
    "address": "9 Ainslie Pl, Edinburgh EH3 6AT, UK",
    "spatial_mode": "3D_TILES",
    "schema_version": "7-Strata-v2.0"
  },
  "features": [
    {
      "type": "Feature",
      "id": "stratum_1_observer_frame",
      "geometry": {
        "type": "Point",
        "coordinates": [
          -3.210655190850616,
          55.95339894411593
        ]
      },
      "properties": {
        "stratum": "observer_frame",
        "spatial_mode": "3D_TILES",
        "camera": {
          "altitude_m_agl": 107.7,
          "pitch_deg": 3.7,
          "heading_deg": 41.3,
          "fov_deg": 60.0
        }
      }
    },
    {
      "type": "Feature",
      "id": "stratum_2_subterranean_geology",
      "geometry": {
        "type": "Point",
        "coordinates": [
          -3.210655190850616,
          55.95339894411593
        ]
      },
      "properties": {
        "stratum": "subterranean_geology",
        "foundation_analysis": "- **Bedrock Stratigraphy:** Carboniferous sedimentary strata of the Strathclyde Group (Gullane Formation), characterized by interbedded sandstones, siltstones, and carbonaceous mudstones overlying regional volcanic intrusions.\n- **Lithic Masonry:** Primary construction in Lower Carboniferous Craigleith Sandstone\u2014a tightly silica-cemented, pale cream-to-buff quartz arenite renowned for compressive strength; secondary foundation/plinth courses in Hailes Sandstone.\n- **Mortar Chemistry:** Traditional hot-mixed lime mortar utilizing non-hydraulic local calcined limestone aggregate and sharp river sand, allowing high vapor permeability through tight ashlar joints.\n- **Subterranean Hydrology:** Well-drained glacial lodgement till over sloping terrain descending northwest toward the Water of Leith drainage basin."
      }
    },
    {
      "type": "Feature",
      "id": "stratum_3_ground_surface",
      "geometry": {
        "type": "Point",
        "coordinates": [
          -3.210655190850616,
          55.95339894411593
        ]
      },
      "properties": {
        "stratum": "ground_surface",
        "primary_surfacing": "Engineered roadway and paved pedestrian curbs",
        "wear_characteristics": "Authentic environmental patina and drainage grading"
      }
    },
    {
      "type": "Feature",
      "id": "stratum_4_landscape_ecology",
      "geometry": {
        "type": "Point",
        "coordinates": [
          -3.210655190850616,
          55.95339894411593
        ]
      },
      "properties": {
        "stratum": "landscape_ecology",
        "botanical_analysis": "- **Botanical Identity:** Mature urban garden specimens within Ainslie Place Gardens featuring *Acer pseudoplatanus* (Sycamore), *Tilia \u00d7 europaea* (Common Lime), and *Ulmus glabra* (Wych Elm).\n- **Date-Grounded Phenology (September 3):** Full late-summer canopy volume with early transitional phenology; mature deep-green broadleaf foliage exhibiting incipient margins of chlorotic yellowing on upper exposed crowns; hanging clusters of dry samaras/keys; dense, manicured understory turf with perennial border plantings.",
        "foliage_rectification": "Disambiguated from masonry mesh"
      }
    },
    {
      "type": "Feature",
      "id": "stratum_5_built_environment",
      "geometry": {
        "type": "Point",
        "coordinates": [
          -3.210655190850616,
          55.95339894411593
        ]
      },
      "properties": {
        "stratum": "built_environment",
        "architectural_summary": "- **Typology & Provenance:** Neoclassical Georgian residential circus block, designed by architect James Gillespie Graham (1822) as part of the Moray Estate development.\n- **Storeys & Massing:** Symmetrical curved palace-front terrace consisting of a sunken basement, rusticated principal ground floor, piano nobile first floor, second floor, and an attic/blocking course storey. Advanced terminal and central pavilions break the curved facade plane.\n- **Vertical & Planar Alignment:** Rectified vertical load-bearing lines plumbed to true gravity vertical. Planar ashlar walls flattened from 3D scan distortions; horizontal datums restored along continuous stringcourses, sill bands, and projecting classical entablatures.\n- **Fenestration & Detailing:** Regular grid of timber sash-and-case windows (predominantly 6-over-6 and 12-pane configurations) recessed within dressed stone reveals. Piano nobile windows feature moulded architraves with projecting cornices. Cast-iron spearhead balustrades enclose sunken area wells crossed by oversailing ashlar entrance platts. Pitched slate roofs with dressed ashlar chimneystacks and cylindrical clay chimney pots.",
        "structures": [
          {
            "name": "Primary Facade",
            "storeys": 2,
            "height_m": 7.5,
            "roof_geometry": "pitched / parapet",
            "facade_material": "authentic regional masonry",
            "planar_rectification": "ENFORCED"
          }
        ]
      }
    },
    {
      "type": "Feature",
      "id": "stratum_6_dynamic_elements",
      "geometry": {
        "type": "Point",
        "coordinates": [
          -3.210655190850616,
          55.95339894411593
        ]
      },
      "properties": {
        "stratum": "dynamic_elements",
        "transient_decluttering": "ENFORCED",
        "vehicles": "NONE",
        "pedestrians": "NONE",
        "transient_clutter": "STRIPPED",
        "permanent_civil_fabric": "PRESERVED"
      }
    },
    {
      "type": "Feature",
      "id": "stratum_7_atmospheric_state",
      "geometry": null,
      "properties": {
        "stratum": "atmospheric_state",
        "lighting_rig": "SOLAR_EPHEMERIS",
        "timestamp_utc": "2026-09-03T16:48:00+00:00",
        "weather_state": "OVERCAST",
        "solar_azimuth_deg": 256.61,
        "solar_elevation_deg": 18.18,
        "shadow_azimuth_deg": 76.6,
        "color_temperature_k": 4500,
        "ambient_illuminance_lux": 35000
      }
    }
  ]
}