{
  "type": "FeatureCollection",
  "properties": {
    "address": "137 George St, Edinburgh EH2 4JY, UK",
    "spatial_mode": "3D_TILES",
    "schema_version": "7-Strata-v2.0"
  },
  "features": [
    {
      "type": "Feature",
      "id": "stratum_1_observer_frame",
      "geometry": {
        "type": "Point",
        "coordinates": [
          -3.2060056551700455,
          55.952070481493095
        ]
      },
      "properties": {
        "stratum": "observer_frame",
        "spatial_mode": "3D_TILES",
        "camera": {
          "altitude_m_agl": 26.8,
          "pitch_deg": -8.7,
          "heading_deg": 246.8,
          "fov_deg": 60.0
        }
      }
    },
    {
      "type": "Feature",
      "id": "stratum_2_subterranean_geology",
      "geometry": {
        "type": "Point",
        "coordinates": [
          -3.2060056551700455,
          55.952070481493095
        ]
      },
      "properties": {
        "stratum": "subterranean_geology",
        "foundation_analysis": "- **Bedrock**: Lower Carboniferous sedimentary sequence (Inverclyde Group / Calders Member sandstones and siltstones) overlying volcanic basalt sills.\n- **Lithics**: Fine-to-medium-grained pale buff-grey Craigleith and Hailes carboniferous sandstone; Scotch slate roofing; bronze and polished Peterhead granite for the central memorial plinth.\n- **Mortar & Hydrology**: Non-hydraulic slaked lime and coarse river sand mortars; free-draining urban loam over glacial till."
      }
    },
    {
      "type": "Feature",
      "id": "stratum_3_ground_surface",
      "geometry": {
        "type": "Point",
        "coordinates": [
          -3.2060056551700455,
          55.952070481493095
        ]
      },
      "properties": {
        "stratum": "ground_surface",
        "primary_surfacing": "Engineered roadway and paved pedestrian curbs",
        "wear_characteristics": "Authentic environmental patina and drainage grading"
      }
    },
    {
      "type": "Feature",
      "id": "stratum_4_landscape_ecology",
      "geometry": {
        "type": "Point",
        "coordinates": [
          -3.2060056551700455,
          55.952070481493095
        ]
      },
      "properties": {
        "stratum": "landscape_ecology",
        "botanical_analysis": "- **Species**: *Ulmus glabra* (Wych elm), *Acer pseudoplatanus* (Sycamore), *Tilia \u00d7 europaea* (Common lime), and *Prunus spinosa* perimeter shrubs.\n- **Phenology (Late December)**: Complete winter dormancy; 100% defoliated bare canopies; exposed complex fractal branch architecture, dark damp bark, and dormant winter turf.",
        "foliage_rectification": "Disambiguated from masonry mesh"
      }
    },
    {
      "type": "Feature",
      "id": "stratum_5_built_environment",
      "geometry": {
        "type": "Point",
        "coordinates": [
          -3.2060056551700455,
          55.952070481493095
        ]
      },
      "properties": {
        "stratum": "built_environment",
        "architectural_summary": "- **West Register House (Centre)**: Neoclassical monumental civic church conversion (Robert Adam design, executed by Robert Reid, 1811\u20131814). Symmetrical three-bay temple-front portico with colossal Ionic columns, entablature, pediment, attic tier, cylindrical drum, and copper dome.\n- **Flanking Terraces (North and South West Pavilions)**: 3-storey plus attic and rusticated basement Georgian palace-front townhouses. Flemish-derived paired end pavilions, continuous string courses, balustraded parapets, 6-over-6 and 12-over-12 timber sash-and-case fenestration.\n- **Distant Skyline**: Triple stone spires of St Mary's Episcopal Cathedral (Gothic Revival, central crossing tower and twin western spires) and civic spires/chimney stacks.\n- **Memorial**: Central Prince Albert Equestrian Monument (Sir John Steell, 1876); bronze equestrian figure atop stepped polished red granite pedestal with bas-relief panels.",
        "structures": [
          {
            "name": "Primary Facade",
            "storeys": 2,
            "height_m": 7.5,
            "roof_geometry": "pitched / parapet",
            "facade_material": "authentic regional masonry",
            "planar_rectification": "ENFORCED"
          }
        ]
      }
    },
    {
      "type": "Feature",
      "id": "stratum_6_dynamic_elements",
      "geometry": {
        "type": "Point",
        "coordinates": [
          -3.2060056551700455,
          55.952070481493095
        ]
      },
      "properties": {
        "stratum": "dynamic_elements",
        "transient_decluttering": "ENFORCED",
        "vehicles": "NONE",
        "pedestrians": "NONE",
        "transient_clutter": "STRIPPED",
        "permanent_civil_fabric": "PRESERVED"
      }
    },
    {
      "type": "Feature",
      "id": "stratum_7_atmospheric_state",
      "geometry": null,
      "properties": {
        "stratum": "atmospheric_state",
        "lighting_rig": "SOLAR_EPHEMERIS",
        "timestamp_utc": "2026-12-22T07:35:59+00:00",
        "weather_state": "SNOW",
        "solar_azimuth_deg": 120.21,
        "solar_elevation_deg": -8.24,
        "shadow_azimuth_deg": null,
        "color_temperature_k": 2000,
        "ambient_illuminance_lux": 5
      }
    }
  ]
}