{
  "type": "FeatureCollection",
  "properties": {
    "address": "9 Ainslie Pl, Edinburgh EH3 6AT, UK",
    "spatial_mode": "3D_TILES",
    "schema_version": "7-Strata-v2.0"
  },
  "features": [
    {
      "type": "Feature",
      "id": "stratum_1_observer_frame",
      "geometry": {
        "type": "Point",
        "coordinates": [
          -3.210734192290895,
          55.95336233634903
        ]
      },
      "properties": {
        "stratum": "observer_frame",
        "spatial_mode": "3D_TILES",
        "camera": {
          "altitude_m_agl": 108.2,
          "pitch_deg": 1.9,
          "heading_deg": 38.3,
          "fov_deg": 60.0
        }
      }
    },
    {
      "type": "Feature",
      "id": "stratum_2_subterranean_geology",
      "geometry": {
        "type": "Point",
        "coordinates": [
          -3.210734192290895,
          55.95336233634903
        ]
      },
      "properties": {
        "stratum": "subterranean_geology",
        "foundation_analysis": "The subterranean geology of Edinburgh\u2019s New Town rests upon Lower Carboniferous sedimentary bedrock of the Strathclyde Group (Gullane and Wardie Formations), characterised by alternating siltstones, mudstones, and thick-bedded quartz-arenite sandstones. The superstructures are constructed primarily of pale buff-grey Carboniferous Craigleith sandstone, supplemented by laminated Hailes sandstone. Subterranean basement lightwells and foundation retaining walls are bedded in traditional hot-mixed non-hydraulic to weakly hydraulic slaked lime mortar (calcium hydroxide with local river sand aggregate). Subsurface drainage directs groundwater runoff downslope towards the Water of Leith via natural glacial till and engineered subterranean brick vaulted cellars."
      }
    },
    {
      "type": "Feature",
      "id": "stratum_3_ground_surface",
      "geometry": {
        "type": "Point",
        "coordinates": [
          -3.210734192290895,
          55.95336233634903
        ]
      },
      "properties": {
        "stratum": "ground_surface",
        "primary_surfacing": "Engineered roadway and paved pedestrian curbs",
        "wear_characteristics": "Authentic environmental patina and drainage grading"
      }
    },
    {
      "type": "Feature",
      "id": "stratum_4_landscape_ecology",
      "geometry": {
        "type": "Point",
        "coordinates": [
          -3.210734192290895,
          55.95336233634903
        ]
      },
      "properties": {
        "stratum": "landscape_ecology",
        "botanical_analysis": "The central communal pleasure grounds (Ainslie Place Gardens) feature mature broadleaf deciduous specimens:\n- *Acer pseudoplatanus* (Sycamore maple) and *Tilia \u00d7 europaea* (Common lime): Full, dense late-summer canopies displaying dark forest green foliage with early autumn margin chlorosis, dense branch massing, and lichen-mottled bark.\n- *Ulmus glabra* (Wych elm) and *Prunus spinosa* understory: Full leafy crown structure consistent with early September phenology, maintaining canopy density prior to autumn leaf drop.",
        "foliage_rectification": "Disambiguated from masonry mesh"
      }
    },
    {
      "type": "Feature",
      "id": "stratum_5_built_environment",
      "geometry": {
        "type": "Point",
        "coordinates": [
          -3.210734192290895,
          55.95336233634903
        ]
      },
      "properties": {
        "stratum": "built_environment",
        "architectural_summary": "A classical Georgian neoclassical palace-fronted crescent designed by architect James Gillespie Graham in 1822. The sweeping curved terrace (Nos 1\u201315 Ainslie Place) comprises a symmetrical composition of 3 storeys over a rusticated principal floor and sunken basement, crowned by an attic storey and slate-clad mansard/piend roofs with ashlar chimney stacks. The primary facade features a prominent 9-bay advanced central pavilion flanked by 15-bay linking terraces and 4-bay terminal pavilions. Fenestration follows a strict Georgian grid of timber sash-and-case windows (predominantly 6-over-6 on lower floors and 3-over-3 at the attic level) recessed within crisp stone reveals. All mesh-warped verticals are rectified to 90\u00b0 gravity plumb; the faceted curvature of the street frontage is smoothed to an authentic continuous octagonal circus arc.",
        "structures": [
          {
            "name": "Primary Facade",
            "storeys": 2,
            "height_m": 7.5,
            "roof_geometry": "pitched / parapet",
            "facade_material": "authentic regional masonry",
            "planar_rectification": "ENFORCED"
          }
        ]
      }
    },
    {
      "type": "Feature",
      "id": "stratum_6_dynamic_elements",
      "geometry": {
        "type": "Point",
        "coordinates": [
          -3.210734192290895,
          55.95336233634903
        ]
      },
      "properties": {
        "stratum": "dynamic_elements",
        "transient_decluttering": "ENFORCED",
        "vehicles": "NONE",
        "pedestrians": "NONE",
        "transient_clutter": "STRIPPED",
        "permanent_civil_fabric": "PRESERVED"
      }
    },
    {
      "type": "Feature",
      "id": "stratum_7_atmospheric_state",
      "geometry": null,
      "properties": {
        "stratum": "atmospheric_state",
        "lighting_rig": "SOLAR_EPHEMERIS",
        "timestamp_utc": "2026-09-03T11:50:59+00:00",
        "weather_state": "OVERCAST",
        "solar_azimuth_deg": 172.84,
        "solar_elevation_deg": 41.71,
        "shadow_azimuth_deg": 352.8,
        "color_temperature_k": 5400,
        "ambient_illuminance_lux": 60000
      }
    }
  ]
}