{
  "type": "FeatureCollection",
  "properties": {
    "address": "1540 Maine Ave SW, Washington, DC 20004, USA",
    "spatial_mode": "3D_TILES",
    "schema_version": "7-Strata-v2.0"
  },
  "features": [
    {
      "type": "Feature",
      "id": "stratum_1_observer_frame",
      "geometry": {
        "type": "Point",
        "coordinates": [
          -77.03715909558203,
          38.8858692444861
        ]
      },
      "properties": {
        "stratum": "observer_frame",
        "spatial_mode": "3D_TILES",
        "camera": {
          "altitude_m_agl": 153.3,
          "pitch_deg": -11.6,
          "heading_deg": 23.6,
          "fov_deg": 60.0
        }
      }
    },
    {
      "type": "Feature",
      "id": "stratum_2_subterranean_geology",
      "geometry": {
        "type": "Point",
        "coordinates": [
          -77.03715909558203,
          38.8858692444861
        ]
      },
      "properties": {
        "stratum": "subterranean_geology",
        "foundation_analysis": "Subterranean strata comprise Quaternary alluvial silt, sand, and Potomac River hydraulic fill resting over crystalline Piedmont metamorphic basement rock. Lower obelisk envelope constructed from Texas (Maryland) calcitic marble ashlar; upper obelisk envelope consists of Cockeysville dolomitic marble and Sheffield (Massachusetts) marble backed by interior gneiss and Maine granite rubble courses set in natural cement and hydraulic lime mortar. Surrounding institutional structures utilize Bedford/Indiana oolitic limestone superstructures over reinforced concrete slab-and-pier foundations."
      }
    },
    {
      "type": "Feature",
      "id": "stratum_3_ground_surface",
      "geometry": {
        "type": "Point",
        "coordinates": [
          -77.03715909558203,
          38.8858692444861
        ]
      },
      "properties": {
        "stratum": "ground_surface",
        "primary_surfacing": "Engineered roadway and paved pedestrian curbs",
        "wear_characteristics": "Authentic environmental patina and drainage grading"
      }
    },
    {
      "type": "Feature",
      "id": "stratum_4_landscape_ecology",
      "geometry": {
        "type": "Point",
        "coordinates": [
          -77.03715909558203,
          38.8858692444861
        ]
      },
      "properties": {
        "stratum": "landscape_ecology",
        "botanical_analysis": "Parkland and street corridors feature mature specimen trees including *Ulmus americana* (American elm) lining avenues, *Quercus phellos* (willow oak), *Platanus \u00d7 acerifolia* (London plane), and *Quercus palustris* (pin oak). Late summer phenology (September): fully developed, dense dark green canopies exhibiting peak vegetative volume with incipient late-season foliage maturity and no significant defoliation. Groundcover consists of dense, cut *Poa pratensis* (Kentucky bluegrass) and *Festuca arundinacea* turf.",
        "foliage_rectification": "Disambiguated from masonry mesh"
      }
    },
    {
      "type": "Feature",
      "id": "stratum_5_built_environment",
      "geometry": {
        "type": "Point",
        "coordinates": [
          -77.03715909558203,
          38.8858692444861
        ]
      },
      "properties": {
        "stratum": "built_environment",
        "architectural_summary": "Washington Monument stands as a 169.05-meter (555 ft 5\u215b in) load-bearing hollow stone masonry obelisk tapering from a 16.76-meter square footprint to 10.49 meters at the base of the 16.76-meter pyramidion, crowned with a cast aluminum apex. Lower plaza features a circular granite paver ring accommodating fifty-six vertical perimeter flagpoles. Northeast adjacent civic structure (NMAAHC) exhibits a three-tiered inverted pyramidal corona configuration over a glazed recessed ground concourse. Background Federal Triangle complexes (Commerce, IRS, Federal Trade Commission) display monumental 6-to-8-storey Neoclassical/Beaux-Arts civic massing with rusticated podiums, monumental Doric and Ionic colonnades, regularized rectangular fenestration grids, and hipped roofs clad in red clay mission tiles.",
        "structures": [
          {
            "name": "Primary Facade",
            "storeys": 2,
            "height_m": 7.5,
            "roof_geometry": "pitched / parapet",
            "facade_material": "authentic regional masonry",
            "planar_rectification": "ENFORCED"
          }
        ]
      }
    },
    {
      "type": "Feature",
      "id": "stratum_6_dynamic_elements",
      "geometry": {
        "type": "Point",
        "coordinates": [
          -77.03715909558203,
          38.8858692444861
        ]
      },
      "properties": {
        "stratum": "dynamic_elements",
        "transient_decluttering": "ENFORCED",
        "vehicles": "NONE",
        "pedestrians": "NONE",
        "transient_clutter": "STRIPPED",
        "permanent_civil_fabric": "PRESERVED"
      }
    },
    {
      "type": "Feature",
      "id": "stratum_7_atmospheric_state",
      "geometry": null,
      "properties": {
        "stratum": "atmospheric_state",
        "lighting_rig": "SOLAR_EPHEMERIS",
        "timestamp_utc": "2026-09-04T11:02:59+00:00",
        "weather_state": "SUNNY",
        "solar_azimuth_deg": 83.45,
        "solar_elevation_deg": 3.82,
        "shadow_azimuth_deg": 263.4,
        "color_temperature_k": 3000,
        "ambient_illuminance_lux": 12000
      }
    }
  ]
}