{
  "type": "FeatureCollection",
  "properties": {
    "address": "15A Great Stuart St, Edinburgh EH3 7TP, UK",
    "spatial_mode": "3D_TILES",
    "schema_version": "7-Strata-v2.0"
  },
  "features": [
    {
      "type": "Feature",
      "id": "stratum_1_observer_frame",
      "geometry": {
        "type": "Point",
        "coordinates": [
          -3.2123473744040156,
          55.95257406678854
        ]
      },
      "properties": {
        "stratum": "observer_frame",
        "spatial_mode": "3D_TILES",
        "camera": {
          "altitude_m_agl": 5.3,
          "pitch_deg": 3.9,
          "heading_deg": 66.9,
          "fov_deg": 60.0
        }
      }
    },
    {
      "type": "Feature",
      "id": "stratum_2_subterranean_geology",
      "geometry": {
        "type": "Point",
        "coordinates": [
          -3.2123473744040156,
          55.95257406678854
        ]
      },
      "properties": {
        "stratum": "subterranean_geology",
        "foundation_analysis": "- Bedrock: Carboniferous sedimentary strata (Wardie Shales and Sandstones).\n- Lithic Fabric: Craigleith and Hailes pale buff-to-grey carboniferous sandstone ashlar; hydraulic lime mortar pointing; Ballachulish grey-black metamorphic slate roofing."
      }
    },
    {
      "type": "Feature",
      "id": "stratum_3_ground_surface",
      "geometry": {
        "type": "Point",
        "coordinates": [
          -3.2123473744040156,
          55.95257406678854
        ]
      },
      "properties": {
        "stratum": "ground_surface",
        "primary_surfacing": "Engineered roadway and paved pedestrian curbs",
        "wear_characteristics": "Authentic environmental patina and drainage grading"
      }
    },
    {
      "type": "Feature",
      "id": "stratum_4_landscape_ecology",
      "geometry": {
        "type": "Point",
        "coordinates": [
          -3.2123473744040156,
          55.95257406678854
        ]
      },
      "properties": {
        "stratum": "landscape_ecology",
        "botanical_analysis": "- Specimen: *Ulmus glabra* (Wych Elm) and *Acer pseudoplatanus* (Sycamore).\n- Phenology (Late September): Mature dense crowns displaying early autumn foliar chlorosis, minor leaf crisping, and isolated canopy thinning.",
        "foliage_rectification": "Disambiguated from masonry mesh"
      }
    },
    {
      "type": "Feature",
      "id": "stratum_5_built_environment",
      "geometry": {
        "type": "Point",
        "coordinates": [
          -3.2123473744040156,
          55.95257406678854
        ]
      },
      "properties": {
        "stratum": "built_environment",
        "architectural_summary": "- Typology: Edinburgh New Town Neoclassical Georgian residential terrace (James Gillespie Graham / Moray Estate plan).\n- Massing: 3 storeys plus attic storey with dormers and rusticated basement lightwell.\n- Rectification: True vertical plumb-line facades, planar sandstone ashlar courses, aligned 12-pane (6-over-6) and 4-over-4 timber sash-and-case fenestration, continuous moulded eaves cornice, ashlar chimney stacks with ceramic pots.",
        "structures": [
          {
            "name": "Primary Facade",
            "storeys": 2,
            "height_m": 7.5,
            "roof_geometry": "pitched / parapet",
            "facade_material": "authentic regional masonry",
            "planar_rectification": "ENFORCED"
          }
        ]
      }
    },
    {
      "type": "Feature",
      "id": "stratum_6_dynamic_elements",
      "geometry": {
        "type": "Point",
        "coordinates": [
          -3.2123473744040156,
          55.95257406678854
        ]
      },
      "properties": {
        "stratum": "dynamic_elements",
        "transient_decluttering": "ENFORCED",
        "vehicles": "NONE",
        "pedestrians": "NONE",
        "transient_clutter": "STRIPPED",
        "permanent_civil_fabric": "PRESERVED"
      }
    },
    {
      "type": "Feature",
      "id": "stratum_7_atmospheric_state",
      "geometry": null,
      "properties": {
        "stratum": "atmospheric_state",
        "lighting_rig": "SOLAR_EPHEMERIS",
        "timestamp_utc": "2026-09-24T13:24:00+00:00",
        "weather_state": "RAIN",
        "solar_azimuth_deg": 203.44,
        "solar_elevation_deg": 31.63,
        "shadow_azimuth_deg": null,
        "color_temperature_k": 5400,
        "ambient_illuminance_lux": 60000
      }
    }
  ]
}