{
  "type": "FeatureCollection",
  "properties": {
    "address": "13/2 Ainslie Pl, Edinburgh EH3 6AS, UK",
    "spatial_mode": "3D_TILES",
    "schema_version": "7-Strata-v2.0"
  },
  "features": [
    {
      "type": "Feature",
      "id": "stratum_1_observer_frame",
      "geometry": {
        "type": "Point",
        "coordinates": [
          -3.2109181593270484,
          55.9532130952049
        ]
      },
      "properties": {
        "stratum": "observer_frame",
        "spatial_mode": "3D_TILES",
        "camera": {
          "altitude_m_agl": 109.5,
          "pitch_deg": 3.5,
          "heading_deg": 34.7,
          "fov_deg": 60.0
        }
      }
    },
    {
      "type": "Feature",
      "id": "stratum_2_subterranean_geology",
      "geometry": {
        "type": "Point",
        "coordinates": [
          -3.2109181593270484,
          55.9532130952049
        ]
      },
      "properties": {
        "stratum": "subterranean_geology",
        "foundation_analysis": "* **Bedrock & Stratigraphy:** Underlain by Lower Carboniferous sedimentary formations of the Gullane Formation (Strathclyde Group) within the Midland Valley of Scotland, blanketed by dense Quaternary glacial till and boulder clay.\n* **Quarry Lithics:** Structural masonry is Lower Carboniferous Craigleith Sandstone (fine-grained, silica-cemented quartz arenite of exceptional structural density) with secondary Binny and Hailes stone insertions. \n* **Mortar & Groundwater:** Traditional lime-sand mortar matrix (calcium hydroxide slaked lime blended with graded river sand) laid in thin, flush-dressed joints. Subterranean hydrological gradient drains northwestward down the geological ridge toward the Water of Leith gorge."
      }
    },
    {
      "type": "Feature",
      "id": "stratum_3_ground_surface",
      "geometry": {
        "type": "Point",
        "coordinates": [
          -3.2109181593270484,
          55.9532130952049
        ]
      },
      "properties": {
        "stratum": "ground_surface",
        "primary_surfacing": "Engineered roadway and paved pedestrian curbs",
        "wear_characteristics": "Authentic environmental patina and drainage grading"
      }
    },
    {
      "type": "Feature",
      "id": "stratum_4_landscape_ecology",
      "geometry": {
        "type": "Point",
        "coordinates": [
          -3.2109181593270484,
          55.9532130952049
        ]
      },
      "properties": {
        "stratum": "landscape_ecology",
        "botanical_analysis": "* **Species Identification:** Central circus garden populated by mature *Acer pseudoplatanus* (Sycamore maple), *Tilia \u00d7 europaea* (Common lime), and *Ulmus glabra* (Wych elm).\n* **Phenology (September 3):** Fully expanded, dense late-summer crowns with deep dark green foliage; subtle earliest-stage crown-margin chlorosis, localized leaf-tip desiccations, and ripening winged samara clusters; completely intact understory and clipped perimeter turf.",
        "foliage_rectification": "Disambiguated from masonry mesh"
      }
    },
    {
      "type": "Feature",
      "id": "stratum_5_built_environment",
      "geometry": {
        "type": "Point",
        "coordinates": [
          -3.2109181593270484,
          55.9532130952049
        ]
      },
      "properties": {
        "stratum": "built_environment",
        "architectural_summary": "* **Typology & Order:** Regency / Late Georgian Neoclassical sweeping concave palace-block terrace, designed in 1822 by architect James Gillespie Graham as part of the Moray Estate.\n* **Massing & Storey Hierarchy:** 3 storeys over a sunken basement area with attic level set behind a continuous stone blocking course; continuous ashlar platts oversail the basement lightwells to provide threshold access.\n* **Fa\u00e7ade Articulation:** Principal floor features continuous V-jointed channelled rustication; first and second floors articulated in smooth polished ashlar demarcated by a continuous string course, moulded second-floor cill course, and full classical entablature with heavy eaves cornice.\n* **Fenestration:** Uniform vertical fenestration grid of 6-over-6 and 2-over-2 double-hung timber sash-and-case windows recessed in unadorned ashlar reveals.\n* **Planar Rectification:** Facade geometry regularized from photogrammetric noise to plumb vertical planes forming an exact concentric curve; horizontal band courses, entablatures, and parapets straightened to crisp architectural profiles.",
        "structures": [
          {
            "name": "Primary Facade",
            "storeys": 2,
            "height_m": 7.5,
            "roof_geometry": "pitched / parapet",
            "facade_material": "authentic regional masonry",
            "planar_rectification": "ENFORCED"
          }
        ]
      }
    },
    {
      "type": "Feature",
      "id": "stratum_6_dynamic_elements",
      "geometry": {
        "type": "Point",
        "coordinates": [
          -3.2109181593270484,
          55.9532130952049
        ]
      },
      "properties": {
        "stratum": "dynamic_elements",
        "transient_decluttering": "ENFORCED",
        "vehicles": "NONE",
        "pedestrians": "NONE",
        "transient_clutter": "STRIPPED",
        "permanent_civil_fabric": "PRESERVED"
      }
    },
    {
      "type": "Feature",
      "id": "stratum_7_atmospheric_state",
      "geometry": null,
      "properties": {
        "stratum": "atmospheric_state",
        "lighting_rig": "SOLAR_EPHEMERIS",
        "timestamp_utc": "2026-09-03T16:33:00+00:00",
        "weather_state": "SUNNY",
        "solar_azimuth_deg": 253.31,
        "solar_elevation_deg": 20.21,
        "shadow_azimuth_deg": 73.3,
        "color_temperature_k": 4500,
        "ambient_illuminance_lux": 35000
      }
    }
  ]
}