{
  "type": "FeatureCollection",
  "properties": {
    "address": "33 London St, Edinburgh EH3 6LY, UK",
    "spatial_mode": "3D_TILES",
    "schema_version": "7-Strata-v2.0"
  },
  "features": [
    {
      "type": "Feature",
      "id": "stratum_1_observer_frame",
      "geometry": {
        "type": "Point",
        "coordinates": [
          -3.191738222149064,
          55.95911292502464
        ]
      },
      "properties": {
        "stratum": "observer_frame",
        "spatial_mode": "3D_TILES",
        "camera": {
          "altitude_m_agl": 127.7,
          "pitch_deg": -11.1,
          "heading_deg": 257.3,
          "fov_deg": 60.0
        }
      }
    },
    {
      "type": "Feature",
      "id": "stratum_2_subterranean_geology",
      "geometry": {
        "type": "Point",
        "coordinates": [
          -3.191738222149064,
          55.95911292502464
        ]
      },
      "properties": {
        "stratum": "subterranean_geology",
        "foundation_analysis": "Subterranean sequence comprised of Carboniferous sedimentary bedrock (Strathclyde Group sandstone, siltstone, and shale) overlain by dense Devensian lodgement till. Superstructure masonry is predominantly pale buff-to-grey Craigleith quartz-arenite sandstone, characterized by high silica cementation and exceptional compressive strength, with secondary Hailes micaceous laminated sandstone in rear elevations and foundation courses. Ashlar blocks are laid strictly on their natural quarry bed using historic non-hydraulic calcitic slaked lime mortar blended with sharp, well-graded pit sand. Subterranean moisture is managed through sunken front basement lightwells, stone drop arches, and vaulted coal cellars underpinning the flagstone pedestrian footways."
      }
    },
    {
      "type": "Feature",
      "id": "stratum_3_ground_surface",
      "geometry": {
        "type": "Point",
        "coordinates": [
          -3.191738222149064,
          55.95911292502464
        ]
      },
      "properties": {
        "stratum": "ground_surface",
        "primary_surfacing": "Engineered roadway and paved pedestrian curbs",
        "wear_characteristics": "Authentic environmental patina and drainage grading"
      }
    },
    {
      "type": "Feature",
      "id": "stratum_4_landscape_ecology",
      "geometry": {
        "type": "Point",
        "coordinates": [
          -3.191738222149064,
          55.95911292502464
        ]
      },
      "properties": {
        "stratum": "landscape_ecology",
        "botanical_analysis": "Drummond Place Gardens internal parkland enclave dominated by mature canopy trees: *Acer pseudoplatanus* (Sycamore), *Fagus sylvatica* (European Beech), *Ulmus glabra* (Wych Elm), and *Tilia \u00d7 europaea* (Common Lime). Phenological state for November 11: Advanced late-autumn defoliation (~85% leaf drop), revealing dense dark skeletal branching structures, intricate crown ramifications, and lingering clusters of desiccated ochre, russet, and dull yellow marcescent leaves. Understorey features trimmed turf covered in moist brown leaf litter and clipped *Taxus baccata* and *Ilex aquifolium* evergreen perimeter shrubs.",
        "foliage_rectification": "Disambiguated from masonry mesh"
      }
    },
    {
      "type": "Feature",
      "id": "stratum_5_built_environment",
      "geometry": {
        "type": "Point",
        "coordinates": [
          -3.191738222149064,
          55.95911292502464
        ]
      },
      "properties": {
        "stratum": "built_environment",
        "architectural_summary": "Edinburgh Second New Town classical Georgian urban fabric (London Street terminating into Drummond Place). Symmetrical palace-fronted terraced tenements and townhouses spanning 3 storeys over raised rusticated basements, topped with attic dormers. Planar facades rectified to absolute vertical gravity lines: V-jointed rusticated ashlar ground storeys, polished smooth ashlar upper storeys, continuous molded stringcourses, and dentiled/mutule eaves cornices with parapet blocking courses. Fenestration follows a strict vertical and horizontal grid with 12-pane (6-over-6) timber double-hung sash-and-case windows set into deep ashlar stone reveals with hand-tooled margins. Symmetrical dual-pitched timber roof structures clad in graded metamorphic slates, punctuated by substantial transverse ashlar chimney stacks crowned with cylindrical terracotta chimney cans. Sunken basement wells are bridged by monolithic droved ashlar platts and enclosed with cast-iron spearhead railings.",
        "structures": [
          {
            "name": "Primary Facade",
            "storeys": 2,
            "height_m": 7.5,
            "roof_geometry": "pitched / parapet",
            "facade_material": "authentic regional masonry",
            "planar_rectification": "ENFORCED"
          }
        ]
      }
    },
    {
      "type": "Feature",
      "id": "stratum_6_dynamic_elements",
      "geometry": {
        "type": "Point",
        "coordinates": [
          -3.191738222149064,
          55.95911292502464
        ]
      },
      "properties": {
        "stratum": "dynamic_elements",
        "transient_decluttering": "ENFORCED",
        "vehicles": "NONE",
        "pedestrians": "NONE",
        "transient_clutter": "STRIPPED",
        "permanent_civil_fabric": "PRESERVED"
      }
    },
    {
      "type": "Feature",
      "id": "stratum_7_atmospheric_state",
      "geometry": null,
      "properties": {
        "stratum": "atmospheric_state",
        "lighting_rig": "SOLAR_EPHEMERIS",
        "timestamp_utc": "2026-11-11T12:35:59+00:00",
        "weather_state": "SUNNY",
        "solar_azimuth_deg": 189.7,
        "solar_elevation_deg": 16.35,
        "shadow_azimuth_deg": 9.7,
        "color_temperature_k": 4500,
        "ambient_illuminance_lux": 35000
      }
    }
  ]
}