{
  "type": "FeatureCollection",
  "properties": {
    "address": "17 Charlotte Square, Edinburgh EH2 4DJ, UK",
    "spatial_mode": "3D_TILES",
    "schema_version": "7-Strata-v2.0"
  },
  "features": [
    {
      "type": "Feature",
      "id": "stratum_1_observer_frame",
      "geometry": {
        "type": "Point",
        "coordinates": [
          -3.2088392533288927,
          55.95226390586746
        ]
      },
      "properties": {
        "stratum": "observer_frame",
        "spatial_mode": "3D_TILES",
        "camera": {
          "altitude_m_agl": 2.4,
          "pitch_deg": 7.2,
          "heading_deg": 183.8,
          "fov_deg": 60.0
        }
      }
    },
    {
      "type": "Feature",
      "id": "stratum_2_subterranean_geology",
      "geometry": {
        "type": "Point",
        "coordinates": [
          -3.2088392533288927,
          55.95226390586746
        ]
      },
      "properties": {
        "stratum": "subterranean_geology",
        "foundation_analysis": "Bedrock comprises Carboniferous sedimentary strata of the Inverleith Formation (sandstones, siltstones, mudstones) overlain by dense Quaternary glacial till. Building fabric utilizes pale buff-grey Craigleith and Hailes sandstone, characterized by high-silica quartz matrix. Bedding mortar is non-hydraulic hot-mixed lime with local aggregate; subterranean drainage manages high moisture retention in compacted till subsoil."
      }
    },
    {
      "type": "Feature",
      "id": "stratum_3_ground_surface",
      "geometry": {
        "type": "Point",
        "coordinates": [
          -3.2088392533288927,
          55.95226390586746
        ]
      },
      "properties": {
        "stratum": "ground_surface",
        "primary_surfacing": "Engineered roadway and paved pedestrian curbs",
        "wear_characteristics": "Authentic environmental patina and drainage grading"
      }
    },
    {
      "type": "Feature",
      "id": "stratum_4_landscape_ecology",
      "geometry": {
        "type": "Point",
        "coordinates": [
          -3.2088392533288927,
          55.95226390586746
        ]
      },
      "properties": {
        "stratum": "landscape_ecology",
        "botanical_analysis": "Charlotte Square Garden perimeter retains mature *Acer pseudoplatanus* (Sycamore) and *Tilia \u00d7 europaea* (Common Lime). Canopy phenology for late September: full-volume crowns showing early autumn senescence, localized chlorosis with margins yellowing, minimal leaf-drop, exposing rough grey-brown fissured bark.",
        "foliage_rectification": "Disambiguated from masonry mesh"
      }
    },
    {
      "type": "Feature",
      "id": "stratum_5_built_environment",
      "geometry": {
        "type": "Point",
        "coordinates": [
          -3.2088392533288927,
          55.95226390586746
        ]
      },
      "properties": {
        "stratum": "built_environment",
        "architectural_summary": "Neoclassical urban terrace and civic monumentality (Robert Adam design executed by Robert Reid, completed 1814). Rectified vertical planes throughout:\n- Center background features West Register House (former St. George's Church): monumental square base with Ionic portico, stepped podium, circular stone drum punctuated by round-arched niches, crowned by a hemispherical copper dome and stone lantern.\n- Attached flanking terraces: 3-storey over raised basement with attic storeys. Channelled rustication on ground floors, smooth Craigleith ashlar upper storeys, continuous stringcourses, modillion cornices, and balustraded roof parapets. \n- Fenestration: rectified 6-over-6 and 12-over-12 double-hung timber sash-and-case windows set in regular grid bays with clean ashlar architraves.",
        "structures": [
          {
            "name": "Primary Facade",
            "storeys": 2,
            "height_m": 7.5,
            "roof_geometry": "pitched / parapet",
            "facade_material": "authentic regional masonry",
            "planar_rectification": "ENFORCED"
          }
        ]
      }
    },
    {
      "type": "Feature",
      "id": "stratum_6_dynamic_elements",
      "geometry": {
        "type": "Point",
        "coordinates": [
          -3.2088392533288927,
          55.95226390586746
        ]
      },
      "properties": {
        "stratum": "dynamic_elements",
        "transient_decluttering": "ENFORCED",
        "vehicles": "NONE",
        "pedestrians": "NONE",
        "transient_clutter": "STRIPPED",
        "permanent_civil_fabric": "PRESERVED"
      }
    },
    {
      "type": "Feature",
      "id": "stratum_7_atmospheric_state",
      "geometry": null,
      "properties": {
        "stratum": "atmospheric_state",
        "lighting_rig": "SOLAR_EPHEMERIS",
        "timestamp_utc": "2026-09-23T16:00:00+00:00",
        "weather_state": "RAIN",
        "solar_azimuth_deg": 243.37,
        "solar_elevation_deg": 17.06,
        "shadow_azimuth_deg": null,
        "color_temperature_k": 4500,
        "ambient_illuminance_lux": 35000
      }
    }
  ]
}