{
  "type": "FeatureCollection",
  "properties": {
    "address": "18A Charlotte Square, Edinburgh EH2 4DF, UK",
    "spatial_mode": "3D_TILES",
    "schema_version": "7-Strata-v2.0"
  },
  "features": [
    {
      "type": "Feature",
      "id": "stratum_1_observer_frame",
      "geometry": {
        "type": "Point",
        "coordinates": [
          -3.2062675275652035,
          55.95127144842705
        ]
      },
      "properties": {
        "stratum": "observer_frame",
        "spatial_mode": "3D_TILES",
        "camera": {
          "altitude_m_agl": 5.4,
          "pitch_deg": -2.3,
          "heading_deg": 281.1,
          "fov_deg": 60.0
        }
      }
    },
    {
      "type": "Feature",
      "id": "stratum_2_subterranean_geology",
      "geometry": {
        "type": "Point",
        "coordinates": [
          -3.2062675275652035,
          55.95127144842705
        ]
      },
      "properties": {
        "stratum": "subterranean_geology",
        "foundation_analysis": "- **Bedrock & Subsurface:** Glacially smoothed Carboniferous sedimentary bedrock sequence (calciferous sandstone series) overlain by stiff glacial till.\n- **Lithic Sourcing:** Fine-grained quartzose Craigleith pale buff-grey sandstone for monumental ashlar facades; carbonaceous Hailes sandstone for foundation courses.\n- **Mortar Chemistry:** Non-hydraulic slaked lime binder mixed with coarse quartz river sand."
      }
    },
    {
      "type": "Feature",
      "id": "stratum_3_ground_surface",
      "geometry": {
        "type": "Point",
        "coordinates": [
          -3.2062675275652035,
          55.95127144842705
        ]
      },
      "properties": {
        "stratum": "ground_surface",
        "primary_surfacing": "Engineered roadway and paved pedestrian curbs",
        "wear_characteristics": "Authentic environmental patina and drainage grading"
      }
    },
    {
      "type": "Feature",
      "id": "stratum_4_landscape_ecology",
      "geometry": {
        "type": "Point",
        "coordinates": [
          -3.2062675275652035,
          55.95127144842705
        ]
      },
      "properties": {
        "stratum": "landscape_ecology",
        "botanical_analysis": "- **Species Composition:** Mature urban specimens of *Platanus \u00d7 acerifolia* (London plane), *Tilia cordata* (Small-leaved lime), and *Acer pseudoplatanus* (Sycamore).\n- **Date Phenology (Late September):** Full-volume canopies exhibiting early autumn chlorosis, foliage turning pale lime-green to ochre with modest leaf loss exposing structural branch framework.\n- **Ground Flora:** Maintained *Festuca rubra* and *Poa pratensis* parkland turf.",
        "foliage_rectification": "Disambiguated from masonry mesh"
      }
    },
    {
      "type": "Feature",
      "id": "stratum_5_built_environment",
      "geometry": {
        "type": "Point",
        "coordinates": [
          -3.2062675275652035,
          55.95127144842705
        ]
      },
      "properties": {
        "stratum": "built_environment",
        "architectural_summary": "- **Central Monument (West Register House):** Neoclassical monumental church design (Robert Reid/Robert Adam, 1814). Features a rusticated basement, colossal Ionic tetrastyle pedimented portico, stepped square attic, circular peristyle drum with Corinthian columns, and a hemispherical copper-clad dome capped by an open stone lantern.\n- **Residential Pavilions (Charlotte Square Fa\u00e7ades):** Symmetrical 3-storey plus attic and basement Georgian townhouse blocks. Features channelled ashlar rustication on ground floors, upper-storey ashlar masonry, crisp molded string courses, dentiled cornices, 6-over-6 and 12-over-12 double-hung timber sash-and-case windows, ashlar chimney stacks, and Ballachulish slate roofs.",
        "structures": [
          {
            "name": "Primary Facade",
            "storeys": 2,
            "height_m": 7.5,
            "roof_geometry": "pitched / parapet",
            "facade_material": "authentic regional masonry",
            "planar_rectification": "ENFORCED"
          }
        ]
      }
    },
    {
      "type": "Feature",
      "id": "stratum_6_dynamic_elements",
      "geometry": {
        "type": "Point",
        "coordinates": [
          -3.2062675275652035,
          55.95127144842705
        ]
      },
      "properties": {
        "stratum": "dynamic_elements",
        "transient_decluttering": "ENFORCED",
        "vehicles": "NONE",
        "pedestrians": "NONE",
        "transient_clutter": "STRIPPED",
        "permanent_civil_fabric": "PRESERVED"
      }
    },
    {
      "type": "Feature",
      "id": "stratum_7_atmospheric_state",
      "geometry": null,
      "properties": {
        "stratum": "atmospheric_state",
        "lighting_rig": "SOLAR_EPHEMERIS",
        "timestamp_utc": "2026-09-23T16:03:00+00:00",
        "weather_state": "RAIN",
        "solar_azimuth_deg": 244.05,
        "solar_elevation_deg": 16.68,
        "shadow_azimuth_deg": null,
        "color_temperature_k": 4500,
        "ambient_illuminance_lux": 35000
      }
    }
  ]
}