{
  "type": "FeatureCollection",
  "properties": {
    "address": "x, Shandwick Pl, Edinburgh EH2 4RG, UK",
    "spatial_mode": "3D_TILES",
    "schema_version": "7-Strata-v2.0"
  },
  "features": [
    {
      "type": "Feature",
      "id": "stratum_1_observer_frame",
      "geometry": {
        "type": "Point",
        "coordinates": [
          -3.208714998215679,
          55.949833916796905
        ]
      },
      "properties": {
        "stratum": "observer_frame",
        "spatial_mode": "3D_TILES",
        "camera": {
          "altitude_m_agl": 136.8,
          "pitch_deg": 5.3,
          "heading_deg": 256.8,
          "fov_deg": 60.0
        }
      }
    },
    {
      "type": "Feature",
      "id": "stratum_2_subterranean_geology",
      "geometry": {
        "type": "Point",
        "coordinates": [
          -3.208714998215679,
          55.949833916796905
        ]
      },
      "properties": {
        "stratum": "subterranean_geology",
        "foundation_analysis": "The subterranean geology of Edinburgh's West End comprises Early Carboniferous sedimentary bedrock of the Strathclyde Group (Gullane and Wardie Formations), overlain by stiff glacial till. The indigenous stone defining the historic streetscape is primarily Craigleith quartz-arenite sandstone\u2014a pale buff-to-grey, fine-to-medium-grained sandstone with high silica cementation that exhibits immense structural strength and resistance to marine salts. The historic building envelopes are bound using traditional non-hydraulic to weakly hydraulic slaked lime (calcium hydroxide) mortars with sharp local sand aggregate, allowing natural moisture evaporation across the massive load-bearing masonry walls. Subterranean drainage flows down the gentle western gradient toward the Water of Leith basin."
      }
    },
    {
      "type": "Feature",
      "id": "stratum_3_ground_surface",
      "geometry": {
        "type": "Point",
        "coordinates": [
          -3.208714998215679,
          55.949833916796905
        ]
      },
      "properties": {
        "stratum": "ground_surface",
        "primary_surfacing": "Engineered roadway and paved pedestrian curbs",
        "wear_characteristics": "Authentic environmental patina and drainage grading"
      }
    },
    {
      "type": "Feature",
      "id": "stratum_4_landscape_ecology",
      "geometry": {
        "type": "Point",
        "coordinates": [
          -3.208714998215679,
          55.949833916796905
        ]
      },
      "properties": {
        "stratum": "landscape_ecology",
        "botanical_analysis": "Along the distant background and flanking urban pockets:\n- Mature, leafy urban deciduous canopies including London Plane (*Platanus \u00d7 acerifolia*), Wych Elm (*Ulmus glabra*), and Sycamore (*Acer pseudoplatanus*).\n- Dense, organic summer foliage with varying hues of deep emerald and olive green, showing intricate natural branch bifurcations without synthetic or crystalline mesh artifacts.",
        "foliage_rectification": "Disambiguated from masonry mesh"
      }
    },
    {
      "type": "Feature",
      "id": "stratum_5_built_environment",
      "geometry": {
        "type": "Point",
        "coordinates": [
          -3.208714998215679,
          55.949833916796905
        ]
      },
      "properties": {
        "stratum": "built_environment",
        "architectural_summary": "Looking west-southwest along Shandwick Place (A737/A8 corridor):\n- **Foreground / Mid-ground Right:** Multi-storey late Victorian / Edwardian tenement and commercial blocks (4 storeys plus prominent mansard attic level). Rectified planar facades feature crisp stone ashlar courses, molded string courses, corbelled eaves, and regular vertical bays of rectangular and pedimented sash-and-case windows with projecting zinc/lead-clad dormer windows on steep slate roofs.\n- **Mid-ground Center-Left:** The monumental clock tower of the former St George\u2019s Free Church (now St George's West, designed by David Bryce, tower completed by Sir Robert Rowand Anderson, 1879\u201381). It rises as a tall, rectilinear campanile in Italianate/Romanesque revival ashlar stone with belfry openings, bracketed cornices, and terminates in a copper pyramid spire with turquoise-green verdigris.\n- **Distant Center / Skyline:** The three towering Gothic Revival spires of St Mary\u2019s Episcopal Cathedral (designed by Sir George Gilbert Scott, consecrated 1879). The colossal central tower and spire (rising ~90 meters) flanked by twin western towers (the 'Mary' and 'Barbara' spires) exhibit soaring vertical buttressing, lancet windows, crocketed finials, and pierced stone parapets.\n- **Street Level / Left:** Wide avenue featuring integrated Edinburgh Trams steel track infrastructure recessed flush with asphalt and granite setts, framed by continuous ashlar-faced Georgian and Victorian West End commercial frontages.",
        "structures": [
          {
            "name": "Primary Facade",
            "storeys": 2,
            "height_m": 7.5,
            "roof_geometry": "pitched / parapet",
            "facade_material": "authentic regional masonry",
            "planar_rectification": "ENFORCED"
          }
        ]
      }
    },
    {
      "type": "Feature",
      "id": "stratum_6_dynamic_elements",
      "geometry": {
        "type": "Point",
        "coordinates": [
          -3.208714998215679,
          55.949833916796905
        ]
      },
      "properties": {
        "stratum": "dynamic_elements",
        "transient_decluttering": "ENFORCED",
        "vehicles": "NONE",
        "pedestrians": "NONE",
        "transient_clutter": "STRIPPED",
        "permanent_civil_fabric": "PRESERVED"
      }
    },
    {
      "type": "Feature",
      "id": "stratum_7_atmospheric_state",
      "geometry": null,
      "properties": {
        "stratum": "atmospheric_state",
        "lighting_rig": "SOLAR_EPHEMERIS",
        "timestamp_utc": "2026-08-26T15:21:50.091600+00:00",
        "weather_state": "SUNNY",
        "temperature_c": 15.0,
        "solar_azimuth_deg": 302.46,
        "solar_elevation_deg": 32.03,
        "shadow_azimuth_deg": 122.5,
        "color_temperature_k": 5400,
        "ambient_illuminance_lux": 60000
      }
    }
  ]
}