{
  "type": "FeatureCollection",
  "properties": {
    "address": "Forth House, Edinburgh EH1 2BW, UK",
    "spatial_mode": "3D_TILES",
    "schema_version": "7-Strata-v2.0"
  },
  "features": [
    {
      "type": "Feature",
      "id": "stratum_1_observer_frame",
      "geometry": {
        "type": "Point",
        "coordinates": [
          -3.2092917616902716,
          55.94858189245399
        ]
      },
      "properties": {
        "stratum": "observer_frame",
        "spatial_mode": "3D_TILES",
        "camera": {
          "altitude_m_agl": 162.7,
          "pitch_deg": -11.8,
          "heading_deg": 319.9,
          "fov_deg": 60.0
        }
      }
    },
    {
      "type": "Feature",
      "id": "stratum_2_subterranean_geology",
      "geometry": {
        "type": "Point",
        "coordinates": [
          -3.2092917616902716,
          55.94858189245399
        ]
      },
      "properties": {
        "stratum": "subterranean_geology",
        "foundation_analysis": "- **Subterranean Bedrock**: The site rests on the Lower Carboniferous sedimentary sequence of the Strathclyde Group (Gullane and Wardie Formations), characterized by interbedded siltstones, mudstones, and thick quartz-arenite sandstone units formed within ancient river deltas, overlying deep volcanic basalt sills characteristic of the Lothian basin.\n- **Indigenous Masonry Lithics**: The primary historic structures are built from local Scottish Carboniferous sandstones, predominantly pale blond-to-buff **Craigleith sandstone** (exceptionally durable, dense quartz-arenite) and secondary **Hailes sandstone** (distinctive fine-grained laminated grey-brown stone). Contrast masonry features red clay facing bricks and red Locharbriggs/Dumfriesshire Permo-Triassic sandstone accents on post-Victorian infills.\n- **Mortar & Foundations**: Traditional non-hydraulic to feebly hydraulic hot-mixed lime mortars (slaked quicklime with sharp silica pit sand aggregate) used throughout the 19th-century ashlar joints and rubble core backings.\n- **Hydrogeology & Drainage**: Highly permeable glacial till overlying sandstone fissures directs subsurface runoff toward the Water of Leith basin to the north."
      }
    },
    {
      "type": "Feature",
      "id": "stratum_3_ground_surface",
      "geometry": {
        "type": "Point",
        "coordinates": [
          -3.2092917616902716,
          55.94858189245399
        ]
      },
      "properties": {
        "stratum": "ground_surface",
        "primary_surfacing": "Engineered roadway and paved pedestrian curbs",
        "wear_characteristics": "Authentic environmental patina and drainage grading"
      }
    },
    {
      "type": "Feature",
      "id": "stratum_4_landscape_ecology",
      "geometry": {
        "type": "Point",
        "coordinates": [
          -3.2092917616902716,
          55.94858189245399
        ]
      },
      "properties": {
        "stratum": "landscape_ecology",
        "botanical_analysis": "- **Canopy & Vegetation Disambiguation**: Dense green clumps rendered strictly as botanical canopies rather than solid polygonal volume.\n- **Species Composition**:\n  - Street & Garden Squares: Mature *Platanus x acerifolia* (London plane), *Acer pseudoplatanus* (Sycamore), *Fraxinus excelsior* (European ash), and *Tilia cordata* (Small-leaved lime) with naturalistic, intricate branch scaffolds and realistic foliage density.\n  - Background: Distant deciduous woodland belts lining Drumsheugh Gardens, Dean Valley, and the wooded slopes of Corstorphine Hill.",
        "foliage_rectification": "Disambiguated from masonry mesh"
      }
    },
    {
      "type": "Feature",
      "id": "stratum_5_built_environment",
      "geometry": {
        "type": "Point",
        "coordinates": [
          -3.2092917616902716,
          55.94858189245399
        ]
      },
      "properties": {
        "stratum": "built_environment",
        "architectural_summary": "- **Centerpiece Structure (Mother 4 Grounding)**: The prominent ecclesiastical campanile is **Charlotte Chapel / former St George\u2019s West Church** (58 Shandwick Place, architects David Bryce, 1866\u20131869, with the Venetian Renaissance campanile by Sir Robert Rowand Anderson, 1879\u20131881).\n  - *Massing*: 56-meter (184 ft) free-standing style 4-stage campanile tower terminating in an open columnar loggia belfry topped by an octagonal copper-clad pyramidal spire.\n  - *Rectification*: Plumb vertical lines of the campanile to exact 90\u00b0 true gravity alignment. Straighten the segmented classical cornices, pilastered pediments, round-headed Gibbsian windows, and the giant-order Corinthian corner pilasters of the church hall.\n- **Flanking Fabric & Urban Grid**:\n  - *Left (West End / Shandwick Place)*: 4-to-5 storey Victorian and late-Georgian classical tenements, with horizontal ashlar string courses, rusticated ground floors, continuous molded eaves, and timber-framed 12-pane sash-and-case windows.\n  - *Right (Stafford Street & Melville Street corridors)*: Regular 3-and-4 storey Georgian New Town row facades with regular chimney stacks, lead flashing, slate-pitched hipped roofs, and canted/pedimented dormers.\n  - *Foreground Structure*: 4-storey commercial tenement with flat-lead/felt roof coping, red brick party walls, and blonde Craigleith ashlar dressing.\n  - *Distant Skyline*: The gentle roll of the Forth Valley and the volcanic Corstorphine Hill ridge forming the northwest horizon.",
        "structures": [
          {
            "name": "Primary Facade",
            "storeys": 2,
            "height_m": 7.5,
            "roof_geometry": "pitched / parapet",
            "facade_material": "authentic regional masonry",
            "planar_rectification": "ENFORCED"
          }
        ]
      }
    },
    {
      "type": "Feature",
      "id": "stratum_6_dynamic_elements",
      "geometry": {
        "type": "Point",
        "coordinates": [
          -3.2092917616902716,
          55.94858189245399
        ]
      },
      "properties": {
        "stratum": "dynamic_elements",
        "transient_decluttering": "ENFORCED",
        "vehicles": "NONE",
        "pedestrians": "NONE",
        "transient_clutter": "STRIPPED",
        "permanent_civil_fabric": "PRESERVED"
      }
    },
    {
      "type": "Feature",
      "id": "stratum_7_atmospheric_state",
      "geometry": null,
      "properties": {
        "stratum": "atmospheric_state",
        "lighting_rig": "SOLAR_EPHEMERIS",
        "timestamp_utc": "2026-08-26T18:56:00+00:00",
        "weather_state": "OVERCAST",
        "temperature_c": 17.7,
        "solar_azimuth_deg": 255.63,
        "solar_elevation_deg": 3.11,
        "shadow_azimuth_deg": 75.6,
        "color_temperature_k": 3200,
        "ambient_illuminance_lux": 12000
      }
    }
  ]
}