{
  "type": "FeatureCollection",
  "properties": {
    "address": "43 St Andrew Sq, Edinburgh EH2 2AD, UK",
    "spatial_mode": "3D_TILES",
    "schema_version": "7-Strata-v2.0"
  },
  "features": [
    {
      "type": "Feature",
      "id": "stratum_1_observer_frame",
      "geometry": {
        "type": "Point",
        "coordinates": [
          -3.1948613332386016,
          55.954660121583075
        ]
      },
      "properties": {
        "stratum": "observer_frame",
        "spatial_mode": "3D_TILES",
        "camera": {
          "altitude_m_agl": 10.7,
          "pitch_deg": -11.6,
          "heading_deg": 120.1,
          "fov_deg": 60.0
        }
      }
    },
    {
      "type": "Feature",
      "id": "stratum_2_subterranean_geology",
      "geometry": {
        "type": "Point",
        "coordinates": [
          -3.1948613332386016,
          55.954660121583075
        ]
      },
      "properties": {
        "stratum": "subterranean_geology",
        "foundation_analysis": "Subterranean foundation consists of Carboniferous sedimentary bedrock (sandstones, siltstones, and oil-shales of the Strathclyde Group) overlain by dense Devensian glacial till. Structural masonry across the historic urban perimeter comprises fine-to-medium-grained Carboniferous quartz-arenite Craigleith and Hailes sandstones, bedded in hydraulic lime and sand mortar. Distant topography features the volcanic basaltic neck and teschenite sill intrusions of Arthur's Seat and Salisbury Crags."
      }
    },
    {
      "type": "Feature",
      "id": "stratum_3_ground_surface",
      "geometry": {
        "type": "Point",
        "coordinates": [
          -3.1948613332386016,
          55.954660121583075
        ]
      },
      "properties": {
        "stratum": "ground_surface",
        "primary_surfacing": "Engineered roadway and paved pedestrian curbs",
        "wear_characteristics": "Authentic environmental patina and drainage grading"
      }
    },
    {
      "type": "Feature",
      "id": "stratum_4_landscape_ecology",
      "geometry": {
        "type": "Point",
        "coordinates": [
          -3.1948613332386016,
          55.954660121583075
        ]
      },
      "properties": {
        "stratum": "landscape_ecology",
        "botanical_analysis": "Circumferential urban parkland planted with mature broadleaf specimens:\n- *Acer pseudoplatanus* (Sycamore): Heavy-limbed, broad rounded canopies with flaking plate-like bark.\n- *Tilia \u00d7 europaea* (Common Lime): Dense pyramidal to ovate canopies with characteristic trunk-base epicormic shoots.\n- *Ulmus glabra* (Wych Elm) and *Betula pendula* (Silver Birch): Upright and weeping branching structures forming perimeter shelterbelts.\nGround cover consists of maintained *Lolium perenne* and *Poa pratensis* turf.",
        "foliage_rectification": "Disambiguated from masonry mesh"
      }
    },
    {
      "type": "Feature",
      "id": "stratum_5_built_environment",
      "geometry": {
        "type": "Point",
        "coordinates": [
          -3.1948613332386016,
          55.954660121583075
        ]
      },
      "properties": {
        "stratum": "built_environment",
        "architectural_summary": "Central garden square dominated by the Melville Monument: a 46-metre fluted Roman Doric sandstone column atop a two-tiered rusticated square pedestal, surmounted by a heroic standing stone statue. Perimeter architecture forms a dense continuous street wall:\n- Northeast/East: 3- to 5-storey Georgian and Victorian Classical palazzo-style banking halls and townhouses featuring rusticated ashlar basements, piano nobile window pediments, giant-order Corinthian and Ionic pilastrades, entablatures, and balustraded roof parapets punctured by lead-dressed dormers and masonry chimney stacks.\n- Southeast/South: Late Victorian French Renaissance/Baronial commercial blocks and railway hotel with a multi-tiered Baronial clock tower; adjacent 20th/21st-century commercial infill featuring vertical structural stone louvres, recessed curtain-wall glazing, and flat plant-screen parapets.\n- Background: Arthur's Seat crag profile and the cylindrical Nelson Monument on Calton Hill.",
        "structures": [
          {
            "name": "Primary Facade",
            "storeys": 2,
            "height_m": 7.5,
            "roof_geometry": "pitched / parapet",
            "facade_material": "authentic regional masonry",
            "planar_rectification": "ENFORCED"
          }
        ]
      }
    },
    {
      "type": "Feature",
      "id": "stratum_6_dynamic_elements",
      "geometry": {
        "type": "Point",
        "coordinates": [
          -3.1948613332386016,
          55.954660121583075
        ]
      },
      "properties": {
        "stratum": "dynamic_elements",
        "transient_decluttering": "ENFORCED",
        "vehicles": "NONE",
        "pedestrians": "NONE",
        "transient_clutter": "STRIPPED",
        "permanent_civil_fabric": "PRESERVED"
      }
    },
    {
      "type": "Feature",
      "id": "stratum_7_atmospheric_state",
      "geometry": null,
      "properties": {
        "stratum": "atmospheric_state",
        "lighting_rig": "SOLAR_EPHEMERIS",
        "timestamp_utc": "2026-06-21T11:00:00+00:00",
        "weather_state": "OVERCAST",
        "solar_azimuth_deg": 149.66,
        "solar_elevation_deg": 54.76,
        "shadow_azimuth_deg": null,
        "color_temperature_k": 5800,
        "ambient_illuminance_lux": 85000
      }
    }
  ]
}