{
  "type": "FeatureCollection",
  "properties": {
    "address": "80 George St, Edinburgh EH2 3BU, UK",
    "spatial_mode": "3D_TILES",
    "schema_version": "7-Strata-v2.0"
  },
  "features": [
    {
      "type": "Feature",
      "id": "stratum_1_observer_frame",
      "geometry": {
        "type": "Point",
        "coordinates": [
          -3.2011566030636307,
          55.95283497468759
        ]
      },
      "properties": {
        "stratum": "observer_frame",
        "spatial_mode": "3D_TILES",
        "camera": {
          "altitude_m_agl": 124.8,
          "pitch_deg": 1.6,
          "heading_deg": 73.0,
          "fov_deg": 60.0
        }
      }
    },
    {
      "type": "Feature",
      "id": "stratum_2_subterranean_geology",
      "geometry": {
        "type": "Point",
        "coordinates": [
          -3.2011566030636307,
          55.95283497468759
        ]
      },
      "properties": {
        "stratum": "subterranean_geology",
        "foundation_analysis": "- Bedrock: Carboniferous sedimentary strata of the Gullane Formation (Strathclyde Group), composed of interbedded pale sandstones, siltstones, and mudstones overlying regional volcanic basalt and dolerite sills.\n- Facade Lithics: Primary building stone is fine-grained, siliceous Craigleith sandstone (\"liver rock\" variety), ranging in hue from pale cream to silver-grey, with subordinate Hailes sandstone in rear walls and foundations.\n- Statuary Lithics: Monumental pedestal composed of dressed, fine-grained Scottish granite (Peterhead/Aberdeenshire) with fine-honed margins.\n- Mortar Chemistry: Traditional hot-mixed slaked non-hydraulic to weakly hydraulic lime mortar with washed quartz aggregate in hairline 2\u20133mm ashlar joints.\n- Hydrology & Subterranean Dynamics: Permeable glacial till overburden over sloping sandstone bedrock, providing natural northern subterranean drainage toward the Firth of Forth basin."
      }
    },
    {
      "type": "Feature",
      "id": "stratum_3_ground_surface",
      "geometry": {
        "type": "Point",
        "coordinates": [
          -3.2011566030636307,
          55.95283497468759
        ]
      },
      "properties": {
        "stratum": "ground_surface",
        "primary_surfacing": "Engineered roadway and paved pedestrian curbs",
        "wear_characteristics": "Authentic environmental patina and drainage grading"
      }
    },
    {
      "type": "Feature",
      "id": "stratum_4_landscape_ecology",
      "geometry": {
        "type": "Point",
        "coordinates": [
          -3.2011566030636307,
          55.95283497468759
        ]
      },
      "properties": {
        "stratum": "landscape_ecology",
        "botanical_analysis": "- Urban Botanical Anchors: Specimen plantings of *Acer pseudoplatanus* (Sycamore) and *Tilia \u00d7 europaea* (Common Lime) along peripheral junctions and distant garden squares.\n- Date-Grounded Phenology (Late August): Full, mature summer foliage canopy with dense, dark-green broadleaf laminas showing initial late-summer chlorophyll degradation, localized leaf-margin desiccation, and intact seed samaras/bracts.",
        "foliage_rectification": "Disambiguated from masonry mesh"
      }
    },
    {
      "type": "Feature",
      "id": "stratum_5_built_environment",
      "geometry": {
        "type": "Point",
        "coordinates": [
          -3.2011566030636307,
          55.95283497468759
        ]
      },
      "properties": {
        "stratum": "built_environment",
        "architectural_summary": "- Typology: Edinburgh New Town late-18th/early-19th-century Georgian neoclassical terraces and Victorian commercial adaptations planned along James Craig\u2019s axial grid.\n- Massing & Heights: Symmetrical 3-to-4-storey terraced blocks over sunken basement lightwells, terminated by slate-clad pitched mansard roofs with regular gabled and flat-topped dormer windows.\n- Fenestration Grid: Strictly aligned vertical bays featuring timber-framed sash-and-case windows (predominantly 6-over-6 and 2-over-2 glazing pane divisions) within crisp, chamfered ashlar reveals.\n- Ground Floor Treatment: Deeply channelled V-groove rustication on sandstone ground floors, punctuated by semicircular arch-headed doorways, classical entablatures, moulded string courses, and modillion eaves cornices.\n- Axial Centerpiece: Bronze monument of William Pitt the Younger (Sir Francis Chantrey, 1833) set on a tall, square-section pedestal at the Frederick Street intersection; background axial termination aligns with the fluted Roman Doric column of the Melville Monument (William Burn) in St Andrew Square.\n- Planar Rectification: Complete plumb rectification of all facade planes, chimney stacks, and parapet lines; eradication of photogrammetric mesh distortion and facade bowing.",
        "structures": [
          {
            "name": "Primary Facade",
            "storeys": 2,
            "height_m": 7.5,
            "roof_geometry": "pitched / parapet",
            "facade_material": "authentic regional masonry",
            "planar_rectification": "ENFORCED"
          }
        ]
      }
    },
    {
      "type": "Feature",
      "id": "stratum_6_dynamic_elements",
      "geometry": {
        "type": "Point",
        "coordinates": [
          -3.2011566030636307,
          55.95283497468759
        ]
      },
      "properties": {
        "stratum": "dynamic_elements",
        "transient_decluttering": "ENFORCED",
        "vehicles": "NONE",
        "pedestrians": "NONE",
        "transient_clutter": "STRIPPED",
        "permanent_civil_fabric": "PRESERVED"
      }
    },
    {
      "type": "Feature",
      "id": "stratum_7_atmospheric_state",
      "geometry": null,
      "properties": {
        "stratum": "atmospheric_state",
        "lighting_rig": "SOLAR_EPHEMERIS",
        "timestamp_utc": "2026-08-28T11:54:47.277585+00:00",
        "weather_state": "OVERCAST",
        "temperature_c": 19.4,
        "solar_azimuth_deg": 6.72,
        "solar_elevation_deg": 43.88,
        "shadow_azimuth_deg": 186.7,
        "color_temperature_k": 5400,
        "ambient_illuminance_lux": 60000
      }
    }
  ]
}