{
  "type": "FeatureCollection",
  "properties": {
    "address": "1 W Register St, Edinburgh EH2 2AA, UK",
    "spatial_mode": "3D_TILES",
    "schema_version": "7-Strata-v2.0"
  },
  "features": [
    {
      "type": "Feature",
      "id": "stratum_1_observer_frame",
      "geometry": {
        "type": "Point",
        "coordinates": [
          -3.1897379527696796,
          55.95413308385509
        ]
      },
      "properties": {
        "stratum": "observer_frame",
        "spatial_mode": "3D_TILES",
        "camera": {
          "altitude_m_agl": 71.2,
          "pitch_deg": -17.2,
          "heading_deg": 274.1,
          "fov_deg": 60.0
        }
      }
    },
    {
      "type": "Feature",
      "id": "stratum_2_subterranean_geology",
      "geometry": {
        "type": "Point",
        "coordinates": [
          -3.1897379527696796,
          55.95413308385509
        ]
      },
      "properties": {
        "stratum": "subterranean_geology",
        "foundation_analysis": "Bedrock: Lower Carboniferous sedimentary sandstone (Inverclyde Group / Calciferous Sandstone Measures) overlain by dense glacial till. Primary structural lithics comprise Craigleith and Hailes pale buff-to-grey quartzose sandstone ashlar, bonded with hydraulic lime mortar. Base courses incorporate fine-grained Scottish granite and basalt (whinstone)."
      }
    },
    {
      "type": "Feature",
      "id": "stratum_3_ground_surface",
      "geometry": {
        "type": "Point",
        "coordinates": [
          -3.1897379527696796,
          55.95413308385509
        ]
      },
      "properties": {
        "stratum": "ground_surface",
        "primary_surfacing": "Engineered roadway and paved pedestrian curbs",
        "wear_characteristics": "Authentic environmental patina and drainage grading"
      }
    },
    {
      "type": "Feature",
      "id": "stratum_4_landscape_ecology",
      "geometry": {
        "type": "Point",
        "coordinates": [
          -3.1897379527696796,
          55.95413308385509
        ]
      },
      "properties": {
        "stratum": "landscape_ecology",
        "botanical_analysis": "Mature urban broadleaf canopy within St Andrew Square Gardens. Species include *Platanus \u00d7 acerifolia* (London plane), *Acer pseudoplatanus* (Sycamore), and *Tilia cordata* (Small-leaved lime). Late-September phenology: dense canopies exhibiting early chlorosis, yellow-brown margin discoloration, and light leaf shed over manicured *Lolium perenne* turf.",
        "foliage_rectification": "Disambiguated from masonry mesh"
      }
    },
    {
      "type": "Feature",
      "id": "stratum_5_built_environment",
      "geometry": {
        "type": "Point",
        "coordinates": [
          -3.1897379527696796,
          55.95413308385509
        ]
      },
      "properties": {
        "stratum": "built_environment",
        "architectural_summary": "Neoclassical, Georgian New Town, and Victorian commercial civic architecture anchored by the 46-metre fluted Craigleith sandstone Roman Doric Melville Monument. Surrounding blocks range from 4 to 6 storeys with rusticated basements, piano nobile sash fenestration, dentiled cornices, and ashlar parapets. Infill includes mid-to-late 20th-century reinforced concrete frames with planar curtain-wall glazing. Roofs feature multi-pitched Scottish slate, lead flashing, dormers, and standing-seam copper mansards.",
        "structures": [
          {
            "name": "Primary Facade",
            "storeys": 2,
            "height_m": 7.5,
            "roof_geometry": "pitched / parapet",
            "facade_material": "authentic regional masonry",
            "planar_rectification": "ENFORCED"
          }
        ]
      }
    },
    {
      "type": "Feature",
      "id": "stratum_6_dynamic_elements",
      "geometry": {
        "type": "Point",
        "coordinates": [
          -3.1897379527696796,
          55.95413308385509
        ]
      },
      "properties": {
        "stratum": "dynamic_elements",
        "transient_decluttering": "ENFORCED",
        "vehicles": "NONE",
        "pedestrians": "NONE",
        "transient_clutter": "STRIPPED",
        "permanent_civil_fabric": "PRESERVED"
      }
    },
    {
      "type": "Feature",
      "id": "stratum_7_atmospheric_state",
      "geometry": null,
      "properties": {
        "stratum": "atmospheric_state",
        "lighting_rig": "SOLAR_EPHEMERIS",
        "timestamp_utc": "2026-09-22T05:42:00+00:00",
        "weather_state": "FOG",
        "solar_azimuth_deg": 84.7,
        "solar_elevation_deg": -2.68,
        "shadow_azimuth_deg": null,
        "color_temperature_k": 2200,
        "ambient_illuminance_lux": 800
      }
    }
  ]
}