{
  "type": "FeatureCollection",
  "properties": {
    "address": "9 Ainslie Pl, Edinburgh EH3 6AT, UK",
    "spatial_mode": "3D_TILES",
    "schema_version": "7-Strata-v2.0"
  },
  "features": [
    {
      "type": "Feature",
      "id": "stratum_1_observer_frame",
      "geometry": {
        "type": "Point",
        "coordinates": [
          -3.210687571427369,
          55.953578948184465
        ]
      },
      "properties": {
        "stratum": "observer_frame",
        "spatial_mode": "3D_TILES",
        "camera": {
          "altitude_m_agl": 13.8,
          "pitch_deg": -7.3,
          "heading_deg": 137.6,
          "fov_deg": 60.0
        }
      }
    },
    {
      "type": "Feature",
      "id": "stratum_2_subterranean_geology",
      "geometry": {
        "type": "Point",
        "coordinates": [
          -3.210687571427369,
          55.953578948184465
        ]
      },
      "properties": {
        "stratum": "subterranean_geology",
        "foundation_analysis": "- Bedrock: Carboniferous sedimentary strata (Calciferous Sandstone Measures of the Edinburgh Midland Valley basin).\n- Building Lithics: Fine-to-medium grained pale buff Craigleith and Hailes sandstones; Carboniferous quartz-arenite.\n- Mortar Chemistry: Traditional hot-mixed lime mortar with local river aggregate and pozzolanic additives.\n- Hydrology: Well-drained glacial till over basaltic intrusions, sloping towards the Water of Leith basin."
      }
    },
    {
      "type": "Feature",
      "id": "stratum_3_ground_surface",
      "geometry": {
        "type": "Point",
        "coordinates": [
          -3.210687571427369,
          55.953578948184465
        ]
      },
      "properties": {
        "stratum": "ground_surface",
        "primary_surfacing": "Engineered roadway and paved pedestrian curbs",
        "wear_characteristics": "Authentic environmental patina and drainage grading"
      }
    },
    {
      "type": "Feature",
      "id": "stratum_4_landscape_ecology",
      "geometry": {
        "type": "Point",
        "coordinates": [
          -3.210687571427369,
          55.953578948184465
        ]
      },
      "properties": {
        "stratum": "landscape_ecology",
        "botanical_analysis": "- Canopy Taxa: *Acer pseudoplatanus* (Sycamore), *Fraxinus excelsior* (Ash), *Ulmus glabra* (Wych Elm), and *Tilia cordata* (Small-leaved Lime).\n- Phenology (Late October): Autumnal senescence; canopies display 40\u201360% defoliation, yellow-brown chlorotic leaves, exposed branching structure, and fallen leaf litter on turf.",
        "foliage_rectification": "Disambiguated from masonry mesh"
      }
    },
    {
      "type": "Feature",
      "id": "stratum_5_built_environment",
      "geometry": {
        "type": "Point",
        "coordinates": [
          -3.210687571427369,
          55.953578948184465
        ]
      },
      "properties": {
        "stratum": "built_environment",
        "architectural_summary": "- Typology: Neoclassical Georgian circus townhouses (Moray Estate, 1822\u20131830, designed by James Gillespie Graham).\n- Massing & Storeys: Four storeys including rusticated basement lightwells and attic storeys with slate-hung dormers.\n- Planar Rectification: All facade planes rectified plumb vertical; continuous horizontal string courses, plat bands, and cornice balustrades aligned.\n- Fenestration: Symmetrical grids of 12-pane and 6-over-6 timber sash-and-case windows set within droved ashlar reveals.\n- Roof Geometry: Timber pitched roofs clad in Scottish slate with regular ashlar chimney stacks and terracotta pots.",
        "structures": [
          {
            "name": "Primary Facade",
            "storeys": 2,
            "height_m": 7.5,
            "roof_geometry": "pitched / parapet",
            "facade_material": "authentic regional masonry",
            "planar_rectification": "ENFORCED"
          }
        ]
      }
    },
    {
      "type": "Feature",
      "id": "stratum_6_dynamic_elements",
      "geometry": {
        "type": "Point",
        "coordinates": [
          -3.210687571427369,
          55.953578948184465
        ]
      },
      "properties": {
        "stratum": "dynamic_elements",
        "transient_decluttering": "ENFORCED",
        "vehicles": "NONE",
        "pedestrians": "NONE",
        "transient_clutter": "STRIPPED",
        "permanent_civil_fabric": "PRESERVED"
      }
    },
    {
      "type": "Feature",
      "id": "stratum_7_atmospheric_state",
      "geometry": null,
      "properties": {
        "stratum": "atmospheric_state",
        "lighting_rig": "SOLAR_EPHEMERIS",
        "timestamp_utc": "2026-10-24T13:09:00+00:00",
        "weather_state": "RAIN",
        "solar_azimuth_deg": 198.93,
        "solar_elevation_deg": 20.89,
        "shadow_azimuth_deg": null,
        "color_temperature_k": 4500,
        "ambient_illuminance_lux": 35000
      }
    }
  ]
}