{
  "type": "FeatureCollection",
  "properties": {
    "address": "9 Belgrave Cres, Edinburgh EH4 3AH, UK",
    "spatial_mode": "3D_TILES",
    "schema_version": "7-Strata-v2.0"
  },
  "features": [
    {
      "type": "Feature",
      "id": "stratum_1_observer_frame",
      "geometry": {
        "type": "Point",
        "coordinates": [
          -3.216766472155142,
          55.953682622313394
        ]
      },
      "properties": {
        "stratum": "observer_frame",
        "spatial_mode": "3D_TILES",
        "camera": {
          "altitude_m_agl": 1.4,
          "pitch_deg": 4.5,
          "heading_deg": 95.8,
          "fov_deg": 60.0
        }
      }
    },
    {
      "type": "Feature",
      "id": "stratum_2_subterranean_geology",
      "geometry": {
        "type": "Point",
        "coordinates": [
          -3.216766472155142,
          55.953682622313394
        ]
      },
      "properties": {
        "stratum": "subterranean_geology",
        "foundation_analysis": "Subterranean Carboniferous sedimentary strata (sandstone, siltstone, and mudstone) interspersed with igneous dolerite intrusions along the Water of Leith valley. Structural masonry composed of local Craigleith and Hailes pale buff-to-grey quartz-rich sandstone. Bedding laid with non-hydraulic to weakly hydraulic slaked lime mortar. Sloping alluvial gravels and glacial till ensure rapid urban runoff."
      }
    },
    {
      "type": "Feature",
      "id": "stratum_3_ground_surface",
      "geometry": {
        "type": "Point",
        "coordinates": [
          -3.216766472155142,
          55.953682622313394
        ]
      },
      "properties": {
        "stratum": "ground_surface",
        "primary_surfacing": "Engineered roadway and paved pedestrian curbs",
        "wear_characteristics": "Authentic environmental patina and drainage grading"
      }
    },
    {
      "type": "Feature",
      "id": "stratum_4_landscape_ecology",
      "geometry": {
        "type": "Point",
        "coordinates": [
          -3.216766472155142,
          55.953682622313394
        ]
      },
      "properties": {
        "stratum": "landscape_ecology",
        "botanical_analysis": "Urban woodland margin featuring *Acer pseudoplatanus* (Sycamore) and *Tilia \u00d7 europaea* (Common Lime). Late-November phenology exhibits full autumn defoliation, revealing bare, intricate branch architectures with sparse residual brown leaf clusters and ground-level leaf litter along kerbs.",
        "foliage_rectification": "Disambiguated from masonry mesh"
      }
    },
    {
      "type": "Feature",
      "id": "stratum_5_built_environment",
      "geometry": {
        "type": "Point",
        "coordinates": [
          -3.216766472155142,
          55.953682622313394
        ]
      },
      "properties": {
        "stratum": "built_environment",
        "architectural_summary": "Left: Victorian residential tenement block; planar vertical rectification, three-storey massing with projecting canted multi-tier bay windows, molded stone cornices, and timber 2-over-2 sash-and-case fenestration grids.\nCenter: Gothic Revival ecclesiastical structure; rectangular nave with buttressed bays, pointed-arch fenestration, and a prominent square bell tower topped with crenellated parapets and corner pinnacles.\nSurrounds: Low dressed-sandstone boundary retaining walls along the road corridor.",
        "structures": [
          {
            "name": "Primary Facade",
            "storeys": 2,
            "height_m": 7.5,
            "roof_geometry": "pitched / parapet",
            "facade_material": "authentic regional masonry",
            "planar_rectification": "ENFORCED"
          }
        ]
      }
    },
    {
      "type": "Feature",
      "id": "stratum_6_dynamic_elements",
      "geometry": {
        "type": "Point",
        "coordinates": [
          -3.216766472155142,
          55.953682622313394
        ]
      },
      "properties": {
        "stratum": "dynamic_elements",
        "transient_decluttering": "ENFORCED",
        "vehicles": "NONE",
        "pedestrians": "NONE",
        "transient_clutter": "STRIPPED",
        "permanent_civil_fabric": "PRESERVED"
      }
    },
    {
      "type": "Feature",
      "id": "stratum_7_atmospheric_state",
      "geometry": null,
      "properties": {
        "stratum": "atmospheric_state",
        "lighting_rig": "SOLAR_EPHEMERIS",
        "timestamp_utc": "2026-11-24T15:03:00+00:00",
        "weather_state": "SUNNY",
        "solar_azimuth_deg": 222.34,
        "solar_elevation_deg": 4.4,
        "shadow_azimuth_deg": 42.3,
        "color_temperature_k": 3000,
        "ambient_illuminance_lux": 12000
      }
    }
  ]
}