{
  "type": "FeatureCollection",
  "properties": {
    "address": "x, Shandwick Pl, Edinburgh EH2 4RG, UK",
    "spatial_mode": "3D_TILES",
    "schema_version": "7-Strata-v2.0"
  },
  "features": [
    {
      "type": "Feature",
      "id": "stratum_1_observer_frame",
      "geometry": {
        "type": "Point",
        "coordinates": [
          -3.208714998215679,
          55.949833916796905
        ]
      },
      "properties": {
        "stratum": "observer_frame",
        "spatial_mode": "3D_TILES",
        "camera": {
          "altitude_m_agl": 136.8,
          "pitch_deg": 5.3,
          "heading_deg": 256.8,
          "fov_deg": 60.0
        }
      }
    },
    {
      "type": "Feature",
      "id": "stratum_2_subterranean_geology",
      "geometry": {
        "type": "Point",
        "coordinates": [
          -3.208714998215679,
          55.949833916796905
        ]
      },
      "properties": {
        "stratum": "subterranean_geology",
        "foundation_analysis": "- **Subterranean Bedrock**: Underlain by Lower Carboniferous sedimentary rock formations of the Strathclyde and Inverclyde Groups, featuring cyclical sequences of sandstone, siltstone, mudstone, and oil-shale beds typical of the Lothian basin.\n- **Indigenous Masonry Lithics**: Dominantly high-silica Calciferous Sandstone from historical local Edinburgh quarries, principally Craigleith, Hailes, and Cullalo sandstones. These fine-to-medium-grained quartzose sandstones provide the characteristic pale buff, honey-tinted, and silver-grey ashlar surfaces of Edinburgh's New Town and Victorian West End.\n- **Mortar Chemistry**: Historic hot-mixed non-hydraulic and feebly hydraulic lime mortars (`Ca(OH)2`), formulated with sharp river aggregate and fine crushed sandstone dust, allowing natural vapor breathability across deep masonry joints.\n- **Subterranean Hydrology & Drainage**: Steady subterranean gradient sloping northward toward the Water of Leith basin, with engineered stone box drains and culverts managing high maritime water tables."
      }
    },
    {
      "type": "Feature",
      "id": "stratum_3_ground_surface",
      "geometry": {
        "type": "Point",
        "coordinates": [
          -3.208714998215679,
          55.949833916796905
        ]
      },
      "properties": {
        "stratum": "ground_surface",
        "primary_surfacing": "Engineered roadway and paved pedestrian curbs",
        "wear_characteristics": "Authentic environmental patina and drainage grading"
      }
    },
    {
      "type": "Feature",
      "id": "stratum_4_landscape_ecology",
      "geometry": {
        "type": "Point",
        "coordinates": [
          -3.208714998215679,
          55.949833916796905
        ]
      },
      "properties": {
        "stratum": "landscape_ecology",
        "botanical_analysis": "- **Urban Flora & Tree Species**: Deciduous urban canopies flanking adjacent crescents and gardens (Coates and Atholl Crescent gardens), comprising mature Sycamore (*Acer pseudoplatanus*), Wych Elm (*Ulmus glabra*), European Ash (*Fraxinus excelsior*), and London Plane (*Platanus x acerifolia*).\n- **Foliage Structure**: Densely articulated, organic deep-green leafy canopies with natural branching structures, fully disambiguated from solid stonework.",
        "foliage_rectification": "Disambiguated from masonry mesh"
      }
    },
    {
      "type": "Feature",
      "id": "stratum_5_built_environment",
      "geometry": {
        "type": "Point",
        "coordinates": [
          -3.208714998215679,
          55.949833916796905
        ]
      },
      "properties": {
        "stratum": "built_environment",
        "architectural_summary": "- **Typology & Massing**: \n  - *Left Midground Landmark*: The Italianate Romanesque campanile bell tower of St George's West Church (designed by Sir Robert Rowand Anderson, 1881), rising in multi-tiered ashlar stages to an open belfry topped by a copper-clad pyramidal spire.\n  - *Center-Distance Landmark*: The High Victorian Gothic silhouette of St Mary's Episcopal Cathedral (Sir George Gilbert Scott, 1874\u20131879), featuring three towering spires (a massive central crossing spire reaching 90 meters, flanked by twin western spires completed in 1917).\n  - *Foreground/Flanking Streetwall*: 4-to-5-storey Classical/Victorian tenement blocks and commercial ranges lining Shandwick Place, articulated with ground-floor rusticated stone plinths, continuous string courses, moulded architraves, stone dormers, and steeply pitched slate mansard roofs with heavy ashlar chimney stacks.\n- **Planar Rectification & Anti-Warp Protocol**:\n  - Rectified all vertical wall faces along Shandwick Place to true gravity plumb, eliminating mesh wobble and photogrammetry warping on rooflines and window openings.\n  - Planarized the mansard roof surfaces, sharpening zinc/lead flashing lines and stone pedimented dormers.\n  - Aligned the multi-stage shaft of the St George's West campanile and the vertical soaring piers and pinnacles of St Mary\u2019s Cathedral to exact vertical axes.\n  - Ensured ground plane tram tracks and basalt roadway setts follow a clean, planar descending grade.",
        "structures": [
          {
            "name": "Primary Facade",
            "storeys": 2,
            "height_m": 7.5,
            "roof_geometry": "pitched / parapet",
            "facade_material": "authentic regional masonry",
            "planar_rectification": "ENFORCED"
          }
        ]
      }
    },
    {
      "type": "Feature",
      "id": "stratum_6_dynamic_elements",
      "geometry": {
        "type": "Point",
        "coordinates": [
          -3.208714998215679,
          55.949833916796905
        ]
      },
      "properties": {
        "stratum": "dynamic_elements",
        "transient_decluttering": "ENFORCED",
        "vehicles": "NONE",
        "pedestrians": "NONE",
        "transient_clutter": "STRIPPED",
        "permanent_civil_fabric": "PRESERVED"
      }
    },
    {
      "type": "Feature",
      "id": "stratum_7_atmospheric_state",
      "geometry": null,
      "properties": {
        "stratum": "atmospheric_state",
        "lighting_rig": "SOLAR_EPHEMERIS",
        "timestamp_utc": "2026-08-26T15:21:50.091600+00:00",
        "weather_state": "FOG",
        "temperature_c": 15.0,
        "solar_azimuth_deg": 302.46,
        "solar_elevation_deg": 32.03,
        "shadow_azimuth_deg": 122.5,
        "color_temperature_k": 5400,
        "ambient_illuminance_lux": 60000
      }
    }
  ]
}