{
  "type": "FeatureCollection",
  "properties": {
    "address": "30 Frederick St, Edinburgh EH2 2JR, UK",
    "spatial_mode": "3D_TILES",
    "schema_version": "7-Strata-v2.0"
  },
  "features": [
    {
      "type": "Feature",
      "id": "stratum_1_observer_frame",
      "geometry": {
        "type": "Point",
        "coordinates": [
          -3.200332738308277,
          55.95262595133233
        ]
      },
      "properties": {
        "stratum": "observer_frame",
        "spatial_mode": "3D_TILES",
        "camera": {
          "altitude_m_agl": 126.4,
          "pitch_deg": -1.8,
          "heading_deg": 5.2,
          "fov_deg": 60.0
        }
      }
    },
    {
      "type": "Feature",
      "id": "stratum_2_subterranean_geology",
      "geometry": {
        "type": "Point",
        "coordinates": [
          -3.200332738308277,
          55.95262595133233
        ]
      },
      "properties": {
        "stratum": "subterranean_geology",
        "foundation_analysis": "The subterranean foundation consists of Lower Carboniferous sedimentary sandstone, siltstone, and mudstone of the Strathclyde Group, punctuated by glacial till and hard quartz-dolerite / basalt intrusions characteristic of the Edinburgh volcanic ridge. Primary structural lithics comprise pale buff-to-grey Craigleith and Hailes sandstones (medium-grained quartzose arenite with siliceous and calcareous cementing matrices) laid with traditional non-hydraulic and semi-hydraulic slaked lime mortars. Low-lying northern subterranean drainage falls steadily towards the Water of Leith basin and the Firth of Forth graben."
      }
    },
    {
      "type": "Feature",
      "id": "stratum_3_ground_surface",
      "geometry": {
        "type": "Point",
        "coordinates": [
          -3.200332738308277,
          55.95262595133233
        ]
      },
      "properties": {
        "stratum": "ground_surface",
        "primary_surfacing": "Engineered roadway and paved pedestrian curbs",
        "wear_characteristics": "Authentic environmental patina and drainage grading"
      }
    },
    {
      "type": "Feature",
      "id": "stratum_4_landscape_ecology",
      "geometry": {
        "type": "Point",
        "coordinates": [
          -3.200332738308277,
          55.95262595133233
        ]
      },
      "properties": {
        "stratum": "landscape_ecology",
        "botanical_analysis": "Distant urban canopy within Queen Street Gardens and northern street corridors comprises mature *Ulmus glabra* (Wych Elm), *Acer pseudoplatanus* (Sycamore), and *Tilia \u00d7 europaea* (Common Lime). Canopy architecture is dense, heavy, and fully expanded, displaying deep green late-summer leaf mass with trace chlorophyll depletion on outer crown margins.",
        "foliage_rectification": "Disambiguated from masonry mesh"
      }
    },
    {
      "type": "Feature",
      "id": "stratum_5_built_environment",
      "geometry": {
        "type": "Point",
        "coordinates": [
          -3.200332738308277,
          55.95262595133233
        ]
      },
      "properties": {
        "stratum": "built_environment",
        "architectural_summary": "The scene captures the intersection of George Street and Frederick Street within James Craig\u2019s Georgian First New Town plan, looking north. \n- Right Fore-to-Midground (Northeast Corner): 4-storey plus attic commercial/tenement block (80 George Street / 24\u201326 Frederick Street); ashlar sandstone construction, rusticated ground floor with segmental-headed glazed apertures, upper floors defined by classical architraves, moulded string courses, entablatures, and stone dormer gables set into a steep Scottish slate roof.\n- Left Midground (Northwest Corner & Frederick Street Terraces): 3- to 4-storey late 18th-century Georgian ashlar townhouses stepping downhill; strict planar facades, regular 3-bay modules per tenement, rectilinear fenestration with recessed timber sash-and-case window frames (6-over-6 and 2-over-2 patterns), robust stone chimney stacks with ceramic flue terminals along party parapets.\n- Center Intersection: Category A-listed bronze statue of William Pitt the Younger (Francis Chantrey, 1831) mounted on a tapered, polished Peterhead granite and sandstone plinth seated upon a circular stone sett traffic island.\n- Distant Vista: Axial termination descending to Queen Street Gardens and the distant low skyline of Stockbridge and the Firth of Forth. All mesh warping is rectified into plumb vertical elevations and crisp horizontal parapets.",
        "structures": [
          {
            "name": "Primary Facade",
            "storeys": 2,
            "height_m": 7.5,
            "roof_geometry": "pitched / parapet",
            "facade_material": "authentic regional masonry",
            "planar_rectification": "ENFORCED"
          }
        ]
      }
    },
    {
      "type": "Feature",
      "id": "stratum_6_dynamic_elements",
      "geometry": {
        "type": "Point",
        "coordinates": [
          -3.200332738308277,
          55.95262595133233
        ]
      },
      "properties": {
        "stratum": "dynamic_elements",
        "transient_decluttering": "ENFORCED",
        "vehicles": "NONE",
        "pedestrians": "NONE",
        "transient_clutter": "STRIPPED",
        "permanent_civil_fabric": "PRESERVED"
      }
    },
    {
      "type": "Feature",
      "id": "stratum_7_atmospheric_state",
      "geometry": null,
      "properties": {
        "stratum": "atmospheric_state",
        "lighting_rig": "SOLAR_EPHEMERIS",
        "timestamp_utc": "2026-08-28T11:54:47.079857+00:00",
        "weather_state": "OVERCAST",
        "temperature_c": 19.4,
        "solar_azimuth_deg": 6.72,
        "solar_elevation_deg": 43.88,
        "shadow_azimuth_deg": 186.7,
        "color_temperature_k": 5400,
        "ambient_illuminance_lux": 60000
      }
    }
  ]
}