{
  "type": "FeatureCollection",
  "properties": {
    "address": "46 Charlotte Square, Edinburgh EH2 4HQ, UK",
    "spatial_mode": "3D_TILES",
    "schema_version": "7-Strata-v2.0"
  },
  "features": [
    {
      "type": "Feature",
      "id": "stratum_1_observer_frame",
      "geometry": {
        "type": "Point",
        "coordinates": [
          -3.207001022445717,
          55.952017638556704
        ]
      },
      "properties": {
        "stratum": "observer_frame",
        "spatial_mode": "3D_TILES",
        "camera": {
          "altitude_m_agl": 10.2,
          "pitch_deg": -0.4,
          "heading_deg": 248.4,
          "fov_deg": 60.0
        }
      }
    },
    {
      "type": "Feature",
      "id": "stratum_2_subterranean_geology",
      "geometry": {
        "type": "Point",
        "coordinates": [
          -3.207001022445717,
          55.952017638556704
        ]
      },
      "properties": {
        "stratum": "subterranean_geology",
        "foundation_analysis": "- Bedrock: Carboniferous sedimentary sandstone, siltstone, and mudstone of the Strathclyde Group beneath glacial till.\n- Masonry Lithics: Craigleith and Hailes sandstone (pale buff to grey quartz-arenite).\n- Mortar: Historic hydraulic lime with sharp local aggregate.\n- Subterranean: Glacial till over volcanic/sandstone basement with urban storm drainage."
      }
    },
    {
      "type": "Feature",
      "id": "stratum_3_ground_surface",
      "geometry": {
        "type": "Point",
        "coordinates": [
          -3.207001022445717,
          55.952017638556704
        ]
      },
      "properties": {
        "stratum": "ground_surface",
        "primary_surfacing": "Engineered roadway and paved pedestrian curbs",
        "wear_characteristics": "Authentic environmental patina and drainage grading"
      }
    },
    {
      "type": "Feature",
      "id": "stratum_4_landscape_ecology",
      "geometry": {
        "type": "Point",
        "coordinates": [
          -3.207001022445717,
          55.952017638556704
        ]
      },
      "properties": {
        "stratum": "landscape_ecology",
        "botanical_analysis": "- Deciduous Canopy: *Acer pseudoplatanus* (Sycamore), *Tilia \u00d7 europaea* (Common Lime), and *Ulmus glabra* (Wych Elm).\n- Phenology (December 22): Full winter dormancy; bare branch silhouettes, void of foliage, exposed ramified crown architecture over dormant winter turf.",
        "foliage_rectification": "Disambiguated from masonry mesh"
      }
    },
    {
      "type": "Feature",
      "id": "stratum_5_built_environment",
      "geometry": {
        "type": "Point",
        "coordinates": [
          -3.207001022445717,
          55.952017638556704
        ]
      },
      "properties": {
        "stratum": "built_environment",
        "architectural_summary": "- Centerpiece: West Register House (former St. George's Church), Robert Reid/Robert Adam design; colossal tetrastyle portico, square clock tower base, peristyle drum with Corinthian columns, hemispherical copper dome, lantern cupola.\n- Flanking Terraces: Neo-Classical Georgian residential palatial frontages; 3 storeys over rusticated basements, ashlar facades, timber 6-over-6 and 12-over-12 sash-and-case windows, projecting pedimented pavilions, slate mansard roofs with dressed stone chimney stacks and dormers.\n- Monument: Prince Albert Memorial equestrian bronze atop a stepped pink granite and sandstone pedestal.\n- Planar Rectification: Rectified vertical load-bearing lines, planar ashlar facades, aligned multi-tier window grid, corrected dome curvature.",
        "structures": [
          {
            "name": "Primary Facade",
            "storeys": 2,
            "height_m": 7.5,
            "roof_geometry": "pitched / parapet",
            "facade_material": "authentic regional masonry",
            "planar_rectification": "ENFORCED"
          }
        ]
      }
    },
    {
      "type": "Feature",
      "id": "stratum_6_dynamic_elements",
      "geometry": {
        "type": "Point",
        "coordinates": [
          -3.207001022445717,
          55.952017638556704
        ]
      },
      "properties": {
        "stratum": "dynamic_elements",
        "transient_decluttering": "ENFORCED",
        "vehicles": "NONE",
        "pedestrians": "NONE",
        "transient_clutter": "STRIPPED",
        "permanent_civil_fabric": "PRESERVED"
      }
    },
    {
      "type": "Feature",
      "id": "stratum_7_atmospheric_state",
      "geometry": null,
      "properties": {
        "stratum": "atmospheric_state",
        "lighting_rig": "SOLAR_EPHEMERIS",
        "timestamp_utc": "2026-12-22T13:54:00+00:00",
        "weather_state": "SNOW",
        "solar_azimuth_deg": 203.68,
        "solar_elevation_deg": 7.67,
        "shadow_azimuth_deg": 23.7,
        "color_temperature_k": 3000,
        "ambient_illuminance_lux": 12000
      }
    }
  ]
}