{
  "type": "FeatureCollection",
  "properties": {
    "address": "12 Charlotte Square, Edinburgh EH2 4ET, UK",
    "spatial_mode": "3D_TILES",
    "schema_version": "7-Strata-v2.0"
  },
  "features": [
    {
      "type": "Feature",
      "id": "stratum_1_observer_frame",
      "geometry": {
        "type": "Point",
        "coordinates": [
          -3.207133648782487,
          55.951949893257485
        ]
      },
      "properties": {
        "stratum": "observer_frame",
        "spatial_mode": "3D_TILES",
        "camera": {
          "altitude_m_agl": 5.5,
          "pitch_deg": 2.8,
          "heading_deg": 247.2,
          "fov_deg": 60.0
        }
      }
    },
    {
      "type": "Feature",
      "id": "stratum_2_subterranean_geology",
      "geometry": {
        "type": "Point",
        "coordinates": [
          -3.207133648782487,
          55.951949893257485
        ]
      },
      "properties": {
        "stratum": "subterranean_geology",
        "foundation_analysis": "- Bedrock: Carboniferous sedimentary sandstones and mudstones overlain by glacial till.\n- Lithic extraction: Pale blonde to buff Craigleith and Hailes carboniferous sandstone; dressed ashlar blocks.\n- Statue plinth: Polished pink Peterhead granite base courses with tooled margins.\n- Mortar: Historic hydraulic lime and sharp silica sand pointing."
      }
    },
    {
      "type": "Feature",
      "id": "stratum_3_ground_surface",
      "geometry": {
        "type": "Point",
        "coordinates": [
          -3.207133648782487,
          55.951949893257485
        ]
      },
      "properties": {
        "stratum": "ground_surface",
        "primary_surfacing": "Engineered roadway and paved pedestrian curbs",
        "wear_characteristics": "Authentic environmental patina and drainage grading"
      }
    },
    {
      "type": "Feature",
      "id": "stratum_4_landscape_ecology",
      "geometry": {
        "type": "Point",
        "coordinates": [
          -3.207133648782487,
          55.951949893257485
        ]
      },
      "properties": {
        "stratum": "landscape_ecology",
        "botanical_analysis": "- Deciduous tree species: *Tilia \u00d7 europaea* (Common Lime), *Acer pseudoplatanus* (Sycamore), and *Ulmus glabra* (Wych Elm).\n- Phenology (Late December): Fully dormant, complete winter defoliation; bare structural branch silhouettes with dark, damp bark; dormant terminal buds.",
        "foliage_rectification": "Disambiguated from masonry mesh"
      }
    },
    {
      "type": "Feature",
      "id": "stratum_5_built_environment",
      "geometry": {
        "type": "Point",
        "coordinates": [
          -3.207133648782487,
          55.951949893257485
        ]
      },
      "properties": {
        "stratum": "built_environment",
        "architectural_summary": "- Landmark center: Former St George's Church (West Register House), designed by Robert Adam and revised by Robert Reid (1811\u20131814). Neoclassical Greek-cross plan with a giant Roman Ionic tetrastyle portico, surmounted by a stepped square attic, a peristyle drum with Corinthian colonnade, and a ribbed copper-clad dome topped with a lantern and gilded cross [1].\n- Flanking terraces: 3-storey plus attic and basement neoclassical Georgian townhouses, dressed Craigleith ashlar, rusticated ground floors, regular 3-bay modules with timber 12-pane sash-and-case fenestration, projecting eaves cornices, and pitched Scottish slate roofs with ashlar chimney stacks.\n- Central monument: Equestrian monument to Prince Albert (1876, Sir John Steell) comprising a cast bronze equestrian bronze group atop a stepped pink granite pedestal with inset bronze relief panels [2].\n- Planar rectification: Verticals plumbed true; facade planes and continuous string courses aligned; photogrammetric mesh artifacts resolved to planar masonry surfaces.",
        "structures": [
          {
            "name": "Primary Facade",
            "storeys": 2,
            "height_m": 7.5,
            "roof_geometry": "pitched / parapet",
            "facade_material": "authentic regional masonry",
            "planar_rectification": "ENFORCED"
          }
        ]
      }
    },
    {
      "type": "Feature",
      "id": "stratum_6_dynamic_elements",
      "geometry": {
        "type": "Point",
        "coordinates": [
          -3.207133648782487,
          55.951949893257485
        ]
      },
      "properties": {
        "stratum": "dynamic_elements",
        "transient_decluttering": "ENFORCED",
        "vehicles": "NONE",
        "pedestrians": "NONE",
        "transient_clutter": "STRIPPED",
        "permanent_civil_fabric": "PRESERVED"
      }
    },
    {
      "type": "Feature",
      "id": "stratum_7_atmospheric_state",
      "geometry": null,
      "properties": {
        "stratum": "atmospheric_state",
        "lighting_rig": "SOLAR_EPHEMERIS",
        "timestamp_utc": "2026-12-22T13:56:59+00:00",
        "weather_state": "RAIN",
        "solar_azimuth_deg": 204.35,
        "solar_elevation_deg": 7.5,
        "shadow_azimuth_deg": 24.4,
        "color_temperature_k": 3000,
        "ambient_illuminance_lux": 12000
      }
    }
  ]
}