{
  "type": "FeatureCollection",
  "properties": {
    "address": "37 Broughton St, Edinburgh EH1 3JU, UK",
    "spatial_mode": "3D_TILES",
    "schema_version": "7-Strata-v2.0"
  },
  "features": [
    {
      "type": "Feature",
      "id": "stratum_1_observer_frame",
      "geometry": {
        "type": "Point",
        "coordinates": [
          -3.1879441688799313,
          55.957414970381045
        ]
      },
      "properties": {
        "stratum": "observer_frame",
        "spatial_mode": "3D_TILES",
        "camera": {
          "altitude_m_agl": 133.2,
          "pitch_deg": -29.5,
          "heading_deg": 105.7,
          "fov_deg": 60.0
        }
      }
    },
    {
      "type": "Feature",
      "id": "stratum_2_subterranean_geology",
      "geometry": {
        "type": "Point",
        "coordinates": [
          -3.1879441688799313,
          55.957414970381045
        ]
      },
      "properties": {
        "stratum": "subterranean_geology",
        "foundation_analysis": "Subterranean foundation situated on the Carboniferous sedimentary strata of the Midland Valley Basin, composed of interbedded Sandstone, Siltstone, and Mudstone of the Gullane Formation overlain by dense glacial till (boulder clay). Primary historic load-bearing lithics derive from local Upper Carboniferous blond/grey sandstone quarries, predominantly fine-to-medium grained quartz arenite from the Craigleith and Hailes quarries. Structural mortar consists of historic non-hydraulic to feebly hydraulic hot-mixed lime and aggregate blends, with localized modern Portland cement repointing across secondary rear elevations. Groundwater hydrology follows the natural northward descending glacial slope toward the Firth of Forth."
      }
    },
    {
      "type": "Feature",
      "id": "stratum_3_ground_surface",
      "geometry": {
        "type": "Point",
        "coordinates": [
          -3.1879441688799313,
          55.957414970381045
        ]
      },
      "properties": {
        "stratum": "ground_surface",
        "primary_surfacing": "Engineered roadway and paved pedestrian curbs",
        "wear_characteristics": "Authentic environmental patina and drainage grading"
      }
    },
    {
      "type": "Feature",
      "id": "stratum_4_landscape_ecology",
      "geometry": {
        "type": "Point",
        "coordinates": [
          -3.1879441688799313,
          55.957414970381045
        ]
      },
      "properties": {
        "stratum": "landscape_ecology",
        "botanical_analysis": "Rear tenement gardens and Broughton Street Lane boundaries support mature urban deciduous flora dominated by *Acer pseudoplatanus* (Sycamore) and *Betula pendula* (Silver Birch). Late-August phenological expression exhibits dense, fully expanded dark green foliage with early localized chlorotic margins, firm branch architecture, and zero premature defoliation.",
        "foliage_rectification": "Disambiguated from masonry mesh"
      }
    },
    {
      "type": "Feature",
      "id": "stratum_5_built_environment",
      "geometry": {
        "type": "Point",
        "coordinates": [
          -3.1879441688799313,
          55.957414970381045
        ]
      },
      "properties": {
        "stratum": "built_environment",
        "architectural_summary": "Classic Edinburgh New Town eastern periphery vernacular spanning late 18th to mid-19th-century Georgian and early Victorian tenement typologies alongside lower-scale rear mews and light-industrial infill. Broughton Street main elevations exhibit 3-to-4 storey plus basement and mansard attic massing, rectified to true vertical load-bearing planes. Roofscape features complex intersections of double-pitch gables, Scottish slate roofs with zinc/lead ridge capping, pitched timber-framed clerestories, pitched profile metal warehouse roofs, and flat felt/bitumen membranes. Rear elevations present irregular coursed sandstone masonry with projecting stone chimney stacks, clay chimney pots (cans), and regular vertical fenestration bays fitted with traditional timber-framed 6-over-6 and 2-over-2 sash-and-case windows.",
        "structures": [
          {
            "name": "Primary Facade",
            "storeys": 2,
            "height_m": 7.5,
            "roof_geometry": "pitched / parapet",
            "facade_material": "authentic regional masonry",
            "planar_rectification": "ENFORCED"
          }
        ]
      }
    },
    {
      "type": "Feature",
      "id": "stratum_6_dynamic_elements",
      "geometry": {
        "type": "Point",
        "coordinates": [
          -3.1879441688799313,
          55.957414970381045
        ]
      },
      "properties": {
        "stratum": "dynamic_elements",
        "transient_decluttering": "ENFORCED",
        "vehicles": "NONE",
        "pedestrians": "NONE",
        "transient_clutter": "STRIPPED",
        "permanent_civil_fabric": "PRESERVED"
      }
    },
    {
      "type": "Feature",
      "id": "stratum_7_atmospheric_state",
      "geometry": null,
      "properties": {
        "stratum": "atmospheric_state",
        "lighting_rig": "SOLAR_EPHEMERIS",
        "timestamp_utc": "2026-08-28T11:54:44.106601+00:00",
        "weather_state": "OVERCAST",
        "temperature_c": 19.5,
        "solar_azimuth_deg": 6.72,
        "solar_elevation_deg": 43.88,
        "shadow_azimuth_deg": 186.7,
        "color_temperature_k": 5400,
        "ambient_illuminance_lux": 60000
      }
    }
  ]
}