{
  "type": "FeatureCollection",
  "properties": {
    "address": "1 W Register St, Edinburgh EH2 2AA, UK",
    "spatial_mode": "3D_TILES",
    "schema_version": "7-Strata-v2.0"
  },
  "features": [
    {
      "type": "Feature",
      "id": "stratum_1_observer_frame",
      "geometry": {
        "type": "Point",
        "coordinates": [
          -3.1897379527696796,
          55.95413308385509
        ]
      },
      "properties": {
        "stratum": "observer_frame",
        "spatial_mode": "3D_TILES",
        "camera": {
          "altitude_m_agl": 71.2,
          "pitch_deg": -17.2,
          "heading_deg": 274.1,
          "fov_deg": 60.0
        }
      }
    },
    {
      "type": "Feature",
      "id": "stratum_2_subterranean_geology",
      "geometry": {
        "type": "Point",
        "coordinates": [
          -3.1897379527696796,
          55.95413308385509
        ]
      },
      "properties": {
        "stratum": "subterranean_geology",
        "foundation_analysis": "Subterranean strata comprise Carboniferous sedimentary sandstone and siltstone bedrock of the Inverclyde Group, overlain by dense glacial till. Primary structural masonry consists of local pale buff-grey Craigleith and Hailes sandstones bonded with traditional non-hydraulic lime-sand mortars. Ground conditions feature engineered urban sub-base over drained historic glacial clay deposits."
      }
    },
    {
      "type": "Feature",
      "id": "stratum_3_ground_surface",
      "geometry": {
        "type": "Point",
        "coordinates": [
          -3.1897379527696796,
          55.95413308385509
        ]
      },
      "properties": {
        "stratum": "ground_surface",
        "primary_surfacing": "Engineered roadway and paved pedestrian curbs",
        "wear_characteristics": "Authentic environmental patina and drainage grading"
      }
    },
    {
      "type": "Feature",
      "id": "stratum_4_landscape_ecology",
      "geometry": {
        "type": "Point",
        "coordinates": [
          -3.1897379527696796,
          55.95413308385509
        ]
      },
      "properties": {
        "stratum": "landscape_ecology",
        "botanical_analysis": "Mature urban parkland perimeter populated by *Acer pseudoplatanus* (sycamore), *Tilia \u00d7 europaea* (common lime), and *Betula pendula* (silver birch). Late September phenology: full canopy density exhibiting initial autumn chlorosis, yellowing outer margins, and sporadic early leaf litter across turf and gravel circuits.",
        "foliage_rectification": "Disambiguated from masonry mesh"
      }
    },
    {
      "type": "Feature",
      "id": "stratum_5_built_environment",
      "geometry": {
        "type": "Point",
        "coordinates": [
          -3.1897379527696796,
          55.95413308385509
        ]
      },
      "properties": {
        "stratum": "built_environment",
        "architectural_summary": "Neoclassical urban square anchored by the 45-metre fluted Craigleith sandstone Melville Monument, featuring a stepped pedestal and Roman Doric column crowned with a colossal stone statue. Surrounding perimeter consists of 4-to-6-storey Georgian and Victorian commercial palazzo blocks and townhouses: rusticated ashlar ground tiers, regularized 6-over-6 and 2-over-2 timber sash-and-case fenestration grids, dentiled eaves cornices, and Ballachulish slate mansard roofs punctuated by dressed ashlar chimney stacks. Modern mid-to-late 20th-century infill blocks feature rectified concrete frames and modular stone veneer grid facades.",
        "structures": [
          {
            "name": "Primary Facade",
            "storeys": 2,
            "height_m": 7.5,
            "roof_geometry": "pitched / parapet",
            "facade_material": "authentic regional masonry",
            "planar_rectification": "ENFORCED"
          }
        ]
      }
    },
    {
      "type": "Feature",
      "id": "stratum_6_dynamic_elements",
      "geometry": {
        "type": "Point",
        "coordinates": [
          -3.1897379527696796,
          55.95413308385509
        ]
      },
      "properties": {
        "stratum": "dynamic_elements",
        "transient_decluttering": "ENFORCED",
        "vehicles": "NONE",
        "pedestrians": "NONE",
        "transient_clutter": "STRIPPED",
        "permanent_civil_fabric": "PRESERVED"
      }
    },
    {
      "type": "Feature",
      "id": "stratum_7_atmospheric_state",
      "geometry": null,
      "properties": {
        "stratum": "atmospheric_state",
        "lighting_rig": "SOLAR_EPHEMERIS",
        "timestamp_utc": "2026-09-22T09:30:00+00:00",
        "weather_state": "SNOW",
        "solar_azimuth_deg": 135.48,
        "solar_elevation_deg": 26.46,
        "shadow_azimuth_deg": 315.5,
        "color_temperature_k": 5400,
        "ambient_illuminance_lux": 60000
      }
    }
  ]
}