{
  "type": "FeatureCollection",
  "properties": {
    "address": "Hobart House, Edinburgh, UK",
    "spatial_mode": "3D_TILES",
    "schema_version": "7-Strata-v2.0"
  },
  "features": [
    {
      "type": "Feature",
      "id": "stratum_1_observer_frame",
      "geometry": {
        "type": "Point",
        "coordinates": [
          -3.1976472825012556,
          55.95411623115617
        ]
      },
      "properties": {
        "stratum": "observer_frame",
        "spatial_mode": "3D_TILES",
        "camera": {
          "altitude_m_agl": 159.9,
          "pitch_deg": -32.9,
          "heading_deg": 283.3,
          "fov_deg": 60.0
        }
      }
    },
    {
      "type": "Feature",
      "id": "stratum_2_subterranean_geology",
      "geometry": {
        "type": "Point",
        "coordinates": [
          -3.1976472825012556,
          55.95411623115617
        ]
      },
      "properties": {
        "stratum": "subterranean_geology",
        "foundation_analysis": "* **Bedrock Stratigraphy**: Lower Carboniferous sedimentary calciferous sandstone measures interspersed with volcanic dolerite intrusions of the Midland Valley basin.\n* **Lithic Composition**: Primary construction in fine-to-medium grained Edinburgh New Town sandstones (Craigleith and Hailes pale cream-buff to honey quartz-arenite ashlar); roofing in Scottish Ballachulish and Welsh Bangor grey-black metamorphic slates.\n* **Mortar Chemistry**: Slaked hot-lime mortar binders with graded quartz sand aggregates and crushed crushed ceramic/pozzolan additives.\n* **Subterranean Dynamics**: Compact glacial till over sedimentary bedrock; subterranean vaults and foundation drainage channels running northward toward the Water of Leith drainage basin."
      }
    },
    {
      "type": "Feature",
      "id": "stratum_3_ground_surface",
      "geometry": {
        "type": "Point",
        "coordinates": [
          -3.1976472825012556,
          55.95411623115617
        ]
      },
      "properties": {
        "stratum": "ground_surface",
        "primary_surfacing": "Engineered roadway and paved pedestrian curbs",
        "wear_characteristics": "Authentic environmental patina and drainage grading"
      }
    },
    {
      "type": "Feature",
      "id": "stratum_4_landscape_ecology",
      "geometry": {
        "type": "Point",
        "coordinates": [
          -3.1976472825012556,
          55.95411623115617
        ]
      },
      "properties": {
        "stratum": "landscape_ecology",
        "botanical_analysis": "* **Species Identified**: Mature *Acer pseudoplatanus* (Sycamore Maple) and *Tilia \u00d7 europaea* (Common Lime) nestled in rear court perimeters.\n* **Phenological State**: Full dense late-summer canopy volume; deep green chlorophyll saturation across broad lobed foliage prior to autumn senescence; dense structural branch architecture obscured by leaf mass.",
        "foliage_rectification": "Disambiguated from masonry mesh"
      }
    },
    {
      "type": "Feature",
      "id": "stratum_5_built_environment",
      "geometry": {
        "type": "Point",
        "coordinates": [
          -3.1976472825012556,
          55.95411623115617
        ]
      },
      "properties": {
        "stratum": "built_environment",
        "architectural_summary": "* **Typology & Massing**: 3- to 5-storey urban tenement and commercial block development at the intersection of Hanover Street and Thistle Street. Prominent Scottish Baronial / Renaissance revival corner tenement featuring a polygonal corner turret (tourelle) with a conical slate roof, flanked by classical late 18th-century Georgian and 20th-century contextual New Town terraces.\n* **Roof & Vertical Geometry**: Pitched and mansard slate roofs, lead-rolled hips and valleys, ashlar-coped skews, piended and pedimented timber dormers, and droved ashlar chimney stacks with cylindrical terracotta chimney pots.\n* **Fenestration**: Rectilinear fenestration grid containing timber sash-and-case windows (predominantly 6-over-6 and 2-over-2 configurations) inset within dressed sandstone reveals and polished architraves.\n* **Planar Rectification**: All photogrammetric distortions, bowing walls, and melted roof facets rectified into rigid planar masonry planes, plumb vertical party walls, and razor-straight cornices.",
        "structures": [
          {
            "name": "Primary Facade",
            "storeys": 2,
            "height_m": 7.5,
            "roof_geometry": "pitched / parapet",
            "facade_material": "authentic regional masonry",
            "planar_rectification": "ENFORCED"
          }
        ]
      }
    },
    {
      "type": "Feature",
      "id": "stratum_6_dynamic_elements",
      "geometry": {
        "type": "Point",
        "coordinates": [
          -3.1976472825012556,
          55.95411623115617
        ]
      },
      "properties": {
        "stratum": "dynamic_elements",
        "transient_decluttering": "ENFORCED",
        "vehicles": "NONE",
        "pedestrians": "NONE",
        "transient_clutter": "STRIPPED",
        "permanent_civil_fabric": "PRESERVED"
      }
    },
    {
      "type": "Feature",
      "id": "stratum_7_atmospheric_state",
      "geometry": null,
      "properties": {
        "stratum": "atmospheric_state",
        "lighting_rig": "SOLAR_EPHEMERIS",
        "timestamp_utc": "2026-11-11T09:12:47.435348+00:00",
        "weather_state": "RAIN",
        "temperature_c": 15.0,
        "solar_azimuth_deg": 39.46,
        "solar_elevation_deg": 9.12,
        "shadow_azimuth_deg": 219.5,
        "color_temperature_k": 3000,
        "ambient_illuminance_lux": 12000
      }
    }
  ]
}