{
  "type": "FeatureCollection",
  "properties": {
    "address": "17 Charlotte Square, Edinburgh EH2 4DJ, UK",
    "spatial_mode": "3D_TILES",
    "schema_version": "7-Strata-v2.0"
  },
  "features": [
    {
      "type": "Feature",
      "id": "stratum_1_observer_frame",
      "geometry": {
        "type": "Point",
        "coordinates": [
          -3.206784589026718,
          55.95176812129627
        ]
      },
      "properties": {
        "stratum": "observer_frame",
        "spatial_mode": "3D_TILES",
        "camera": {
          "altitude_m_agl": 1.2,
          "pitch_deg": 6.1,
          "heading_deg": 265.3,
          "fov_deg": 60.0
        }
      }
    },
    {
      "type": "Feature",
      "id": "stratum_2_subterranean_geology",
      "geometry": {
        "type": "Point",
        "coordinates": [
          -3.206784589026718,
          55.95176812129627
        ]
      },
      "properties": {
        "stratum": "subterranean_geology",
        "foundation_analysis": "- Bedrock: Carboniferous sedimentary strata of the Strathclyde Group (sandstone, siltstone, and mudstone) overlain by dense Devensian glacial till.\n- Lithic Fabric: Primary facade masonry executed in Carboniferous Craigleith sandstone (pale buff to honey-grey silica-cemented quartz arenite of exceptional structural density); secondary rear walling and foundations incorporate Hailes sandstone and whinstone rubble. Monument plinth constructed from dressed pink/red Peterhead granite.\n- Mortar Chemistry: Historic hot-mixed non-hydraulic lime mortar incorporating crushed limestone aggregates and sharp pit sand; modern conservation repointing in hydraulic lime (NHL 2/3.5).\n- Hydrogeology: Well-drained gently undulating glacial drift sloping westward towards the Water of Leith basin."
      }
    },
    {
      "type": "Feature",
      "id": "stratum_3_ground_surface",
      "geometry": {
        "type": "Point",
        "coordinates": [
          -3.206784589026718,
          55.95176812129627
        ]
      },
      "properties": {
        "stratum": "ground_surface",
        "primary_surfacing": "Engineered roadway and paved pedestrian curbs",
        "wear_characteristics": "Authentic environmental patina and drainage grading"
      }
    },
    {
      "type": "Feature",
      "id": "stratum_4_landscape_ecology",
      "geometry": {
        "type": "Point",
        "coordinates": [
          -3.206784589026718,
          55.95176812129627
        ]
      },
      "properties": {
        "stratum": "landscape_ecology",
        "botanical_analysis": "- Garden Woodland: Mature temperate urban broadleaf specimens consisting of *Ulmus glabra* (Wych elm), *Acer pseudoplatanus* (Sycamore), *Tilia \u00d7 europaea* (Common lime), and *Aesculus hippocastanum* (Horse chestnut).\n- Phenology (Late September): Early autumn transition phase; high canopy retention (approx. 80-85% leaf density) exhibiting peripheral chlorosis, lime foliage turning pale ochre-yellow, sycamore displaying localized tar spot (*Rhytisma acerinum*), horse chestnut displaying leaf-margin bronzing, with initial wind-scattered leaf fall on turf.\n- Ground Cover: Fine-mown perennial ryegrass (*Lolium perenne*) and fescue turf forming a continuous green carpet across Charlotte Square Garden.",
        "foliage_rectification": "Disambiguated from masonry mesh"
      }
    },
    {
      "type": "Feature",
      "id": "stratum_5_built_environment",
      "geometry": {
        "type": "Point",
        "coordinates": [
          -3.206784589026718,
          55.95176812129627
        ]
      },
      "properties": {
        "stratum": "built_environment",
        "architectural_summary": "- West Register House (Former St George's Church, 1811\u20131814, Robert Reid): Neoclassical monumental civic/ecclesiastical structure; colossal tetrastyle Ionic pedimented portico set upon a raised rusticated podium; stepped attic base supporting a cylindrical drum surrounded by an Ionic peristyle colonnade, crowned by an octagonal ribbed hemispherical dome and terminating in a lantern cupola with gilded cross finial.\n- Flanking Terraces (Charlotte Square West Range, Robert Adam design): Unified Neoclassical palace-front Georgian townhouses; 3 full storeys over raised rusticated basements with sunken areas, attic storeys set behind balustraded parapets; channelled horizontal rustication at ground floor; timber sash-and-case fenestration arranged in strict vertical alignments (6-over-6 and 8-over-8 panes); pitched mansard roof profiles with Ballachulish slate and dressed ashlar chimney stacks with clay chimney pots.\n- Prince Albert Memorial (Sir John Steell, 1876): Monumental equestrian bronze group elevated on a multi-tiered stepped granite pedestal with subsidiary corner bronze sculptural groups and bas-relief bronze narrative friezes.\n- Geometry: Absolute planar vertical rectification across all ashlar facades, colonnade shafts, and terraced party-wall parapets.",
        "structures": [
          {
            "name": "Primary Facade",
            "storeys": 2,
            "height_m": 7.5,
            "roof_geometry": "pitched / parapet",
            "facade_material": "authentic regional masonry",
            "planar_rectification": "ENFORCED"
          }
        ]
      }
    },
    {
      "type": "Feature",
      "id": "stratum_6_dynamic_elements",
      "geometry": {
        "type": "Point",
        "coordinates": [
          -3.206784589026718,
          55.95176812129627
        ]
      },
      "properties": {
        "stratum": "dynamic_elements",
        "transient_decluttering": "ENFORCED",
        "vehicles": "NONE",
        "pedestrians": "NONE",
        "transient_clutter": "STRIPPED",
        "permanent_civil_fabric": "PRESERVED"
      }
    },
    {
      "type": "Feature",
      "id": "stratum_7_atmospheric_state",
      "geometry": null,
      "properties": {
        "stratum": "atmospheric_state",
        "lighting_rig": "SOLAR_EPHEMERIS",
        "timestamp_utc": "2026-09-23T17:06:00+00:00",
        "weather_state": "RAIN",
        "solar_azimuth_deg": 257.76,
        "solar_elevation_deg": 8.35,
        "shadow_azimuth_deg": null,
        "color_temperature_k": 3000,
        "ambient_illuminance_lux": 12000
      }
    }
  ]
}