{
  "type": "FeatureCollection",
  "properties": {
    "address": "1400 Independence Ave SW, Washington, DC 20250, USA",
    "spatial_mode": "3D_TILES",
    "schema_version": "7-Strata-v2.0"
  },
  "features": [
    {
      "type": "Feature",
      "id": "stratum_1_observer_frame",
      "geometry": {
        "type": "Point",
        "coordinates": [
          -77.03047060220307,
          38.886803805918916
        ]
      },
      "properties": {
        "stratum": "observer_frame",
        "spatial_mode": "3D_TILES",
        "camera": {
          "altitude_m_agl": 163.4,
          "pitch_deg": -16.0,
          "heading_deg": 309.2,
          "fov_deg": 60.0
        }
      }
    },
    {
      "type": "Feature",
      "id": "stratum_2_subterranean_geology",
      "geometry": {
        "type": "Point",
        "coordinates": [
          -77.03047060220307,
          38.886803805918916
        ]
      },
      "properties": {
        "stratum": "subterranean_geology",
        "foundation_analysis": "Subterranean strata consist of Atlantic Coastal Plain unconsolidated sedimentary deposits (gravel, sand, silt, and clay of the Potomac Formation) overlying crystalline metamorphic basement rocks (Piedmont Province Potomac terrane mica schist and gneiss). Historic fill and alluvial muds from the Potomac River paleochannel underlie the knoll, reinforced by an engineered mass-concrete underpinning slab. Primary lithics comprise Cockeysville calcitic marble (Symington quarry, Baltimore County, Maryland) at the lower 46 meters, a narrow transitional belt of Lee marble (Berkshire County, Massachusetts), and Cockeysville marble (Beaver Dam quarry, Maryland) extending through the pyramidal apex. Structural backing consists of mortared gneiss rubble and coarse-grained biotite granite blocks. Paved surfaces feature thermal-finished Rockville white granite flags, bluestone curbing, and compacted decomposed granite pathways."
      }
    },
    {
      "type": "Feature",
      "id": "stratum_3_ground_surface",
      "geometry": {
        "type": "Point",
        "coordinates": [
          -77.03047060220307,
          38.886803805918916
        ]
      },
      "properties": {
        "stratum": "ground_surface",
        "primary_surfacing": "Engineered roadway and paved pedestrian curbs",
        "wear_characteristics": "Authentic environmental patina and drainage grading"
      }
    },
    {
      "type": "Feature",
      "id": "stratum_4_landscape_ecology",
      "geometry": {
        "type": "Point",
        "coordinates": [
          -77.03047060220307,
          38.886803805918916
        ]
      },
      "properties": {
        "stratum": "landscape_ecology",
        "botanical_analysis": "Vegetation reflects late-summer phenology on September 4. Canopy composition features mature *Ulmus americana* (American elm) forming dense vaulted canopies with deep green foliage showing localized chlorosis along leaf margins; *Quercus palustris* (pin oak) and *Quercus alba* (white oak) with fully expanded, dark green coriaceous leaves; *Prunus serrulata* (Yoshino cherry) groupings showing late-season foliar fatigue and subtle foliage thinning; *Acer rubrum* (red maple) with incipient anthocyanin accumulation on terminal leaf sprays; and *Platanus \u00d7 acerifolia* (London planetree) displaying peeling cream-olive bark plates beneath mature lobed leaves. Manicured turf consists of dense *Festuca arundinacea* (tall fescue) and *Poa pratensis* (Kentucky bluegrass) showing high-traffic compaction patterns along path margins.",
        "foliage_rectification": "Disambiguated from masonry mesh"
      }
    },
    {
      "type": "Feature",
      "id": "stratum_5_built_environment",
      "geometry": {
        "type": "Point",
        "coordinates": [
          -77.03047060220307,
          38.886803805918916
        ]
      },
      "properties": {
        "stratum": "built_environment",
        "architectural_summary": "The central obelisk rises 169.29 meters with a 10:1 height-to-base ratio, tapering from a square footprint of 16.79 meters per side to a 10.5-meter square shaft top, capped by a 16.8-meter pyramidal apex with eight interior observation ports. The surrounding concentric plaza features low granite security walls, circular paved aprons, and radiating curvilinear pedestrian walkways. The adjacent cultural pavilion structure comprises an inverted three-tier ziggurat corona clad in cast-aluminum filigree screens over a glazed base volume with a zinc standing-seam penthouse. Surrounding civic buildings feature stripped Neoclassical and Beaux-Arts limestone colonnades, multi-pane steel fenestration grids, and flat built-up roofs with parapets. All vertical surfaces plumb to true gravity axes, rectifying photogrammetric geometric drift.",
        "structures": [
          {
            "name": "Primary Facade",
            "storeys": 2,
            "height_m": 7.5,
            "roof_geometry": "pitched / parapet",
            "facade_material": "authentic regional masonry",
            "planar_rectification": "ENFORCED"
          }
        ]
      }
    },
    {
      "type": "Feature",
      "id": "stratum_6_dynamic_elements",
      "geometry": {
        "type": "Point",
        "coordinates": [
          -77.03047060220307,
          38.886803805918916
        ]
      },
      "properties": {
        "stratum": "dynamic_elements",
        "transient_decluttering": "ENFORCED",
        "vehicles": "NONE",
        "pedestrians": "NONE",
        "transient_clutter": "STRIPPED",
        "permanent_civil_fabric": "PRESERVED"
      }
    },
    {
      "type": "Feature",
      "id": "stratum_7_atmospheric_state",
      "geometry": null,
      "properties": {
        "stratum": "atmospheric_state",
        "lighting_rig": "SOLAR_EPHEMERIS",
        "timestamp_utc": "2026-09-04T22:11:59+00:00",
        "weather_state": "SUNNY",
        "solar_azimuth_deg": 267.05,
        "solar_elevation_deg": 15.35,
        "shadow_azimuth_deg": 87.1,
        "color_temperature_k": 4500,
        "ambient_illuminance_lux": 35000
      }
    }
  ]
}