{
  "type": "FeatureCollection",
  "properties": {
    "address": "46 Charlotte Square, Edinburgh EH2 4HQ, UK",
    "spatial_mode": "3D_TILES",
    "schema_version": "7-Strata-v2.0"
  },
  "features": [
    {
      "type": "Feature",
      "id": "stratum_1_observer_frame",
      "geometry": {
        "type": "Point",
        "coordinates": [
          -3.207112004048108,
          55.95195703581181
        ]
      },
      "properties": {
        "stratum": "observer_frame",
        "spatial_mode": "3D_TILES",
        "camera": {
          "altitude_m_agl": 119.9,
          "pitch_deg": 3.7,
          "heading_deg": 251.1,
          "fov_deg": 60.0
        }
      }
    },
    {
      "type": "Feature",
      "id": "stratum_2_subterranean_geology",
      "geometry": {
        "type": "Point",
        "coordinates": [
          -3.207112004048108,
          55.95195703581181
        ]
      },
      "properties": {
        "stratum": "subterranean_geology",
        "foundation_analysis": "- Bedrock & Substratum: Subterranean strata of the Carboniferous Gullane Formation (part of the Strathclyde Group) composed of sandstone, siltstone, and mudstone beds overlain by dense glacial till.\n- Masonry Lithics: High-purity silica-rich Craigleith Sandstone (\"liver rock\", pale honey-to-grey quartzose arenite) utilized for ashlar dressings, portico columns, and palace facades. Secondary structural coursing and basement walls utilize Hailes and Redhall sandstone.\n- Memorial Lithic Fabric: Polished pink Peterhead granite pedestal supporting bronze monumental statuary.\n- Mortar Chemistry: Traditional non-hydraulic to feebly hydraulic slaked hot-mixed lime mortar with local graded river sand aggregate.\n- Groundwater/Drainage: Well-drained raised plateau sloping westward towards the Water of Leith basin; stabilized subterranean water table beneath municipal stormwater infrastructure."
      }
    },
    {
      "type": "Feature",
      "id": "stratum_3_ground_surface",
      "geometry": {
        "type": "Point",
        "coordinates": [
          -3.207112004048108,
          55.95195703581181
        ]
      },
      "properties": {
        "stratum": "ground_surface",
        "primary_surfacing": "Engineered roadway and paved pedestrian curbs",
        "wear_characteristics": "Authentic environmental patina and drainage grading"
      }
    },
    {
      "type": "Feature",
      "id": "stratum_4_landscape_ecology",
      "geometry": {
        "type": "Point",
        "coordinates": [
          -3.207112004048108,
          55.95195703581181
        ]
      },
      "properties": {
        "stratum": "landscape_ecology",
        "botanical_analysis": "- Botanical Classification: Mature urban garden parkland featuring *Acer pseudoplatanus* (Sycamore maple), *Tilia \u00d7 europaea* (Common lime), *Ulmus glabra* (Wych elm), and *Betula pendula* (Silver birch).\n- Phenological Canopy State (August): Dense, fully expanded deep-green summer foliar mass; robust crown coverage with mature leaf retention; fine branch architecture mostly enclosed within the heavy green canopy; manicured perennial turf lawn in foreground.",
        "foliage_rectification": "Disambiguated from masonry mesh"
      }
    },
    {
      "type": "Feature",
      "id": "stratum_5_built_environment",
      "geometry": {
        "type": "Point",
        "coordinates": [
          -3.207112004048108,
          55.95195703581181
        ]
      },
      "properties": {
        "stratum": "built_environment",
        "architectural_summary": "- Core Monument (Center Distance): West Register House (formerly St George's Church, completed 1814 by Robert Reid after Robert Adam's 1791 masterplan). Neoclassical monument featuring a giant tetrastyle Ionic portico, ashlar podium, stepped drum with alternating column bays, and a high ribbed hemispherical dome terminating in an octagonal lantern and gilt finial.\n- Flanking Terraces (North and South Quadrants): Category A-listed Neoclassical Georgian palace-block facades designed by Robert Adam. 3-storey plus attic and sunken basement configurations, rusticated ground floors with round-arched openings, giant-order pilasters on end pavilions, continuous balustraded parapets, and regular arrays of 6-over-6 timber sash-and-case fenestration.\n- Central Garden Monument (Foreground Left): Prince Albert Memorial (unveiled 1876, Sir John Steell) comprising an equestrian bronze statue atop an architectural multi-tiered Peterhead granite pedestal flanked by corner allegorical bronze groups.\n- Geometric Rectification: Absolute plumb vertical alignment applied to portico columns, pilasters, townhouse wall planes, and chimney stacks, rectifying photogrammetric triangulation warping into crisp planar ashlar and sharp modillioned cornices.",
        "structures": [
          {
            "name": "Primary Facade",
            "storeys": 2,
            "height_m": 7.5,
            "roof_geometry": "pitched / parapet",
            "facade_material": "authentic regional masonry",
            "planar_rectification": "ENFORCED"
          }
        ]
      }
    },
    {
      "type": "Feature",
      "id": "stratum_6_dynamic_elements",
      "geometry": {
        "type": "Point",
        "coordinates": [
          -3.207112004048108,
          55.95195703581181
        ]
      },
      "properties": {
        "stratum": "dynamic_elements",
        "transient_decluttering": "ENFORCED",
        "vehicles": "NONE",
        "pedestrians": "NONE",
        "transient_clutter": "STRIPPED",
        "permanent_civil_fabric": "PRESERVED"
      }
    },
    {
      "type": "Feature",
      "id": "stratum_7_atmospheric_state",
      "geometry": null,
      "properties": {
        "stratum": "atmospheric_state",
        "lighting_rig": "SOLAR_EPHEMERIS",
        "timestamp_utc": "2026-08-28T12:54:48.706881+00:00",
        "weather_state": "OVERCAST",
        "temperature_c": 18.8,
        "solar_azimuth_deg": 346.28,
        "solar_elevation_deg": 43.35,
        "shadow_azimuth_deg": 166.3,
        "color_temperature_k": 5400,
        "ambient_illuminance_lux": 60000
      }
    }
  ]
}