{
  "type": "FeatureCollection",
  "features": [
    {
      "type": "Feature",
      "geometry": {
        "type": "Point",
        "coordinates": [
          -3.209717,
          55.953182
        ]
      },
      "properties": {
        "stratum": "observer_frame",
        "altitude_agl_m": 121.9,
        "heading_deg": 304.6,
        "pitch_deg": -9.2,
        "fov_deg": 60.0,
        "spatial_mode": "elevated_perspective"
      }
    },
    {
      "type": "Feature",
      "geometry": {
        "type": "Polygon",
        "coordinates": [
          [
            [
              -3.2105,
              55.9528
            ],
            [
              -3.2085,
              55.9528
            ],
            [
              -3.2085,
              55.9536
            ],
            [
              -3.2105,
              55.9536
            ],
            [
              -3.2105,
              55.9528
            ]
          ]
        ]
      },
      "properties": {
        "stratum": "subterranean_geology",
        "bedrock_lithology": "Carboniferous sandstone (Craigleith / Hailes sequence)",
        "stratigraphy": "Glacial till over sedimentary sandstone and siltstone",
        "quarry_provenance": "Craigleith Sandstone"
      }
    },
    {
      "type": "Feature",
      "geometry": {
        "type": "Polygon",
        "coordinates": [
          [
            [
              -3.2102,
              55.9529
            ],
            [
              -3.209,
              55.9529
            ],
            [
              -3.209,
              55.9534
            ],
            [
              -3.2102,
              55.9534
            ],
            [
              -3.2102,
              55.9529
            ]
          ]
        ]
      },
      "properties": {
        "stratum": "ground_surface",
        "primary_surfacing": "Granite cobble setts and asphalt roadway",
        "curb_profile": "Dressed granite kerbstones with paved sandstone flagged walkways",
        "wear_patina": "Moderate weathering and soot residue"
      }
    },
    {
      "type": "Feature",
      "geometry": {
        "type": "MultiPoint",
        "coordinates": [
          [
            -3.2096,
            55.9531
          ],
          [
            -3.2098,
            55.953
          ],
          [
            -3.2094,
            55.9532
          ]
        ]
      },
      "properties": {
        "stratum": "landscape_ecology",
        "canopy_flora_species": [
          "Ulmus procera",
          "Acer pseudoplatanus",
          "Tilia cordata"
        ],
        "foliage_density": "Dense private circus garden canopy"
      }
    },
    {
      "type": "Feature",
      "geometry": {
        "type": "Polygon",
        "coordinates": [
          [
            [
              -3.2104,
              55.9533
            ],
            [
              -3.2092,
              55.9535
            ],
            [
              -3.2088,
              55.9532
            ],
            [
              -3.21,
              55.953
            ],
            [
              -3.2104,
              55.9533
            ]
          ]
        ]
      },
      "properties": {
        "stratum": "built_environment",
        "typology": "Georgian residential circus terrace",
        "architectural_style": "Neoclassical / Greek Revival (William H. Playfair)",
        "structures": [
          {
            "name": "Ainslie Place Terrace",
            "storeys": 4,
            "height_m": 16.5,
            "roof_geometry": "Mansard and slate pitched with classical ashlar chimneys",
            "facade_material": "Blonde Craigleith ashlar sandstone",
            "fenestration": "Sash windows with rusticated ground floor and molded architraves"
          }
        ]
      }
    },
    {
      "type": "Feature",
      "geometry": {
        "type": "Point",
        "coordinates": [
          -3.209717,
          55.953182
        ]
      },
      "properties": {
        "stratum": "dynamic_elements",
        "transient_decluttering": "COMPLETE",
        "vehicles": "NONE",
        "pedestrians": "NONE"
      }
    },
    {
      "type": "Feature",
      "id": "stratum_7_atmospheric_state",
      "properties": {
        "stratum": "atmospheric_state",
        "lighting_rig": "SOLAR_EPHEMERIS",
        "timestamp_utc": "2026-08-24T13:45:00+00:00",
        "weather_state": "OVERCAST",
        "temperature_c": 15.0,
        "solar_azimuth_deg": 329.82,
        "solar_elevation_deg": 42.13,
        "shadow_azimuth_deg": 149.8,
        "color_temperature_k": 5400,
        "ambient_illuminance_lux": 60000
      },
      "geometry": null
    }
  ]
}