{
  "type": "FeatureCollection",
  "properties": {
    "address": "1540 Maine Ave SW, Washington, DC 20004, USA",
    "spatial_mode": "3D_TILES",
    "schema_version": "7-Strata-v2.0"
  },
  "features": [
    {
      "type": "Feature",
      "id": "stratum_1_observer_frame",
      "geometry": {
        "type": "Point",
        "coordinates": [
          -77.0373753748954,
          38.88571530001868
        ]
      },
      "properties": {
        "stratum": "observer_frame",
        "spatial_mode": "3D_TILES",
        "camera": {
          "altitude_m_agl": 211.0,
          "pitch_deg": -18.7,
          "heading_deg": 22.9,
          "fov_deg": 60.0
        }
      }
    },
    {
      "type": "Feature",
      "id": "stratum_2_subterranean_geology",
      "geometry": {
        "type": "Point",
        "coordinates": [
          -77.0373753748954,
          38.88571530001868
        ]
      },
      "properties": {
        "stratum": "subterranean_geology",
        "foundation_analysis": "Subterranean geology situated on the Atlantic Coastal Plain transition zone near the Potomac Fall Line. Subsurface stratigraphy comprises unconsolidated Cretaceous Potomac Formation sediments (alluvial gravels, interbedded clays, and quartzose sand lenses) over deeply buried crystalline Piedmont metamorphic schist and gneiss. Reclaimed historic marshland engineered with nineteenth-century earth fill and stabilized subterranean concrete underpinning resting on Potomac bluestone gneiss boulders. Primary monument lithics feature fine-to-medium grained Cockeysville calcitic marble (Texas, Maryland quarry) for the lower 152-foot tier, a narrow intermediate course of Sheffield Massachusetts dolomite marble, and Beaver Dam Cockeysville marble for the upper shaft to the pyramidion. Surrounding neoclassical civic facades utilize Mississippian Salem limestone (Bedford, Indiana)."
      }
    },
    {
      "type": "Feature",
      "id": "stratum_3_ground_surface",
      "geometry": {
        "type": "Point",
        "coordinates": [
          -77.0373753748954,
          38.88571530001868
        ]
      },
      "properties": {
        "stratum": "ground_surface",
        "primary_surfacing": "Engineered roadway and paved pedestrian curbs",
        "wear_characteristics": "Authentic environmental patina and drainage grading"
      }
    },
    {
      "type": "Feature",
      "id": "stratum_4_landscape_ecology",
      "geometry": {
        "type": "Point",
        "coordinates": [
          -77.0373753748954,
          38.88571530001868
        ]
      },
      "properties": {
        "stratum": "landscape_ecology",
        "botanical_analysis": "Urban parkland canopy dominated by mature *Quercus phellos* (willow oak), *Ulmus americana* (American elm), *Acer saccharinum* (silver maple), *Quercus palustris* (pin oak), and *Platanus \u00d7 acerifolia* (London plane). Phenology grounded in early September: full, deep green mature foliage exhibiting late-summer moisture stress, intermittent leaf margins showing early chlorosis and minor tip scorch, dense subcanopy crowns, and low-mown *Festuca arundinacea* and *Poa pratensis* turfgrass fields cross-cut by formal radial pedestrian corridors.",
        "foliage_rectification": "Disambiguated from masonry mesh"
      }
    },
    {
      "type": "Feature",
      "id": "stratum_5_built_environment",
      "geometry": {
        "type": "Point",
        "coordinates": [
          -77.0373753748954,
          38.88571530001868
        ]
      },
      "properties": {
        "stratum": "built_environment",
        "architectural_summary": "Robert Mills design completed by the U.S. Army Corps of Engineers: a hollow monumental stone masonry obelisk tapering upward 555 feet 5 inches, capped with an 8.9-inch solid cast-aluminum pyramidion set at an apex pitch angle of 17.25 degrees. True plumb masonry envelope with tight mortarless vertical ashlar joints. Modern cultural museum exhibits a three-tiered inverted ziggurat corona form supported by four reinforced concrete shear cores, wrapped in an ornamental latticework screen wall. Surrounding Beaux-Arts and Classical Revival Federal Triangle complexes display monumental 6-to-8 storey massings, rusticated ground-floor arcades, colossal order colonnades, rhythmic punched fenestration grids with bronze multi-pane sashes, and multi-pitched mansard and hipped rooflines clad in terra cotta mission tile.",
        "structures": [
          {
            "name": "Primary Facade",
            "storeys": 2,
            "height_m": 7.5,
            "roof_geometry": "pitched / parapet",
            "facade_material": "authentic regional masonry",
            "planar_rectification": "ENFORCED"
          }
        ]
      }
    },
    {
      "type": "Feature",
      "id": "stratum_6_dynamic_elements",
      "geometry": {
        "type": "Point",
        "coordinates": [
          -77.0373753748954,
          38.88571530001868
        ]
      },
      "properties": {
        "stratum": "dynamic_elements",
        "transient_decluttering": "ENFORCED",
        "vehicles": "NONE",
        "pedestrians": "NONE",
        "transient_clutter": "STRIPPED",
        "permanent_civil_fabric": "PRESERVED"
      }
    },
    {
      "type": "Feature",
      "id": "stratum_7_atmospheric_state",
      "geometry": null,
      "properties": {
        "stratum": "atmospheric_state",
        "lighting_rig": "SOLAR_EPHEMERIS",
        "timestamp_utc": "2026-09-04T22:11:59+00:00",
        "weather_state": "SUNNY",
        "solar_azimuth_deg": 267.04,
        "solar_elevation_deg": 15.35,
        "shadow_azimuth_deg": 87.0,
        "color_temperature_k": 4500,
        "ambient_illuminance_lux": 35000
      }
    }
  ]
}