{
  "type": "FeatureCollection",
  "properties": {
    "address": "1540 Maine Ave SW, Washington, DC 20004, USA",
    "spatial_mode": "3D_TILES",
    "schema_version": "7-Strata-v2.0"
  },
  "features": [
    {
      "type": "Feature",
      "id": "stratum_1_observer_frame",
      "geometry": {
        "type": "Point",
        "coordinates": [
          -77.03750459229336,
          38.88527037487709
        ]
      },
      "properties": {
        "stratum": "observer_frame",
        "spatial_mode": "3D_TILES",
        "camera": {
          "altitude_m_agl": 240.1,
          "pitch_deg": -17.6,
          "heading_deg": 22.8,
          "fov_deg": 60.0
        }
      }
    },
    {
      "type": "Feature",
      "id": "stratum_2_subterranean_geology",
      "geometry": {
        "type": "Point",
        "coordinates": [
          -77.03750459229336,
          38.88527037487709
        ]
      },
      "properties": {
        "stratum": "subterranean_geology",
        "foundation_analysis": "Subterranean geology situated on the Atlantic Coastal Plain-Piedmont fall zone, comprising alluvial silt, sand, and gravel deposits over deep crystalline metamorphic bedrock (gneiss and schist). Monument substructure anchored by an engineered concrete-underpinned gravity foundation. Primary monument lithics comprise Cockeysville calcitic marble (lower 46 meters / 152 feet) backed with Maine granite and blue gneiss rubble, transitioning at the construction demarcation line to lighter Cockeysville/Lee marble ashlar with Massachusetts granite backing up to the 152-meter pyramidion capstone. Surrounding Federal Triangle complexes utilize Salem/Indiana oolitic limestone ashlar over steel and reinforced concrete structural frames. Mortar systems span historic hydraulic lime-sand to modern breathable potassium-silicate restoration mortars."
      }
    },
    {
      "type": "Feature",
      "id": "stratum_3_ground_surface",
      "geometry": {
        "type": "Point",
        "coordinates": [
          -77.03750459229336,
          38.88527037487709
        ]
      },
      "properties": {
        "stratum": "ground_surface",
        "primary_surfacing": "Engineered roadway and paved pedestrian curbs",
        "wear_characteristics": "Authentic environmental patina and drainage grading"
      }
    },
    {
      "type": "Feature",
      "id": "stratum_4_landscape_ecology",
      "geometry": {
        "type": "Point",
        "coordinates": [
          -77.03750459229336,
          38.88527037487709
        ]
      },
      "properties": {
        "stratum": "landscape_ecology",
        "botanical_analysis": "Predominant canopy trees: Ulmus americana (American Elm) lining mall all\u00e9es, Quercus phellos (Willow Oak), Quercus palustris (Pin Oak), and Acer rubrum (Red Maple) across the monument grounds and perimeter parkland. Botanical phenology for early September: dense mature summer canopies displaying deep olive and emerald foliar color with initial chlorotic tip-drying and faint yellowing on exposed terminal branches; zero significant leaf drop.",
        "foliage_rectification": "Disambiguated from masonry mesh"
      }
    },
    {
      "type": "Feature",
      "id": "stratum_5_built_environment",
      "geometry": {
        "type": "Point",
        "coordinates": [
          -77.03750459229336,
          38.88527037487709
        ]
      },
      "properties": {
        "stratum": "built_environment",
        "architectural_summary": "Washington Monument: 169.29-meter (555 ft) hollow load-bearing stone masonry obelisk, four planar battered facades tapering uniformly to a 55-foot pyramidion apex with aluminum cap point, surrounded by a circular granite-paved plaza ringed by 56 stainless steel flagpoles. National Museum of African American History and Culture: three-tiered inverted pyramidal corona clad in open-patterned bronze-finished architectural cast aluminum lattice panels over a recessed glazed structural pavilion. Federal Triangle: 6-to-8 storey monumental Neoclassical and Beaux-Arts administrative complexes featuring colossal Ionic and Doric colonnades, rusticated ashlar limestone bases, denticulated entablatures, and hipped roofs clad in red clay Spanish mission tiles. Urban DC background: strictly planar 130-foot height-regulated commercial and civic grid with punched-window fenestration and flat roof planes.",
        "structures": [
          {
            "name": "Primary Facade",
            "storeys": 2,
            "height_m": 7.5,
            "roof_geometry": "pitched / parapet",
            "facade_material": "authentic regional masonry",
            "planar_rectification": "ENFORCED"
          }
        ]
      }
    },
    {
      "type": "Feature",
      "id": "stratum_6_dynamic_elements",
      "geometry": {
        "type": "Point",
        "coordinates": [
          -77.03750459229336,
          38.88527037487709
        ]
      },
      "properties": {
        "stratum": "dynamic_elements",
        "transient_decluttering": "ENFORCED",
        "vehicles": "NONE",
        "pedestrians": "NONE",
        "transient_clutter": "STRIPPED",
        "permanent_civil_fabric": "PRESERVED"
      }
    },
    {
      "type": "Feature",
      "id": "stratum_7_atmospheric_state",
      "geometry": null,
      "properties": {
        "stratum": "atmospheric_state",
        "lighting_rig": "SOLAR_EPHEMERIS",
        "timestamp_utc": "2026-09-04T11:30:00+00:00",
        "weather_state": "SUNNY",
        "solar_azimuth_deg": 87.65,
        "solar_elevation_deg": 9.06,
        "shadow_azimuth_deg": 267.6,
        "color_temperature_k": 3000,
        "ambient_illuminance_lux": 12000
      }
    }
  ]
}