{
  "type": "FeatureCollection",
  "properties": {
    "address": "1 W Register St, Edinburgh EH2 2AA, UK",
    "spatial_mode": "3D_TILES",
    "schema_version": "7-Strata-v2.0"
  },
  "features": [
    {
      "type": "Feature",
      "id": "stratum_1_observer_frame",
      "geometry": {
        "type": "Point",
        "coordinates": [
          -3.1901169968103114,
          55.954149049306416
        ]
      },
      "properties": {
        "stratum": "observer_frame",
        "spatial_mode": "3D_TILES",
        "camera": {
          "altitude_m_agl": 69.2,
          "pitch_deg": -27.2,
          "heading_deg": 270.5,
          "fov_deg": 60.0
        }
      }
    },
    {
      "type": "Feature",
      "id": "stratum_2_subterranean_geology",
      "geometry": {
        "type": "Point",
        "coordinates": [
          -3.1901169968103114,
          55.954149049306416
        ]
      },
      "properties": {
        "stratum": "subterranean_geology",
        "foundation_analysis": "- Bedrock: Carboniferous sedimentary sequences (Calciferous Sandstone Measures) overlain by glacial till.\n- Lithic Fabric: Local buff-blonde Craigleith and Hailes sandstones; accents of Permian red Locharbriggs sandstone; Caithness stone paving flags; Scottish whinstone and granite kerbs/setts.\n- Mortar & Subterranean: Non-hydraulic to feebly hydraulic hot-mixed lime mortars with sharp silica sand; stable engineered urban subterranean drainage across the New Town ridge."
      }
    },
    {
      "type": "Feature",
      "id": "stratum_3_ground_surface",
      "geometry": {
        "type": "Point",
        "coordinates": [
          -3.1901169968103114,
          55.954149049306416
        ]
      },
      "properties": {
        "stratum": "ground_surface",
        "primary_surfacing": "Engineered roadway and paved pedestrian curbs",
        "wear_characteristics": "Authentic environmental patina and drainage grading"
      }
    },
    {
      "type": "Feature",
      "id": "stratum_4_landscape_ecology",
      "geometry": {
        "type": "Point",
        "coordinates": [
          -3.1901169968103114,
          55.954149049306416
        ]
      },
      "properties": {
        "stratum": "landscape_ecology",
        "botanical_analysis": "- Urban Canopy: Perimeter and interior groves of *Acer pseudoplatanus* (Sycamore), *Tilia cordata* (Small-leaved Lime), and *Betula pendula* (Silver Birch).\n- Seasonal Phenology (Late September): Early autumn canopy transition; mature green foliage showing focal crown thinning and early yellowing chlorosis across outer leaf margins; neat perennial borders; dense, manicured civic turf.",
        "foliage_rectification": "Disambiguated from masonry mesh"
      }
    },
    {
      "type": "Feature",
      "id": "stratum_5_built_environment",
      "geometry": {
        "type": "Point",
        "coordinates": [
          -3.1901169968103114,
          55.954149049306416
        ]
      },
      "properties": {
        "stratum": "built_environment",
        "architectural_summary": "- Central Civic Focus: Melville Monument (1821\u20131828); colossal fluted Roman Doric column on a rusticated stepped square pedestal, crowned with a standing stone figure.\n- Garden Layout: Elliptical and circular geometric path networks enclosing lawn panels and a sunken pavilion.\n- Perimeter Typologies: Neo-Classical Georgian ashlar terraces (3\u20134 storeys over rusticated basements, timber sash fenestration); Victorian commercial banks with Corinthian/Ionic giant orders; 20th-century Portland stone/granite clad corporate blocks (5\u20137 storeys, modular recessed grids).\n- Linear Geometry: Rectified true vertical facades, crisp parapets, pitched slate roofs with lead flashings, and cast-iron balustrades.",
        "structures": [
          {
            "name": "Primary Facade",
            "storeys": 2,
            "height_m": 7.5,
            "roof_geometry": "pitched / parapet",
            "facade_material": "authentic regional masonry",
            "planar_rectification": "ENFORCED"
          }
        ]
      }
    },
    {
      "type": "Feature",
      "id": "stratum_6_dynamic_elements",
      "geometry": {
        "type": "Point",
        "coordinates": [
          -3.1901169968103114,
          55.954149049306416
        ]
      },
      "properties": {
        "stratum": "dynamic_elements",
        "transient_decluttering": "ENFORCED",
        "vehicles": "NONE",
        "pedestrians": "NONE",
        "transient_clutter": "STRIPPED",
        "permanent_civil_fabric": "PRESERVED"
      }
    },
    {
      "type": "Feature",
      "id": "stratum_7_atmospheric_state",
      "geometry": null,
      "properties": {
        "stratum": "atmospheric_state",
        "lighting_rig": "SOLAR_EPHEMERIS",
        "timestamp_utc": "2026-09-22T16:30:00+00:00",
        "weather_state": "SUNNY",
        "solar_azimuth_deg": 250.18,
        "solar_elevation_deg": 13.57,
        "shadow_azimuth_deg": 70.2,
        "color_temperature_k": 4500,
        "ambient_illuminance_lux": 35000
      }
    }
  ]
}