{
  "type": "FeatureCollection",
  "properties": {
    "address": "7 Ainslie Pl, Edinburgh EH3 6AS, UK",
    "spatial_mode": "3D_TILES",
    "schema_version": "7-Strata-v2.0"
  },
  "features": [
    {
      "type": "Feature",
      "id": "stratum_1_observer_frame",
      "geometry": {
        "type": "Point",
        "coordinates": [
          -3.2106998692080797,
          55.95361395987533
        ]
      },
      "properties": {
        "stratum": "observer_frame",
        "spatial_mode": "3D_TILES",
        "camera": {
          "altitude_m_agl": 1.4,
          "pitch_deg": -8.8,
          "heading_deg": 139.9,
          "fov_deg": 60.0
        }
      }
    },
    {
      "type": "Feature",
      "id": "stratum_2_subterranean_geology",
      "geometry": {
        "type": "Point",
        "coordinates": [
          -3.2106998692080797,
          55.95361395987533
        ]
      },
      "properties": {
        "stratum": "subterranean_geology",
        "foundation_analysis": "Subterranean foundation composed of Lower Carboniferous sedimentary sandstone, siltstone, and mudstone of the Strathclyde and Inverclyde Groups, overlain by dense glacial till. Primary structural lithic is pale buff to light-grey Craigleith quartzose sandstone, supplemented with brown-buff Hailes laminated sandstone for basement retaining walls and rear elevations. Mortar consists of traditional hot-mixed calcitic lime and sharp river sand aggregate."
      }
    },
    {
      "type": "Feature",
      "id": "stratum_3_ground_surface",
      "geometry": {
        "type": "Point",
        "coordinates": [
          -3.2106998692080797,
          55.95361395987533
        ]
      },
      "properties": {
        "stratum": "ground_surface",
        "primary_surfacing": "Engineered roadway and paved pedestrian curbs",
        "wear_characteristics": "Authentic environmental patina and drainage grading"
      }
    },
    {
      "type": "Feature",
      "id": "stratum_4_landscape_ecology",
      "geometry": {
        "type": "Point",
        "coordinates": [
          -3.2106998692080797,
          55.95361395987533
        ]
      },
      "properties": {
        "stratum": "landscape_ecology",
        "botanical_analysis": "Central garden enclosure planted with mature specimen broadleaf urban trees: Sycamore (*Acer pseudoplatanus*), Common Lime (*Tilia \u00d7 europaea*), and Wych Elm (*Ulmus glabra*). Large ascending trunks with dense multi-tiered ramification, spreading spherical and ovate canopy volumes ranging from 12 to 22 meters in height, rooted in maintained turf with gravel path networks.",
        "foliage_rectification": "Disambiguated from masonry mesh"
      }
    },
    {
      "type": "Feature",
      "id": "stratum_5_built_environment",
      "geometry": {
        "type": "Point",
        "coordinates": [
          -3.2106998692080797,
          55.95361395987533
        ]
      },
      "properties": {
        "stratum": "built_environment",
        "architectural_summary": "Moray Estate late-Georgian Neoclassical crescent and circus urbanism designed by James Gillespie Graham (c. 1822\u20131824). Symmetrical palace-fronted curving terrace: four-storey and basement continuous ashlar facades with pitched attic storeys behind parapets. Ground floor treated with horizontal channeled rustication and segmental-arched or square-headed openings. Piano nobile and upper floors feature smooth ashlar, molded architraves, continuous string courses, and mutule cornice surmounted by a stone blocking course. Slate-clad mansard and pitched roofs punctuated by regularly spaced gabled and segmental-headed timber-framed dormers; regular rhythm of stone-coped ashlar chimney stacks with earthenware cylindrical flues. Fenestration is timber sash-and-case in 6-over-6 and 12-over-12 configurations. Sunk basement lightwells protected by spearhead cast-iron balustrades. In the distant skyline, a classical octagonal drum and ribbed dome clad in standing-seam copper.",
        "structures": [
          {
            "name": "Primary Facade",
            "storeys": 2,
            "height_m": 7.5,
            "roof_geometry": "pitched / parapet",
            "facade_material": "authentic regional masonry",
            "planar_rectification": "ENFORCED"
          }
        ]
      }
    },
    {
      "type": "Feature",
      "id": "stratum_6_dynamic_elements",
      "geometry": {
        "type": "Point",
        "coordinates": [
          -3.2106998692080797,
          55.95361395987533
        ]
      },
      "properties": {
        "stratum": "dynamic_elements",
        "transient_decluttering": "ENFORCED",
        "vehicles": "NONE",
        "pedestrians": "NONE",
        "transient_clutter": "STRIPPED",
        "permanent_civil_fabric": "PRESERVED"
      }
    },
    {
      "type": "Feature",
      "id": "stratum_7_atmospheric_state",
      "geometry": null,
      "properties": {
        "stratum": "atmospheric_state",
        "lighting_rig": "SOLAR_EPHEMERIS",
        "timestamp_utc": "2026-12-25T14:45:00+00:00",
        "weather_state": "SNOW",
        "solar_azimuth_deg": 214.61,
        "solar_elevation_deg": 4.32,
        "shadow_azimuth_deg": null,
        "color_temperature_k": 3000,
        "ambient_illuminance_lux": 12000
      }
    }
  ]
}