{
  "type": "FeatureCollection",
  "properties": {
    "address": "40 Charlotte Square, Edinburgh EH2 4HQ, UK",
    "spatial_mode": "3D_TILES",
    "schema_version": "7-Strata-v2.0"
  },
  "features": [
    {
      "type": "Feature",
      "id": "stratum_1_observer_frame",
      "geometry": {
        "type": "Point",
        "coordinates": [
          -3.206928039539391,
          55.95191750686016
        ]
      },
      "properties": {
        "stratum": "observer_frame",
        "spatial_mode": "3D_TILES",
        "camera": {
          "altitude_m_agl": 6.5,
          "pitch_deg": 0.8,
          "heading_deg": 253.7,
          "fov_deg": 60.0
        }
      }
    },
    {
      "type": "Feature",
      "id": "stratum_2_subterranean_geology",
      "geometry": {
        "type": "Point",
        "coordinates": [
          -3.206928039539391,
          55.95191750686016
        ]
      },
      "properties": {
        "stratum": "subterranean_geology",
        "foundation_analysis": "Bedrock comprises Carboniferous sedimentary strata (Wardie Shales and sandstone of the Inverclyde Group) capped by glacial till. Facades and monuments utilize local Carboniferous Craigleith and Hailes pale buff-to-grey quartzose sandstone, set in traditional hot-mixed non-hydraulic lime mortar. Basement areas are underlain by well-drained glacial drift over fractured sandstone."
      }
    },
    {
      "type": "Feature",
      "id": "stratum_3_ground_surface",
      "geometry": {
        "type": "Point",
        "coordinates": [
          -3.206928039539391,
          55.95191750686016
        ]
      },
      "properties": {
        "stratum": "ground_surface",
        "primary_surfacing": "Engineered roadway and paved pedestrian curbs",
        "wear_characteristics": "Authentic environmental patina and drainage grading"
      }
    },
    {
      "type": "Feature",
      "id": "stratum_4_landscape_ecology",
      "geometry": {
        "type": "Point",
        "coordinates": [
          -3.206928039539391,
          55.95191750686016
        ]
      },
      "properties": {
        "stratum": "landscape_ecology",
        "botanical_analysis": "Charlotte Square Gardens canopy is dominated by mature *Tilia \u00d7 europaea* (Common Lime) and *Acer pseudoplatanus* (Sycamore), interspersed with *Ulmus glabra* (Wych Elm). Late September phenology shows early senescent canopy chlorosis, partial foliar yellowing, and minor early autumn leaf thinning across upper crowns over mown *Festuca-Agrostis* turf.",
        "foliage_rectification": "Disambiguated from masonry mesh"
      }
    },
    {
      "type": "Feature",
      "id": "stratum_5_built_environment",
      "geometry": {
        "type": "Point",
        "coordinates": [
          -3.206928039539391,
          55.95191750686016
        ]
      },
      "properties": {
        "stratum": "built_environment",
        "architectural_summary": "Neoclassical civic square and church (West Register House, formerly St George's Church) terminated by Robert Adam's unified palace-fronted terrace design, completed by Robert Reid. Central church features a tetrastyle Ionic portico supporting a stepped podium, circular peristyle drum, copper dome, and cupola lantern. Flanking terraces comprise 3-storey plus basement and attic ashlar townhouses with rusticated ground floors, projecting pavilion bays with attached colonnades, pitched slate roofs with ashlar chimney stacks, and regular 6-over-6 timber sash-and-case fenestration. Central garden features the equestrian Prince Albert Memorial on a multi-tiered polished granite pedestal.",
        "structures": [
          {
            "name": "Primary Facade",
            "storeys": 2,
            "height_m": 7.5,
            "roof_geometry": "pitched / parapet",
            "facade_material": "authentic regional masonry",
            "planar_rectification": "ENFORCED"
          }
        ]
      }
    },
    {
      "type": "Feature",
      "id": "stratum_6_dynamic_elements",
      "geometry": {
        "type": "Point",
        "coordinates": [
          -3.206928039539391,
          55.95191750686016
        ]
      },
      "properties": {
        "stratum": "dynamic_elements",
        "transient_decluttering": "ENFORCED",
        "vehicles": "NONE",
        "pedestrians": "NONE",
        "transient_clutter": "STRIPPED",
        "permanent_civil_fabric": "PRESERVED"
      }
    },
    {
      "type": "Feature",
      "id": "stratum_7_atmospheric_state",
      "geometry": null,
      "properties": {
        "stratum": "atmospheric_state",
        "lighting_rig": "SOLAR_EPHEMERIS",
        "timestamp_utc": "2026-09-22T16:30:00+00:00",
        "weather_state": "FOG",
        "solar_azimuth_deg": 250.17,
        "solar_elevation_deg": 13.58,
        "shadow_azimuth_deg": 70.2,
        "color_temperature_k": 4500,
        "ambient_illuminance_lux": 35000
      }
    }
  ]
}